<?xml version='1.0' encoding='UTF-8'?>
<osm version="0.6" generator="Osmosis SNAPSHOT-r26564">
  <node id="309889114" version="1" timestamp="2008-11-04T14:15:02Z" uid="64783" user="DAIMO" changeset="681132" lat="50.3881972" lon="7.4859501">
    <tag k="name" v="Am Schloßgraben"/>
    <tag k="amenity" v="kindergarten"/>
  </node>
  <node id="310993351" version="3" timestamp="2009-01-12T10:48:04Z" uid="64783" user="DAIMO" changeset="776493" lat="50.3823419" lon="7.4944088">
    <tag k="name" v="Don Bosco"/>
    <tag k="amenity" v="kindergarten"/>
  </node>
  <node id="347536674" version="2" timestamp="2011-01-30T12:01:41Z" uid="44217" user="kjon" changeset="7132768" lat="50.4007638" lon="7.6138473">
    <tag k="name" v="Kindertagesstätte Marienburg"/>
    <tag k="amenity" v="kindergarten"/>
  </node>
  <node id="571490975" version="2" timestamp="2010-02-20T16:39:33Z" uid="44217" user="kjon" changeset="3925275" lat="50.3544838" lon="7.5750991">
    <tag k="name" v="Ev. Kindertagesstätte"/>
    <tag k="amenity" v="kindergarten"/>
  </node>
  <node id="643557495" version="1" timestamp="2010-02-17T18:21:51Z" uid="44217" user="kjon" changeset="3902976" lat="50.3120439" lon="7.5137524">
    <tag k="amenity" v="kindergarten"/>
  </node>
  <node id="652725984" version="1" timestamp="2010-02-24T18:53:10Z" uid="44217" user="kjon" changeset="3965522" lat="50.355023" lon="7.5937563">
    <tag k="name" v="Kindertagesstätte Sonnenschein"/>
    <tag k="amenity" v="kindergarten"/>
    <tag k="addr:street" v="Friedrich-Ebert-Ring"/>
    <tag k="addr:housenumber" v="41"/>
  </node>
  <node id="687783610" version="1" timestamp="2010-04-07T19:26:24Z" uid="178444" user="wrifka" changeset="4358074" lat="50.371852" lon="7.6350171">
    <tag k="addr:postcode" v="56077"/>
    <tag k="addr:country" v="DE"/>
    <tag k="name" v="Ev. Kindergarten Sonnenblume"/>
    <tag k="amenity" v="kindergarten"/>
    <tag k="addr:street" v="Niederberger Höhe"/>
    <tag k="addr:city" v="Koblenz"/>
    <tag k="addr:housenumber" v="22"/>
  </node>
  <node id="727845433" version="1" timestamp="2010-05-09T22:11:18Z" uid="178444" user="wrifka" changeset="4654881" lat="50.370232" lon="7.627226">
    <tag k="addr:postcode" v="56077"/>
    <tag k="addr:country" v="DE"/>
    <tag k="name" v="Kindergarten St. Pankratius"/>
    <tag k="amenity" v="kindergarten"/>
    <tag k="addr:street" v="Alte Burgstraße"/>
    <tag k="addr:city" v="Koblenz"/>
    <tag k="addr:housenumber" v="17"/>
  </node>
  <node id="1200502345" version="1" timestamp="2011-03-13T17:45:58Z" uid="86317" user="GeoGerd" changeset="7548070" lat="50.3568244" lon="7.615025">
    <tag k="name" v="Maria Himmelfahrt"/>
    <tag k="amenity" v="kindergarten"/>
  </node>
  <node id="1270234466" version="3" timestamp="2012-01-02T15:37:07Z" uid="70696" user="xybot" changeset="10271761" lat="50.4032368" lon="7.624284">
    <tag k="addr:postcode" v="56179"/>
    <tag k="name" v="Städt. Kindertagesstätte &quot;Haus für Kinder&quot;"/>
    <tag k="amenity" v="kindergarten"/>
    <tag k="addr:street" v="Höhrer Straße"/>
    <tag k="addr:housenumber" v="82"/>
  </node>
  <node id="1291824314" version="1" timestamp="2011-05-19T17:30:57Z" uid="457241" user="DuProfNick" changeset="8191613" lat="50.3889509" lon="7.6748015">
    <tag k="amenity" v="kindergarten"/>
  </node>
</osm>
