<?xml version='1.0' encoding='UTF-8'?>
<osm version="0.6" generator="Osmosis SNAPSHOT-r26564">
  <node id="148289618" version="3" timestamp="2010-09-02T11:06:15Z" uid="202746" user="patrick1204" changeset="5661277" lat="50.3599773" lon="7.6019247">
    <tag k="cuisine" v="greek"/>
    <tag k="name" v="Poseidon"/>
    <tag k="amenity" v="restaurant"/>
  </node>
  <node id="254115202" version="12" timestamp="2011-10-15T16:16:39Z" uid="179581" user="Geofreund1" changeset="9564745" lat="50.3162302" lon="7.4991184">
    <tag k="name" v="Rasthaus Winningen Ost"/>
    <tag k="amenity" v="restaurant"/>
    <tag k="addr:city" v="Winningen"/>
  </node>
  <node id="264460107" version="2" timestamp="2011-06-02T15:38:33Z" uid="116044" user="berndw" changeset="8321062" lat="50.3964846" lon="7.6142514">
    <tag k="name" v="Am Rheinufer"/>
    <tag k="amenity" v="restaurant"/>
  </node>
  <node id="268013300" version="1" timestamp="2008-06-02T07:41:39Z" uid="8764" user="egore911" changeset="19836" lat="50.3228345" lon="7.5409152">
    <tag k="created_by" v="JOSM"/>
    <tag k="name" v="Anker"/>
    <tag k="tourism" v="hotel"/>
    <tag k="amenity" v="restaurant"/>
  </node>
  <node id="269073090" version="6" timestamp="2011-10-10T19:56:27Z" uid="290680" user="wheelmap_visitor" changeset="9518514" lat="50.3604064" lon="7.5537052">
    <tag k="cuisine" v="italian"/>
    <tag k="wheelchair" v="yes"/>
    <tag k="name" v="Pizzeria La Tombola"/>
    <tag k="amenity" v="restaurant"/>
  </node>
  <node id="281608620" version="6" timestamp="2011-10-04T14:40:41Z" uid="290680" user="wheelmap_visitor" changeset="9466302" lat="50.361543" lon="7.593705">
    <tag k="addr:postcode" v="56068"/>
    <tag k="phone" v="+49 261 9734694"/>
    <tag k="cuisine" v="mexican"/>
    <tag k="wheelchair" v="limited"/>
    <tag k="smoking" v="no"/>
    <tag k="name" v="TaqiTos"/>
    <tag k="amenity" v="restaurant"/>
    <tag k="addr:street" v="Münzplatz"/>
    <tag k="addr:housenumber" v="6"/>
  </node>
  <node id="282039871" version="3" timestamp="2011-10-04T14:40:42Z" uid="290680" user="wheelmap_visitor" changeset="9466302" lat="50.3611642" lon="7.5945446">
    <tag k="cuisine" v="chinese"/>
    <tag k="wheelchair" v="limited"/>
    <tag k="name" v="Asia"/>
    <tag k="amenity" v="restaurant"/>
  </node>
  <node id="282039872" version="2" timestamp="2009-08-30T08:03:53Z" uid="8764" user="egore911" changeset="2309450" lat="50.3613215" lon="7.5931143">
    <tag k="addr:postcode" v="56068"/>
    <tag k="cuisine" v="chinese"/>
    <tag k="name" v="Little Saigon"/>
    <tag k="amenity" v="restaurant"/>
    <tag k="addr:street" v="Altengraben"/>
    <tag k="addr:city" v="Koblenz"/>
    <tag k="addr:housenumber" v="14"/>
  </node>
  <node id="282040593" version="2" timestamp="2011-11-03T16:04:35Z" uid="290680" user="wheelmap_visitor" changeset="9727851" lat="50.3586714" lon="7.5988621">
    <tag k="cuisine" v="chinese"/>
    <tag k="wheelchair" v="no"/>
    <tag k="name" v="Ding Dong"/>
    <tag k="amenity" v="restaurant"/>
  </node>
  <node id="282040594" version="5" timestamp="2011-10-04T20:33:14Z" uid="290680" user="wheelmap_visitor" changeset="9466302" lat="50.3554622" lon="7.5908324">
    <tag k="addr:postcode" v="56068"/>
    <tag k="cuisine" v="chinese"/>
    <tag k="wheelchair" v="no"/>
    <tag k="addr:country" v="DE"/>
    <tag k="name" v="Ding Dong"/>
    <tag k="amenity" v="restaurant"/>
    <tag k="addr:street" v="Löhrstraße"/>
    <tag k="addr:city" v="Koblenz"/>
    <tag k="addr:housenumber" v="97"/>
  </node>
  <node id="287733873" version="9" timestamp="2011-10-15T16:12:56Z" uid="179581" user="Geofreund1" changeset="9564745" lat="50.3174195" lon="7.4968096">
    <tag k="addr:postcode" v="56333"/>
    <tag k="phone" v="+49 2606 1411"/>
    <tag k="website" v="http://www.babrasthaus-moselblick.de/index.html"/>
    <tag k="name" v="Rasthaus Winningen West"/>
    <tag k="amenity" v="restaurant"/>
    <tag k="addr:city" v="Winningen"/>
    <tag k="operator" v="BAB Rasthaus Winningen West GmbH"/>
  </node>
  <node id="309894269" version="4" timestamp="2008-11-17T13:17:50Z" uid="64783" user="DAIMO" changeset="762722" lat="50.3898715" lon="7.4863247">
    <tag k="name" v="Zum Kurfürsten"/>
    <tag k="amenity" v="restaurant"/>
  </node>
  <node id="309894748" version="5" timestamp="2009-01-12T10:11:04Z" uid="64783" user="DAIMO" changeset="776493" lat="50.387969" lon="7.485216">
    <tag k="name" v="Zur Krone"/>
    <tag k="amenity" v="restaurant"/>
  </node>
  <node id="310992441" version="1" timestamp="2008-11-10T09:18:15Z" uid="64783" user="DAIMO" changeset="731348" lat="50.3822039" lon="7.4969439">
    <tag k="name" v="Zum Hoorweiher"/>
    <tag k="amenity" v="restaurant"/>
  </node>
  <node id="311049310" version="3" timestamp="2010-07-21T08:15:50Z" uid="322106" user="LongJohnSilver" changeset="5276830" lat="50.3865593" lon="7.4995097">
    <tag k="name" v="Brauhaus"/>
    <tag k="amenity" v="restaurant"/>
  </node>
  <node id="311049313" version="2" timestamp="2008-11-26T12:30:03Z" uid="64783" user="DAIMO" changeset="798417" lat="50.3867364" lon="7.4986999">
    <tag k="name" v="Zur Sonne"/>
    <tag k="amenity" v="restaurant"/>
  </node>
  <node id="311051670" version="4" timestamp="2010-11-23T12:46:26Z" uid="322106" user="LongJohnSilver" changeset="6439208" lat="50.3856145" lon="7.4981239">
    <tag k="name" v="Zur Linde"/>
    <tag k="amenity" v="restaurant"/>
  </node>
  <node id="322779843" version="6" timestamp="2010-04-15T15:31:58Z" uid="70696" user="xybot" changeset="4431179" lat="50.3135347" lon="7.5190577">
    <tag k="addr:postcode" v="56333"/>
    <tag k="phone" v="+4926062312"/>
    <tag k="cuisine" v="german;regional"/>
    <tag k="addr:country" v="DE"/>
    <tag k="name" v="Seng&apos;s Winzerwirtschaft"/>
    <tag k="amenity" v="restaurant"/>
    <tag k="addr:street" v="Bachstraße"/>
    <tag k="addr:city" v="Winningen"/>
    <tag k="addr:housenumber" v="19"/>
  </node>
  <node id="322779926" version="5" timestamp="2010-04-15T15:31:59Z" uid="70696" user="xybot" changeset="4431179" lat="50.313038" lon="7.520735">
    <tag k="addr:postcode" v="56333"/>
    <tag k="phone" v="+492606961504"/>
    <tag k="addr:country" v="DE"/>
    <tag k="name" v="Pfeifenhannes"/>
    <tag k="amenity" v="restaurant"/>
    <tag k="addr:street" v="Am Moselufer"/>
    <tag k="addr:city" v="Winningen"/>
    <tag k="addr:housenumber" v="4"/>
  </node>
  <node id="322780027" version="8" timestamp="2010-04-15T15:32:00Z" uid="70696" user="xybot" changeset="4431179" lat="50.3130226" lon="7.5198597">
    <tag k="addr:postcode" v="56333"/>
    <tag k="phone" v="+4926061751"/>
    <tag k="cuisine" v="german;regional"/>
    <tag k="addr:country" v="DE"/>
    <tag k="name" v="Winzerwirtschaft Barz"/>
    <tag k="amenity" v="restaurant"/>
    <tag k="addr:street" v="Osterstraße"/>
    <tag k="addr:city" v="Winningen"/>
    <tag k="addr:housenumber" v="3"/>
  </node>
  <node id="322780311" version="3" timestamp="2010-04-15T15:32:01Z" uid="70696" user="xybot" changeset="4431179" lat="50.313377" lon="7.517087">
    <tag k="addr:postcode" v="56333"/>
    <tag k="phone" v="+4926062149"/>
    <tag k="addr:country" v="DE"/>
    <tag k="name" v="Weinhaus Hoffnung"/>
    <tag k="amenity" v="restaurant"/>
    <tag k="addr:street" v="Fährstraße"/>
    <tag k="addr:city" v="Winningen"/>
    <tag k="addr:housenumber" v="37"/>
  </node>
  <node id="322780616" version="4" timestamp="2010-04-15T15:32:01Z" uid="70696" user="xybot" changeset="4431179" lat="50.3135201" lon="7.5172157">
    <tag k="addr:postcode" v="56333"/>
    <tag k="phone" v="+4926061543"/>
    <tag k="cuisine" v="german;regional"/>
    <tag k="addr:country" v="DE"/>
    <tag k="name" v="Strausswirtschaft Horch-Göbel"/>
    <tag k="amenity" v="restaurant"/>
    <tag k="addr:street" v="Fährstraße"/>
    <tag k="addr:city" v="Winningen"/>
    <tag k="addr:housenumber" v="32"/>
  </node>
  <node id="322781791" version="3" timestamp="2009-07-18T10:58:01Z" uid="44217" user="kjon" changeset="1861769" lat="50.3133941" lon="7.5185858">
    <tag k="created_by" v="Potlatch 0.10f"/>
    <tag k="name" v="Weinhaus Goldene Traube"/>
    <tag k="amenity" v="restaurant"/>
  </node>
  <node id="322782448" version="3" timestamp="2010-04-15T15:32:02Z" uid="70696" user="xybot" changeset="4431179" lat="50.311813" lon="7.5190096">
    <tag k="addr:postcode" v="56333"/>
    <tag k="phone" v="+492606961412"/>
    <tag k="addr:country" v="DE"/>
    <tag k="name" v="Zur Krone"/>
    <tag k="amenity" v="restaurant"/>
    <tag k="addr:street" v="Fährstraße"/>
    <tag k="addr:city" v="Winningen"/>
    <tag k="addr:housenumber" v="1"/>
  </node>
  <node id="322971713" version="1" timestamp="2008-12-29T23:51:22Z" uid="6871" user="smsm1" changeset="673621" lat="50.3940155" lon="7.5309337">
    <tag k="cuisine" v="chinese"/>
    <tag k="amenity" v="restaurant"/>
  </node>
  <node id="340387764" version="4" timestamp="2011-04-13T13:12:39Z" uid="363904" user="maltejohannson" changeset="7851751" lat="50.3540499" lon="7.5937848">
    <tag k="addr:postcode" v="56068"/>
    <tag k="cuisine" v="italian"/>
    <tag k="wheelchair" v="limited"/>
    <tag k="addr:country" v="DE"/>
    <tag k="name" v="Bella Napoli"/>
    <tag k="amenity" v="restaurant"/>
    <tag k="addr:street" v="Rizzastraße"/>
    <tag k="addr:city" v="Koblenz"/>
    <tag k="addr:housenumber" v="32"/>
  </node>
  <node id="364714790" version="2" timestamp="2010-09-02T11:06:16Z" uid="202746" user="patrick1204" changeset="5661277" lat="50.359914" lon="7.6022385">
    <tag k="cuisine" v="mexican"/>
    <tag k="name" v="Casa Mexicana"/>
    <tag k="amenity" v="restaurant"/>
  </node>
  <node id="370040596" version="1" timestamp="2009-04-05T15:54:51Z" uid="86317" user="GeoGerd" changeset="237374" lat="50.3754722" lon="7.6035014">
    <tag k="cuisine" v="turkish"/>
    <tag k="name" v="Adana"/>
    <tag k="amenity" v="restaurant"/>
  </node>
  <node id="381959634" version="1" timestamp="2009-04-23T11:46:51Z" uid="43447" user="astersteiner" changeset="910661" lat="50.3339252" lon="7.6094367">
    <tag k="cuisine" v="regional"/>
    <tag k="name" v="Soldatenheim"/>
    <tag k="amenity" v="restaurant"/>
  </node>
  <node id="384257954" version="4" timestamp="2012-03-11T15:56:01Z" uid="290680" user="wheelmap_visitor" changeset="10939298" lat="50.3414001" lon="7.5867053">
    <tag k="wheelchair" v="limited"/>
    <tag k="name" v="Schützenhof"/>
    <tag k="amenity" v="restaurant"/>
  </node>
  <node id="384295739" version="2" timestamp="2010-09-20T10:46:27Z" uid="202746" user="patrick1204" changeset="5827964" lat="50.353433" lon="7.6018226">
    <tag k="name" v="Weindorf"/>
    <tag k="amenity" v="restaurant"/>
  </node>
  <node id="406775775" version="2" timestamp="2011-10-17T11:50:18Z" uid="290680" user="wheelmap_visitor" changeset="9578325" lat="50.3599528" lon="7.582292">
    <tag k="cuisine" v="italian"/>
    <tag k="wheelchair" v="limited"/>
    <tag k="name" v="Artuso"/>
    <tag k="amenity" v="restaurant"/>
  </node>
  <node id="408503294" version="1" timestamp="2009-05-20T22:16:22Z" uid="8764" user="egore911" changeset="1269459" lat="50.3608593" lon="7.5817673">
    <tag k="cuisine" v="greek"/>
    <tag k="name" v="Rhodos Grill"/>
    <tag k="amenity" v="restaurant"/>
  </node>
  <node id="408533613" version="4" timestamp="2011-10-04T14:41:47Z" uid="290680" user="wheelmap_visitor" changeset="9466302" lat="50.3569647" lon="7.5919808">
    <tag k="cuisine" v="chinese"/>
    <tag k="wheelchair" v="yes"/>
    <tag k="name" v="Hai Lan Ping (mongolian grill)"/>
    <tag k="amenity" v="restaurant"/>
  </node>
  <node id="408535208" version="5" timestamp="2012-01-31T11:14:30Z" uid="290680" user="wheelmap_visitor" changeset="10546547" lat="50.35603" lon="7.5922857">
    <tag k="addr:postcode" v="56068"/>
    <tag k="wheelchair" v="no"/>
    <tag k="name" v="El Toro"/>
    <tag k="amenity" v="restaurant"/>
    <tag k="addr:street" v="Friedrich-Ebert-Ring"/>
    <tag k="addr:housenumber" v="52"/>
  </node>
  <node id="419135960" version="1" timestamp="2009-06-12T12:56:24Z" uid="109925" user="WanMil" changeset="1495801" lat="50.3031913" lon="7.6361031">
    <tag k="name" v="Waldhaus"/>
    <tag k="tourism" v="guest_house"/>
    <tag k="amenity" v="restaurant"/>
  </node>
  <node id="419135962" version="2" timestamp="2011-10-08T19:39:13Z" uid="290680" user="wheelmap_visitor" changeset="9499106" lat="50.3064208" lon="7.6113524">
    <tag k="wheelchair" v="limited"/>
    <tag k="name" v="Burgrestaurant Burg Lahneck"/>
    <tag k="amenity" v="restaurant"/>
  </node>
  <node id="430326004" version="1" timestamp="2009-06-28T17:22:44Z" uid="79528" user="Eberth" changeset="1665513" lat="50.345831" lon="7.5515054">
    <tag k="cuisine" v="regional"/>
    <tag k="name" v="Gülser Weinstube"/>
    <tag k="amenity" v="restaurant"/>
  </node>
  <node id="441322170" version="2" timestamp="2011-06-15T06:42:40Z" uid="290680" user="wheelmap_visitor" changeset="8444297" lat="50.3558885" lon="7.55608">
    <tag k="wheelchair" v="no"/>
    <tag k="name" v="Weinkeller Schwaab"/>
    <tag k="amenity" v="restaurant"/>
  </node>
  <node id="441592342" version="1" timestamp="2009-07-14T10:59:59Z" uid="145034" user="mbohnen" changeset="1825423" lat="50.3656865" lon="7.5954548">
    <tag k="name" v="Zum Hafen"/>
    <tag k="amenity" v="restaurant"/>
  </node>
  <node id="441805473" version="4" timestamp="2010-04-15T15:59:10Z" uid="70696" user="xybot" changeset="4431179" lat="50.3131201" lon="7.5199334">
    <tag k="addr:postcode" v="56333"/>
    <tag k="phone" v="+492606499"/>
    <tag k="cuisine" v="traditional"/>
    <tag k="name" v="Restaurant Brunnenklause"/>
    <tag k="amenity" v="restaurant"/>
    <tag k="addr:street" v="Bachstraße"/>
    <tag k="addr:city" v="Winningen"/>
    <tag k="addr:housenumber" v="6-8"/>
  </node>
  <node id="441807061" version="5" timestamp="2011-01-02T15:53:50Z" uid="44217" user="kjon" changeset="6839497" lat="50.3091932" lon="7.5022242">
    <tag k="addr:postcode" v="56333"/>
    <tag k="phone" v="+492606357"/>
    <tag k="cuisine" v="international"/>
    <tag k="website" v="http://www.camping-winningen.de"/>
    <tag k="name" v="Insel-Restaurant"/>
    <tag k="amenity" v="restaurant"/>
    <tag k="addr:street" v="Inselweg"/>
    <tag k="addr:city" v="Winningen"/>
  </node>
  <node id="441808353" version="5" timestamp="2011-09-09T18:07:16Z" uid="64008" user="E-Malte" changeset="9256461" lat="50.3128789" lon="7.5198304">
    <tag k="addr:postcode" v="56333"/>
    <tag k="phone" v="+492606413"/>
    <tag k="cuisine" v="german;regional"/>
    <tag k="name" v="Winzerwirtschaft Jakobs"/>
    <tag k="amenity" v="restaurant"/>
    <tag k="addr:street" v="Osterstraße"/>
    <tag k="addr:city" v="Winningen"/>
    <tag k="addr:housenumber" v="8"/>
  </node>
  <node id="441813311" version="5" timestamp="2011-09-09T18:06:47Z" uid="64008" user="E-Malte" changeset="9256461" lat="50.31222" lon="7.5191483">
    <tag k="addr:postcode" v="56333"/>
    <tag k="phone" v="+492606597"/>
    <tag k="cuisine" v="german;regional"/>
    <tag k="website" v="http://www.gutsschaenke.com"/>
    <tag k="name" v="Gutsschänke Schaaf"/>
    <tag k="amenity" v="restaurant"/>
    <tag k="addr:street" v="Fährstraße"/>
    <tag k="addr:city" v="Winningen"/>
    <tag k="addr:housenumber" v="6"/>
  </node>
  <node id="441817456" version="5" timestamp="2011-09-09T18:06:47Z" uid="64008" user="E-Malte" changeset="9256461" lat="50.31413" lon="7.5203447">
    <tag k="addr:postcode" v="56333"/>
    <tag k="phone" v="+492606672"/>
    <tag k="cuisine" v="german;regional"/>
    <tag k="website" v="http://www.weingut-fredknebel.de"/>
    <tag k="name" v="Gutsschänke Fred Knebel"/>
    <tag k="amenity" v="restaurant"/>
    <tag k="addr:street" v="August-Horch-Straße"/>
    <tag k="addr:city" v="Winningen"/>
    <tag k="addr:housenumber" v="9"/>
  </node>
  <node id="441819324" version="5" timestamp="2011-09-09T18:07:11Z" uid="64008" user="E-Malte" changeset="9256461" lat="50.3130434" lon="7.5204655">
    <tag k="addr:postcode" v="56333"/>
    <tag k="phone" v="+492606330"/>
    <tag k="cuisine" v="german;regional"/>
    <tag k="name" v="Strausswirtschaft Bastian"/>
    <tag k="amenity" v="restaurant"/>
    <tag k="addr:street" v="Weinhof"/>
    <tag k="addr:city" v="Winningen"/>
  </node>
  <node id="442625287" version="4" timestamp="2011-12-30T17:31:16Z" uid="290680" user="wheelmap_visitor" changeset="10242031" lat="50.3681729" lon="7.5623444">
    <tag k="cuisine" v="asian"/>
    <tag k="wheelchair" v="no"/>
    <tag k="name" v="Asia Bistro Maika"/>
    <tag k="amenity" v="restaurant"/>
  </node>
  <node id="443291437" version="1" timestamp="2009-07-18T10:58:02Z" uid="44217" user="kjon" changeset="1861769" lat="50.3135312" lon="7.5180022">
    <tag k="addr:postcode" v="56333"/>
    <tag k="addr:country" v="DE"/>
    <tag k="name" v="Marktschenke"/>
    <tag k="amenity" v="restaurant"/>
    <tag k="addr:street" v="Marktstraße"/>
    <tag k="addr:city" v="Winningen"/>
    <tag k="addr:housenumber" v="5"/>
  </node>
  <node id="443291438" version="2" timestamp="2009-07-22T19:01:32Z" uid="44217" user="kjon" changeset="1907473" lat="50.3129043" lon="7.5165547">
    <tag k="addr:postcode" v="56333"/>
    <tag k="addr:country" v="DE"/>
    <tag k="name" v="Zur Sonne"/>
    <tag k="amenity" v="restaurant"/>
    <tag k="addr:street" v="Marktstraße"/>
    <tag k="addr:city" v="Winningen"/>
  </node>
  <node id="445784307" version="1" timestamp="2009-07-22T18:55:48Z" uid="44217" user="kjon" changeset="1907418" lat="50.3126478" lon="7.5202591">
    <tag k="addr:postcode" v="56333"/>
    <tag k="addr:country" v="DE"/>
    <tag k="name" v="Winninger Weinkeller"/>
    <tag k="amenity" v="restaurant"/>
    <tag k="addr:street" v="Weinhof"/>
    <tag k="addr:city" v="Winningen"/>
  </node>
  <node id="445784329" version="2" timestamp="2011-09-09T18:06:45Z" uid="64008" user="E-Malte" changeset="9256461" lat="50.3125163" lon="7.5200616">
    <tag k="addr:postcode" v="56333"/>
    <tag k="cuisine" v="german;regional"/>
    <tag k="addr:country" v="DE"/>
    <tag k="name" v="Fronhof-Stuben"/>
    <tag k="amenity" v="restaurant"/>
    <tag k="addr:street" v="Fronstraße"/>
    <tag k="addr:city" v="Winningen"/>
    <tag k="addr:housenumber" v="2"/>
  </node>
  <node id="452737864" version="4" timestamp="2012-02-24T11:40:36Z" uid="213143" user="Azumanga" changeset="10777086" lat="50.3607214" lon="7.5967909">
    <tag k="addr:postcode" v="56068"/>
    <tag k="wheelchair" v="limited"/>
    <tag k="name" v="Altes Brauhaus"/>
    <tag k="amenity" v="restaurant"/>
    <tag k="addr:street" v="Braugasse"/>
    <tag k="addr:city" v="Koblenz"/>
    <tag k="addr:housenumber" v="4"/>
  </node>
  <node id="472741164" version="6" timestamp="2011-08-15T13:23:34Z" uid="290680" user="wheelmap_visitor" changeset="9026177" lat="50.3208272" lon="7.5925613">
    <tag k="addr:postcode" v="56112"/>
    <tag k="microbrewery" v="yes"/>
    <tag k="wheelchair" v="limited"/>
    <tag k="website" v="http://www.maximilians-brauwiesen.de/"/>
    <tag k="addr:country" v="DE"/>
    <tag k="name" v="Maximilians Brauwiesen"/>
    <tag k="amenity" v="restaurant"/>
    <tag k="addr:street" v="Didierstraße"/>
    <tag k="addr:city" v="Lahnstein"/>
    <tag k="addr:housenumber" v="25"/>
  </node>
  <node id="494343799" version="6" timestamp="2011-10-04T14:41:48Z" uid="290680" user="wheelmap_visitor" changeset="9466302" lat="50.3559746" lon="7.5911758">
    <tag k="addr:postcode" v="56068"/>
    <tag k="wheelchair" v="no"/>
    <tag k="addr:country" v="DE"/>
    <tag k="name" v="Dubrovnik"/>
    <tag k="amenity" v="restaurant"/>
    <tag k="addr:street" v="Löhrstraße"/>
    <tag k="addr:city" v="Koblenz"/>
    <tag k="addr:housenumber" v="91"/>
  </node>
  <node id="518122846" version="2" timestamp="2009-10-10T20:28:25Z" uid="178444" user="wrifka" changeset="2807657" lat="50.367204" lon="7.6521288">
    <tag k="addr:postcode" v="56077"/>
    <tag k="cuisine" v="italian"/>
    <tag k="addr:country" v="DE"/>
    <tag k="name" v="Roter Hahn - Il Gallo Rosso"/>
    <tag k="amenity" v="restaurant"/>
    <tag k="addr:street" v="Pfarrer-Kraus-Straße"/>
    <tag k="addr:city" v="Koblenz"/>
    <tag k="addr:housenumber" v="110"/>
  </node>
  <node id="528254135" version="2" timestamp="2010-04-12T21:04:46Z" uid="178444" user="wrifka" changeset="4408936" lat="50.3673649" lon="7.6494923">
    <tag k="addr:postcode" v="56077"/>
    <tag k="addr:country" v="DE"/>
    <tag k="name" v="Gasthaus zur Krone"/>
    <tag k="amenity" v="restaurant"/>
    <tag k="addr:street" v="Pfarrer-Kraus-Straße"/>
    <tag k="addr:city" v="Koblenz"/>
    <tag k="addr:housenumber" v="84"/>
  </node>
  <node id="565071699" version="2" timestamp="2009-11-15T22:47:41Z" uid="178444" user="wrifka" changeset="3127979" lat="50.3737897" lon="7.6588067">
    <tag k="addr:postcode" v="56077"/>
    <tag k="cuisine" v="italian"/>
    <tag k="addr:country" v="DE"/>
    <tag k="name" v="Gasthaus zur Dorfschänke - Pizzeria Rimini"/>
    <tag k="amenity" v="restaurant"/>
    <tag k="addr:street" v="Ringstraße"/>
    <tag k="addr:city" v="Koblenz"/>
    <tag k="addr:housenumber" v="56"/>
  </node>
  <node id="567835496" version="2" timestamp="2011-10-04T14:42:50Z" uid="290680" user="wheelmap_visitor" changeset="9466302" lat="50.3609503" lon="7.5962199">
    <tag k="addr:postcode" v="56068"/>
    <tag k="wheelchair" v="limited"/>
    <tag k="addr:country" v="DE"/>
    <tag k="name" v="Guarida"/>
    <tag k="amenity" v="restaurant"/>
    <tag k="addr:street" v="An der Liebfrauenkirche"/>
    <tag k="addr:city" v="Koblenz"/>
    <tag k="addr:housenumber" v="19"/>
  </node>
  <node id="571488226" version="2" timestamp="2010-02-20T16:44:25Z" uid="44217" user="kjon" changeset="3925334" lat="50.354717" lon="7.5789729">
    <tag k="name" v="Wirtshaus Overbergplatz"/>
    <tag k="amenity" v="restaurant"/>
    <tag k="addr:street" v="Overbergplatz"/>
    <tag k="addr:housenumber" v="2"/>
  </node>
  <node id="571488227" version="2" timestamp="2010-02-28T00:24:23Z" uid="8764" user="egore911" changeset="3993976" lat="50.3542309" lon="7.5791983">
    <tag k="name" v="Zur Goldgrube"/>
    <tag k="amenity" v="restaurant"/>
    <tag k="addr:street" v="In der Goldgrube"/>
    <tag k="addr:housenumber" v="31"/>
  </node>
  <node id="575929308" version="2" timestamp="2010-02-18T13:27:06Z" uid="202746" user="patrick1204" changeset="3908878" lat="50.2859369" lon="7.627531">
    <tag k="name" v="Koppelstein"/>
    <tag k="amenity" v="restaurant"/>
  </node>
  <node id="575932638" version="1" timestamp="2009-11-30T13:04:17Z" uid="202746" user="patrick1204" changeset="3255523" lat="50.3089985" lon="7.6022667">
    <tag k="name" v="Pantenon"/>
    <tag k="amenity" v="restaurant"/>
  </node>
  <node id="575932962" version="1" timestamp="2009-11-30T13:04:47Z" uid="202746" user="patrick1204" changeset="3255523" lat="50.3102455" lon="7.6032752">
    <tag k="name" v="Alpenstern"/>
    <tag k="amenity" v="restaurant"/>
  </node>
  <node id="575933595" version="1" timestamp="2009-11-30T13:05:34Z" uid="202746" user="patrick1204" changeset="3255523" lat="50.308834" lon="7.6046914">
    <tag k="name" v="Wirtshaus an der Lahn"/>
    <tag k="amenity" v="restaurant"/>
  </node>
  <node id="575934843" version="1" timestamp="2009-11-30T13:07:15Z" uid="202746" user="patrick1204" changeset="3255523" lat="50.308834" lon="7.6043266">
    <tag k="name" v="Zur Lahnbrücke"/>
    <tag k="amenity" v="restaurant"/>
  </node>
  <node id="575936728" version="1" timestamp="2009-11-30T13:08:47Z" uid="202746" user="patrick1204" changeset="3255523" lat="50.3101907" lon="7.6046699">
    <tag k="name" v="Erker"/>
    <tag k="amenity" v="restaurant"/>
  </node>
  <node id="575937639" version="2" timestamp="2011-10-08T19:42:08Z" uid="290680" user="wheelmap_visitor" changeset="9499106" lat="50.3098481" lon="7.605142">
    <tag k="wheelchair" v="no"/>
    <tag k="name" v="Mama Mia"/>
    <tag k="amenity" v="restaurant"/>
  </node>
  <node id="576380506" version="1" timestamp="2009-11-30T18:53:01Z" uid="202746" user="patrick1204" changeset="3258347" lat="50.3580173" lon="7.5997118">
    <tag k="name" v="Deinhardts"/>
    <tag k="amenity" v="restaurant"/>
  </node>
  <node id="577798980" version="1" timestamp="2009-12-02T16:26:47Z" uid="204278" user="mawhes" changeset="3273360" lat="50.3242213" lon="7.5286592">
    <tag k="name" v="Flugplatzrestaurant &amp; Cafe Delphi"/>
    <tag k="amenity" v="restaurant"/>
  </node>
  <node id="585238623" version="2" timestamp="2009-12-10T19:08:53Z" uid="202746" user="patrick1204" changeset="3344149" lat="50.3516413" lon="7.5894926">
    <tag k="name" v="Thai Thai"/>
    <tag k="amenity" v="restaurant"/>
  </node>
  <node id="600882878" version="2" timestamp="2011-10-10T10:56:15Z" uid="290680" user="wheelmap_visitor" changeset="9518514" lat="50.3560024" lon="7.5906832">
    <tag k="wheelchair" v="limited"/>
    <tag k="name" v="Dynasty"/>
    <tag k="amenity" v="restaurant"/>
  </node>
  <node id="603877848" version="3" timestamp="2012-02-25T20:15:45Z" uid="290680" user="wheelmap_visitor" changeset="10786853" lat="50.3606922" lon="7.5989335">
    <tag k="wheelchair" v="yes"/>
    <tag k="name" v="Da Vinci"/>
    <tag k="amenity" v="restaurant"/>
    <tag k="addr:street" v="Firmungstraße"/>
    <tag k="addr:housenumber" v="32"/>
  </node>
  <node id="603877855" version="4" timestamp="2011-10-21T12:38:10Z" uid="290680" user="wheelmap_visitor" changeset="9613553" lat="50.3616676" lon="7.5992071">
    <tag k="cuisine" v="italian"/>
    <tag k="wheelchair" v="limited"/>
    <tag k="website" v="www.pizzeria-sole.de"/>
    <tag k="name" v="Sole"/>
    <tag k="amenity" v="restaurant"/>
    <tag k="addr:street" v="Eltzerhofstraße"/>
    <tag k="addr:housenumber" v="13"/>
  </node>
  <node id="618264505" version="2" timestamp="2010-12-17T20:55:29Z" uid="44217" user="kjon" changeset="6690419" lat="50.362808" lon="7.6198454">
    <tag k="name" v="Weinhaus Wagner"/>
    <tag k="amenity" v="restaurant"/>
  </node>
  <node id="618807708" version="1" timestamp="2010-01-23T18:12:28Z" uid="191633" user="Der Schnerv" changeset="3694181" lat="50.3131029" lon="7.5928251">
    <tag k="wpt_description" v="23-JAN-10 15:07:58"/>
    <tag k="name" v="Rheinterrasse"/>
    <tag k="amenity" v="restaurant"/>
    <tag k="ele" v="62.1304932"/>
  </node>
  <node id="618848213" version="2" timestamp="2011-10-08T19:35:40Z" uid="290680" user="wheelmap_visitor" changeset="9499106" lat="50.2979042" lon="7.6066787">
    <tag k="wheelchair" v="no"/>
    <tag k="name" v="Delphi"/>
    <tag k="amenity" v="restaurant"/>
  </node>
  <node id="619342090" version="3" timestamp="2011-06-21T06:29:18Z" uid="44217" user="kjon" changeset="8501611" lat="50.3557555" lon="7.5961167">
    <tag k="cuisine" v="italian"/>
    <tag k="name" v="Pizzeria Antonio"/>
    <tag k="amenity" v="restaurant"/>
    <tag k="addr:street" v="Casinostraße"/>
    <tag k="addr:housenumber" v="56"/>
  </node>
  <node id="619342096" version="2" timestamp="2010-02-23T19:07:06Z" uid="44217" user="kjon" changeset="3957258" lat="50.3566557" lon="7.596765">
    <tag k="name" v="Zinke&apos;s Fischküche"/>
    <tag k="amenity" v="restaurant"/>
    <tag k="addr:street" v="Casinostraße"/>
    <tag k="addr:housenumber" v="45"/>
  </node>
  <node id="622421045" version="3" timestamp="2010-05-10T20:18:12Z" uid="178444" user="wrifka" changeset="4663197" lat="50.355253" lon="7.6405073">
    <tag k="addr:postcode" v="56077"/>
    <tag k="addr:country" v="DE"/>
    <tag k="name" v="Korn&apos;s Mühle"/>
    <tag k="amenity" v="restaurant"/>
    <tag k="addr:street" v="Mühlental"/>
    <tag k="addr:city" v="Koblenz"/>
    <tag k="addr:housenumber" v="84"/>
  </node>
  <node id="633534625" version="2" timestamp="2011-10-08T19:35:48Z" uid="290680" user="wheelmap_visitor" changeset="9499106" lat="50.3012174" lon="7.601918">
    <tag k="wheelchair" v="limited"/>
    <tag k="name" v="Rheinkrone"/>
    <tag k="amenity" v="restaurant"/>
  </node>
  <node id="635111403" version="2" timestamp="2011-10-04T14:39:37Z" uid="290680" user="wheelmap_visitor" changeset="9466302" lat="50.3619475" lon="7.5956917">
    <tag k="addr:postcode" v="56068"/>
    <tag k="cuisine" v="japanese"/>
    <tag k="wheelchair" v="no"/>
    <tag k="addr:country" v="DE"/>
    <tag k="name" v="Toyama Sushi-Bar"/>
    <tag k="amenity" v="restaurant"/>
    <tag k="addr:street" v="Florinsmarkt"/>
    <tag k="addr:city" v="Koblenz"/>
    <tag k="addr:housenumber" v="12"/>
  </node>
  <node id="651872549" version="3" timestamp="2010-08-12T16:03:18Z" uid="44217" user="kjon" changeset="5474275" lat="50.3596467" lon="7.6000266">
    <tag k="cuisine" v="chinese"/>
    <tag k="name" v="Hong Kong"/>
    <tag k="amenity" v="restaurant"/>
    <tag k="addr:street" v="Josef-Görres-Platz"/>
    <tag k="addr:housenumber" v="12"/>
  </node>
  <node id="663184711" version="2" timestamp="2010-03-09T17:03:10Z" uid="243651" user="peter 16" changeset="4082489" lat="50.3788654" lon="7.6173596">
    <tag k="name" v="Gretchens-Garten"/>
    <tag k="amenity" v="restaurant"/>
  </node>
  <node id="663781062" version="3" timestamp="2011-10-04T14:37:25Z" uid="290680" user="wheelmap_visitor" changeset="9466302" lat="50.360641" lon="7.594917">
    <tag k="phone" v="026114006"/>
    <tag k="wheelchair" v="limited"/>
    <tag k="description" v="Argentinisches Steakhouse"/>
    <tag k="name" v="Los Gauchos"/>
    <tag k="amenity" v="restaurant"/>
    <tag k="addr:street" v="Am Plan"/>
    <tag k="addr:housenumber" v="7"/>
  </node>
  <node id="665925862" version="1" timestamp="2010-03-14T14:37:15Z" uid="191633" user="Der Schnerv" changeset="4125125" lat="50.2982749" lon="7.6372021">
    <tag k="name" v="Troja"/>
    <tag k="amenity" v="restaurant"/>
  </node>
  <node id="683450258" version="5" timestamp="2011-10-25T18:00:10Z" uid="290680" user="wheelmap_visitor" changeset="9650151" lat="50.3859337" lon="7.6711496">
    <tag k="addr:postcode" v="56337"/>
    <tag k="phone" v="+49 26 20 9 54 05 31"/>
    <tag k="cuisine" v="german"/>
    <tag k="wheelchair" v="no"/>
    <tag k="website" v="www.hotel-waldhof-simmern.de"/>
    <tag k="addr:country" v="DE"/>
    <tag k="smoking" v="no"/>
    <tag k="name" v="Waldhof"/>
    <tag k="amenity" v="restaurant"/>
    <tag k="addr:street" v="Hauptstraße"/>
    <tag k="addr:city" v="Simmern"/>
    <tag k="addr:housenumber" v="81"/>
  </node>
  <node id="687821345" version="1" timestamp="2010-04-07T20:12:23Z" uid="191633" user="Der Schnerv" changeset="4357563" lat="50.3376983" lon="7.6922942">
    <tag k="name" v="Zum Rebstock"/>
    <tag k="amenity" v="restaurant"/>
  </node>
  <node id="687821348" version="1" timestamp="2010-04-07T20:12:23Z" uid="191633" user="Der Schnerv" changeset="4357563" lat="50.3380784" lon="7.6919831">
    <tag k="name" v="Zum Engel"/>
    <tag k="amenity" v="restaurant"/>
  </node>
  <node id="711819108" version="1" timestamp="2010-04-29T11:43:40Z" uid="50485" user="cme" changeset="4557172" lat="50.3370285" lon="7.6795836">
    <tag k="name" v="Zur alten Brauerei"/>
    <tag k="amenity" v="restaurant"/>
  </node>
  <node id="711821229" version="2" timestamp="2010-04-29T11:59:39Z" uid="50485" user="cme" changeset="4557264" lat="50.3379137" lon="7.6801388">
    <tag k="name" v="Gaststätte Bürgerhaus"/>
    <tag k="amenity" v="restaurant"/>
  </node>
  <node id="711841017" version="1" timestamp="2010-04-29T11:50:27Z" uid="50485" user="cme" changeset="4557172" lat="50.3384066" lon="7.6918684">
    <tag k="name" v="Zur Stadt Coblenz"/>
    <tag k="amenity" v="restaurant"/>
  </node>
  <node id="711935182" version="8" timestamp="2011-10-04T14:37:24Z" uid="290680" user="wheelmap_visitor" changeset="9466302" lat="50.360592" lon="7.595069">
    <tag k="cuisine" v="italian"/>
    <tag k="wheelchair" v="limited"/>
    <tag k="description" v="Pizzeria"/>
    <tag k="name" v="La Mamma"/>
    <tag k="amenity" v="restaurant"/>
    <tag k="addr:street" v="Am Plan"/>
    <tag k="addr:housenumber" v="7"/>
  </node>
  <node id="715001696" version="1" timestamp="2010-05-01T08:24:09Z" uid="267745" user="kletterpitter" changeset="4572497" lat="50.3863258" lon="7.500674">
    <tag k="name" v="La Cuba"/>
    <tag k="amenity" v="restaurant"/>
  </node>
  <node id="721405100" version="6" timestamp="2011-10-04T14:37:26Z" uid="290680" user="wheelmap_visitor" changeset="9466302" lat="50.360619" lon="7.5940402">
    <tag k="wheelchair" v="limited"/>
    <tag k="smoking" v="no"/>
    <tag k="name" v="Pizza Hut"/>
    <tag k="amenity" v="restaurant"/>
    <tag k="addr:street" v="Marktstraße"/>
    <tag k="addr:housenumber" v="1"/>
  </node>
  <node id="765918765" version="1" timestamp="2010-06-06T17:01:29Z" uid="212492" user="udilo" changeset="4920079" lat="50.4004018" lon="7.6193521">
    <tag k="name" v="Stadthalle"/>
    <tag k="amenity" v="restaurant"/>
  </node>
  <node id="827332143" version="1" timestamp="2010-07-21T11:31:48Z" uid="322106" user="LongJohnSilver" changeset="5278115" lat="50.3881048" lon="7.4978461">
    <tag k="name" v="China Restaurant Tao Tao"/>
    <tag k="amenity" v="restaurant"/>
  </node>
  <node id="836852306" version="1" timestamp="2010-07-28T21:34:05Z" uid="202746" user="patrick1204" changeset="5342413" lat="50.3630377" lon="7.6045051">
    <tag k="name" v="Blumenhof"/>
    <tag k="amenity" v="restaurant"/>
  </node>
  <node id="863876285" version="2" timestamp="2011-10-04T14:39:36Z" uid="290680" user="wheelmap_visitor" changeset="9466302" lat="50.3619734" lon="7.5954277">
    <tag k="addr:postcode" v="56068"/>
    <tag k="cuisine" v="greek"/>
    <tag k="wheelchair" v="limited"/>
    <tag k="addr:country" v="DE"/>
    <tag k="name" v="Luftschloss"/>
    <tag k="amenity" v="restaurant"/>
    <tag k="addr:street" v="Münzstraße"/>
    <tag k="addr:city" v="Koblenz"/>
  </node>
  <node id="874397291" version="4" timestamp="2011-10-05T22:22:36Z" uid="290680" user="wheelmap_visitor" changeset="9474855" lat="50.3604404" lon="7.6008115">
    <tag k="addr:postcode" v="5668"/>
    <tag k="phone" v="+49 261 - 100 58 33"/>
    <tag k="cuisine" v="german"/>
    <tag k="wheelchair" v="limited"/>
    <tag k="website" v="www.palais-koblenz.de"/>
    <tag k="email" v="info@einsteingastronomiegruppe.de"/>
    <tag k="addr:country" v="DE"/>
    <tag k="name" v="Palais"/>
    <tag k="amenity" v="restaurant"/>
    <tag k="addr:street" v="Firmungstraße"/>
    <tag k="addr:city" v="Koblenz"/>
    <tag k="addr:housenumber" v="2"/>
  </node>
  <node id="882497048" version="1" timestamp="2010-08-27T14:21:20Z" uid="74410" user="hdEATH" changeset="5608186" lat="50.4076326" lon="7.6001982">
    <tag k="addr:postcode" v="56191"/>
    <tag k="addr:country" v="DE"/>
    <tag k="name" v="Humboldtruh"/>
    <tag k="amenity" v="restaurant"/>
    <tag k="addr:street" v="Humboldtstraße"/>
    <tag k="addr:city" v="Weitersburg"/>
    <tag k="addr:housenumber" v="21"/>
  </node>
  <node id="890512117" version="3" timestamp="2011-10-04T14:38:32Z" uid="290680" user="wheelmap_visitor" changeset="9466302" lat="50.3610896" lon="7.5979027">
    <tag k="wheelchair" v="limited"/>
    <tag k="name" v="Havana"/>
    <tag k="amenity" v="restaurant"/>
    <tag k="addr:street" v="Kornpfortstraße"/>
    <tag k="addr:city" v="Koblenz"/>
    <tag k="addr:housenumber" v="6"/>
  </node>
  <node id="891477322" version="4" timestamp="2011-10-07T14:27:37Z" uid="290680" user="wheelmap_visitor" changeset="9490517" lat="50.360046" lon="7.6029214">
    <tag k="cuisine" v="italian"/>
    <tag k="wheelchair" v="limited"/>
    <tag k="name" v="Ristorante La Gondola"/>
    <tag k="amenity" v="restaurant"/>
  </node>
  <node id="891477332" version="2" timestamp="2011-10-05T21:52:38Z" uid="290680" user="wheelmap_visitor" changeset="9474855" lat="50.3599981" lon="7.6033452">
    <tag k="cuisine" v="italian"/>
    <tag k="wheelchair" v="limited"/>
    <tag k="name" v="Trattoria Adria"/>
    <tag k="amenity" v="restaurant"/>
  </node>
  <node id="891477336" version="2" timestamp="2011-09-16T19:53:35Z" uid="64008" user="E-Malte" changeset="9319201" lat="50.3598886" lon="7.603887">
    <tag k="cuisine" v="japanese;chinese"/>
    <tag k="name" v="Dong Yi"/>
    <tag k="amenity" v="restaurant"/>
  </node>
  <node id="891477341" version="1" timestamp="2010-09-01T07:21:09Z" uid="202746" user="patrick1204" changeset="5651729" lat="50.360046" lon="7.6040051">
    <tag k="name" v="Augusta"/>
    <tag k="amenity" v="restaurant"/>
  </node>
  <node id="892063072" version="2" timestamp="2010-09-09T13:28:01Z" uid="78850" user="hth52249" changeset="5732686" lat="50.360814" lon="7.6043302">
    <tag k="cuisine" v="italian"/>
    <tag k="name" v="Garten Eden"/>
    <tag k="amenity" v="restaurant"/>
  </node>
  <node id="892063083" version="2" timestamp="2010-09-09T13:27:59Z" uid="78850" user="hth52249" changeset="5732686" lat="50.360396" lon="7.6041666">
    <tag k="cuisine" v="italian"/>
    <tag k="name" v="Gigi"/>
    <tag k="amenity" v="restaurant"/>
  </node>
  <node id="892063108" version="2" timestamp="2010-09-01T18:07:19Z" uid="44217" user="kjon" changeset="5655922" lat="50.3613234" lon="7.6044957">
    <tag k="cuisine" v="german"/>
    <tag k="name" v="Winninger Weinstube"/>
    <tag k="amenity" v="restaurant"/>
  </node>
  <node id="892063125" version="2" timestamp="2011-09-09T18:06:39Z" uid="64008" user="E-Malte" changeset="9256461" lat="50.3610531" lon="7.6043798">
    <tag k="cuisine" v="spanish"/>
    <tag k="name" v="Columbus"/>
    <tag k="amenity" v="restaurant"/>
  </node>
  <node id="892063130" version="1" timestamp="2010-09-01T16:02:06Z" uid="202746" user="patrick1204" changeset="5654947" lat="50.3609556" lon="7.6043899">
    <tag k="cuisine" v="german"/>
    <tag k="name" v="Wacht am Rhein"/>
    <tag k="amenity" v="restaurant"/>
  </node>
  <node id="892063139" version="2" timestamp="2010-09-09T13:27:56Z" uid="78850" user="hth52249" changeset="5732686" lat="50.3608944" lon="7.6043564">
    <tag k="cuisine" v="italian"/>
    <tag k="name" v="Trattoria Amalfi"/>
    <tag k="amenity" v="restaurant"/>
  </node>
  <node id="903943237" version="2" timestamp="2012-01-28T02:56:23Z" uid="290680" user="wheelmap_visitor" changeset="10518091" lat="50.2829937" lon="7.6187992">
    <tag k="wheelchair" v="no"/>
    <tag k="name" v="Zum Schiffchen"/>
    <tag k="amenity" v="restaurant"/>
  </node>
  <node id="935685305" version="2" timestamp="2011-04-24T22:13:05Z" uid="363904" user="maltejohannson" changeset="7957737" lat="50.3608739" lon="7.614696">
    <tag k="addr:postcode" v="56077"/>
    <tag k="phone" v="(+49) 261 75256"/>
    <tag k="cuisine" v="indian"/>
    <tag k="website" v="http://www.hotel-sessellift.de/"/>
    <tag k="name" v="Maharani"/>
    <tag k="amenity" v="restaurant"/>
    <tag k="addr:street" v="Obertal"/>
    <tag k="addr:city" v="Koblenz"/>
    <tag k="addr:housenumber" v="22"/>
  </node>
  <node id="935856144" version="2" timestamp="2010-11-24T05:09:19Z" uid="5359" user="user_5359" changeset="6444296" lat="50.342682" lon="7.5943943">
    <tag k="cuisine" v="italian"/>
    <tag k="name" v="Pizzeria Dante"/>
    <tag k="amenity" v="restaurant"/>
    <tag k="opening_hours" v="Tu off"/>
  </node>
  <node id="943307572" version="1" timestamp="2010-10-10T08:42:00Z" uid="86317" user="GeoGerd" changeset="5999650" lat="50.3870229" lon="7.6217969">
    <tag k="name" v="Pur"/>
    <tag k="amenity" v="restaurant"/>
  </node>
  <node id="1000709514" version="1" timestamp="2010-11-23T10:12:17Z" uid="322106" user="LongJohnSilver" changeset="6438217" lat="50.3867737" lon="7.4991799">
    <tag k="name" v="Grüters"/>
    <tag k="amenity" v="restaurant"/>
  </node>
  <node id="1007567174" version="2" timestamp="2011-10-04T14:39:40Z" uid="290680" user="wheelmap_visitor" changeset="9466302" lat="50.361969" lon="7.5944168">
    <tag k="wheelchair" v="limited"/>
    <tag k="name" v="Chili"/>
    <tag k="amenity" v="restaurant"/>
  </node>
  <node id="1087257953" version="1" timestamp="2011-01-07T01:04:36Z" uid="383055" user="Panthalassa" changeset="6888827" lat="50.3500375" lon="7.5954057">
    <tag k="cuisine" v="turkish"/>
    <tag k="name" v="Intermezzo"/>
    <tag k="amenity" v="restaurant"/>
  </node>
  <node id="1087257967" version="2" timestamp="2011-09-23T12:27:38Z" uid="290680" user="wheelmap_visitor" changeset="9373820" lat="50.3474936" lon="7.5898179">
    <tag k="cuisine" v="italian"/>
    <tag k="wheelchair" v="no"/>
    <tag k="name" v="chianti"/>
    <tag k="amenity" v="restaurant"/>
  </node>
  <node id="1104459855" version="3" timestamp="2011-06-05T10:53:14Z" uid="182001" user="chris791" changeset="8347756" lat="50.3950642" lon="7.5115396">
    <tag k="name" v="Pizzeria Chiao Chiao"/>
    <tag k="amenity" v="restaurant"/>
  </node>
  <node id="1252376700" version="5" timestamp="2011-06-27T11:34:17Z" uid="43447" user="astersteiner" changeset="8561138" lat="50.3651219" lon="7.6137793">
    <tag k="name" v="Ferrari auf der Festung"/>
    <tag k="amenity" v="restaurant"/>
    <tag k="addr:street" v="Schlossplatz"/>
  </node>
  <node id="1262064860" version="1" timestamp="2011-04-27T12:43:55Z" uid="445386" user="longboy" changeset="7984746" lat="50.401081" lon="7.6090528">
    <tag k="cuisine" v="pizza"/>
    <tag k="name" v="Pizzeria Pizzasso"/>
    <tag k="amenity" v="restaurant"/>
  </node>
  <node id="1271262460" version="1" timestamp="2011-05-03T16:50:11Z" uid="447922" user="c-a-s-e" changeset="8041286" lat="50.3260855" lon="7.6023532">
    <tag k="cuisine" v="german"/>
    <tag k="smoking" v="no"/>
    <tag k="name" v="Zur Weinlaube"/>
    <tag k="amenity" v="restaurant"/>
  </node>
  <node id="1309209368" version="3" timestamp="2011-11-20T13:28:26Z" uid="290680" user="wheelmap_visitor" changeset="9882165" lat="50.3572895" lon="7.6098514">
    <tag k="cuisine" v="german"/>
    <tag k="wheelchair" v="yes"/>
    <tag k="name" v="Traces-Spuren"/>
    <tag k="amenity" v="restaurant"/>
  </node>
  <node id="1311585580" version="2" timestamp="2011-10-08T19:35:40Z" uid="290680" user="wheelmap_visitor" changeset="9499106" lat="50.2991844" lon="7.6063459">
    <tag k="addr:postcode" v="56112"/>
    <tag k="cuisine" v="italian"/>
    <tag k="wheelchair" v="limited"/>
    <tag k="name" v="Pinocchio"/>
    <tag k="amenity" v="restaurant"/>
    <tag k="addr:street" v="Schulstraße"/>
    <tag k="addr:housenumber" v="5"/>
  </node>
  <node id="1336881763" version="1" timestamp="2011-06-24T13:34:22Z" uid="476288" user="Manni60" changeset="8532913" lat="50.3635146" lon="7.6037998">
    <tag k="wheelchair" v="yes"/>
    <tag k="name" v="Biergarten"/>
    <tag k="amenity" v="restaurant"/>
  </node>
  <node id="1360698412" version="1" timestamp="2011-07-13T19:00:27Z" uid="476288" user="Manni60" changeset="8715341" lat="50.36645" lon="7.57802">
    <tag k="wheelchair" v="limited"/>
    <tag k="wheelchair:description" v="Kein Behinderten WC vorhanden"/>
    <tag k="name" v="Biergarten Hotel Contel"/>
    <tag k="amenity" v="restaurant"/>
  </node>
  <node id="1449786724" version="3" timestamp="2011-12-23T20:21:56Z" uid="8764" user="egore911" changeset="10189818" lat="50.3612293" lon="7.5943077">
    <tag k="addr:postcode" v="56068"/>
    <tag k="phone" v="+49 261 3002741"/>
    <tag k="cuisine" v="indian"/>
    <tag k="wheelchair" v="limited"/>
    <tag k="website" v="www.taj-mahal-koblenz.de"/>
    <tag k="name" v="Taj Mahal"/>
    <tag k="amenity" v="restaurant"/>
    <tag k="addr:street" v="Münzplatz"/>
    <tag k="addr:housenumber" v="2"/>
  </node>
  <node id="1449801720" version="2" timestamp="2011-10-04T14:40:42Z" uid="290680" user="wheelmap_visitor" changeset="9466302" lat="50.3611267" lon="7.5936104">
    <tag k="cuisine" v="indian"/>
    <tag k="wheelchair" v="limited"/>
    <tag k="name" v="Bombay"/>
    <tag k="amenity" v="restaurant"/>
  </node>
  <node id="1503720150" version="1" timestamp="2011-11-15T10:22:30Z" uid="553843" user="peisen" changeset="9833307" lat="50.3613162" lon="7.5957803">
    <tag k="addr:postcode" v="56068"/>
    <tag k="cuisine" v="german"/>
    <tag k="name" v="Dormonts"/>
    <tag k="amenity" v="restaurant"/>
    <tag k="addr:street" v="Gemüsegasse"/>
    <tag k="addr:housenumber" v="5"/>
  </node>
  <node id="1559750234" version="2" timestamp="2011-12-23T20:47:20Z" uid="8764" user="egore911" changeset="10189980" lat="50.3595416" lon="7.5980212">
    <tag k="addr:postcode" v="56068"/>
    <tag k="phone" v="+49 261 33525"/>
    <tag k="cuisine" v="pizza"/>
    <tag k="wheelchair" v="no"/>
    <tag k="name" v="La Nuova Rustica"/>
    <tag k="amenity" v="restaurant"/>
    <tag k="addr:street" v="Gymnasialstraße"/>
    <tag k="addr:city" v="Koblenz"/>
    <tag k="addr:housenumber" v="7"/>
  </node>
</osm>
