<?xml version='1.0' encoding='UTF-8'?>
<osm version="0.6" generator="Osmosis SNAPSHOT-r26564">
  <node id="30150187" version="5" timestamp="2010-03-25T12:09:22Z" uid="49785" user="mike67" changeset="4228727" lat="50.3525814" lon="7.5903776">
    <tag k="addr:postcode" v="56068"/>
    <tag k="shop" v="supermarket"/>
    <tag k="addr:country" v="DE"/>
    <tag k="name" v="Aldi Süd"/>
    <tag k="addr:street" v="Bahnhofstraße"/>
    <tag k="addr:city" v="Koblenz"/>
    <tag k="operator" v="Aldi Süd"/>
    <tag k="addr:housenumber" v="50"/>
  </node>
  <node id="30150188" version="4" timestamp="2011-10-07T17:49:47Z" uid="290680" user="wheelmap_visitor" changeset="9490517" lat="50.3581076" lon="7.5950259">
    <tag k="shop" v="supermarket"/>
    <tag k="wheelchair" v="yes"/>
    <tag k="name" v="Netto"/>
  </node>
  <node id="251045095" version="3" timestamp="2011-04-01T15:26:11Z" uid="290680" user="wheelmap_visitor" changeset="7736031" lat="50.3595826" lon="7.5914343">
    <tag k="shop" v="supermarket"/>
    <tag k="wheelchair" v="yes"/>
    <tag k="name" v="Globus"/>
  </node>
  <node id="259402378" version="5" timestamp="2011-09-23T12:27:42Z" uid="290680" user="wheelmap_visitor" changeset="9373820" lat="50.3487897" lon="7.5887163">
    <tag k="shop" v="supermarket"/>
    <tag k="wheelchair" v="yes"/>
    <tag k="name" v="LIDL"/>
  </node>
  <node id="259832110" version="5" timestamp="2011-12-12T18:48:24Z" uid="114405" user="Pajopath" changeset="10101649" lat="50.3815641" lon="7.5775045">
    <tag k="shop" v="supermarket"/>
    <tag k="wheelchair" v="yes"/>
    <tag k="name" v="Edeka"/>
  </node>
  <node id="263029627" version="4" timestamp="2011-12-12T18:48:25Z" uid="114405" user="Pajopath" changeset="10101649" lat="50.3810536" lon="7.5791906">
    <tag k="shop" v="supermarket"/>
    <tag k="name" v="Penny"/>
  </node>
  <node id="269072836" version="6" timestamp="2011-10-10T19:56:26Z" uid="290680" user="wheelmap_visitor" changeset="9518514" lat="50.360549" lon="7.554093">
    <tag k="shop" v="supermarket"/>
    <tag k="wheelchair" v="yes"/>
    <tag k="name" v="Schlecker"/>
  </node>
  <node id="270678037" version="7" timestamp="2011-01-01T23:02:06Z" uid="388936" user="tommmg" changeset="6833655" lat="50.3464187" lon="7.6192697">
    <tag k="shop" v="supermarket"/>
    <tag k="name" v="Netto"/>
  </node>
  <node id="282040592" version="2" timestamp="2009-07-13T12:56:05Z" uid="145034" user="mbohnen" changeset="1816199" lat="50.3586457" lon="7.5990623">
    <tag k="shop" v="supermarket"/>
    <tag k="name" v="Netto"/>
  </node>
  <node id="282548706" version="3" timestamp="2010-10-22T17:05:35Z" uid="290680" user="wheelmap_visitor" changeset="6133243" lat="50.3675264" lon="7.5994982">
    <tag k="shop" v="supermarket"/>
    <tag k="wheelchair" v="yes"/>
    <tag k="name" v="Netto"/>
  </node>
  <node id="284144525" version="5" timestamp="2012-02-25T20:10:31Z" uid="290680" user="wheelmap_visitor" changeset="10786853" lat="50.3407368" lon="7.6154431">
    <tag k="shop" v="supermarket"/>
    <tag k="wheelchair" v="limited"/>
    <tag k="name" v="Penny"/>
  </node>
  <node id="301100693" version="3" timestamp="2010-02-27T14:43:11Z" uid="238576" user="Alvaro Gauterin" changeset="3989086" lat="50.3532644" lon="7.5899505">
    <tag k="shop" v="supermarket"/>
    <tag k="name" v="Netto"/>
  </node>
  <node id="309880587" version="4" timestamp="2008-11-11T11:17:36Z" uid="64783" user="DAIMO" changeset="735848" lat="50.3884611" lon="7.4837022">
    <tag k="shop" v="supermarket"/>
    <tag k="name" v="Edeka"/>
  </node>
  <node id="310067608" version="5" timestamp="2008-11-26T14:21:09Z" uid="64783" user="DAIMO" changeset="798417" lat="50.3904827" lon="7.4920397">
    <tag k="shop" v="supermarket"/>
    <tag k="name" v="Norma"/>
  </node>
  <node id="311073797" version="4" timestamp="2010-07-21T08:20:10Z" uid="322106" user="LongJohnSilver" changeset="5276857" lat="50.388558" lon="7.4952297">
    <tag k="shop" v="supermarket"/>
    <tag k="name" v="Rewe"/>
  </node>
  <node id="312763770" version="2" timestamp="2010-06-15T16:20:50Z" uid="293774" user="Oli-Wan" changeset="4992897" lat="50.4027054" lon="7.6207947">
    <tag k="shop" v="supermarket"/>
    <tag k="name" v="Plus"/>
    <tag k="FIXME" v="Plus wurde zum 1.1.2009 durch Netto übernommen. Die bisherigen Plus-Filialen werden entweder in Netto umbenannt oder (wenige) an andere Handelsketten verkauft. Bitte überprüfen, unter welchem Namen diese Filiale jetzt läuft."/>
  </node>
  <node id="316033196" version="2" timestamp="2008-12-01T12:03:45Z" uid="74410" user="hdEATH" changeset="8123" lat="50.4009398" lon="7.6086174">
    <tag k="shop" v="supermarket"/>
    <tag k="name" v="Lidl"/>
  </node>
  <node id="337229606" version="4" timestamp="2011-06-15T06:43:41Z" uid="290680" user="wheelmap_visitor" changeset="8444297" lat="50.3424618" lon="7.5482271">
    <tag k="created_by" v="Potlatch 0.10f"/>
    <tag k="shop" v="supermarket"/>
    <tag k="wheelchair" v="yes"/>
    <tag k="name" v="REWE"/>
    <tag k="operator" v="REWE"/>
  </node>
  <node id="345451293" version="3" timestamp="2011-06-15T06:44:42Z" uid="290680" user="wheelmap_visitor" changeset="8444297" lat="50.3447467" lon="7.547929">
    <tag k="created_by" v="Potlatch 0.10f"/>
    <tag k="shop" v="supermarket"/>
    <tag k="wheelchair" v="yes"/>
    <tag k="operator" v="Penny"/>
  </node>
  <node id="361085109" version="6" timestamp="2011-10-03T21:02:46Z" uid="290680" user="wheelmap_visitor" changeset="9456721" lat="50.3953916" lon="7.5347005">
    <tag k="shop" v="supermarket"/>
    <tag k="wheelchair" v="yes"/>
    <tag k="name" v="real"/>
  </node>
  <node id="384794486" version="1" timestamp="2009-04-25T16:15:25Z" uid="86317" user="GeoGerd" changeset="952172" lat="50.3718461" lon="7.6413273">
    <tag k="shop" v="supermarket"/>
    <tag k="name" v="Netto"/>
  </node>
  <node id="388114867" version="4" timestamp="2011-11-03T21:48:49Z" uid="39966" user="free_as_a_bird" changeset="9734456" lat="50.3989879" lon="7.6125103">
    <tag k="shop" v="supermarket"/>
    <tag k="wheelchair" v="yes"/>
    <tag k="name" v="REWE"/>
    <tag k="operator" v="REWE"/>
  </node>
  <node id="457702057" version="4" timestamp="2011-10-19T19:37:03Z" uid="290680" user="wheelmap_visitor" changeset="9596105" lat="50.3949958" lon="7.5345657">
    <tag k="shop" v="supermarket"/>
    <tag k="wheelchair" v="yes"/>
    <tag k="name" v="C&amp;A"/>
  </node>
  <node id="469323534" version="5" timestamp="2011-10-26T19:32:27Z" uid="114405" user="Pajopath" changeset="9663224" lat="50.3633237" lon="7.5822568">
    <tag k="shop" v="supermarket"/>
    <tag k="wheelchair" v="limited"/>
    <tag k="name" v="Lidl"/>
  </node>
  <node id="484285197" version="3" timestamp="2011-04-01T15:18:48Z" uid="290680" user="wheelmap_visitor" changeset="7736031" lat="50.3566267" lon="7.5952939">
    <tag k="addr:postcode" v="56068"/>
    <tag k="shop" v="supermarket"/>
    <tag k="wheelchair" v="yes"/>
    <tag k="addr:country" v="DE"/>
    <tag k="name" v="KODI"/>
    <tag k="addr:street" v="Schloßstraße"/>
    <tag k="addr:city" v="Koblenz"/>
    <tag k="addr:housenumber" v="33"/>
  </node>
  <node id="534393568" version="2" timestamp="2010-10-22T17:05:36Z" uid="290680" user="wheelmap_visitor" changeset="6133243" lat="50.3713945" lon="7.5990352">
    <tag k="shop" v="supermarket"/>
    <tag k="wheelchair" v="yes"/>
    <tag k="name" v="LIDL"/>
    <tag k="operator" v="LIDL"/>
    <tag k="opening_hours" v="Mo-Sa 08:00-20:00"/>
  </node>
  <node id="534425065" version="4" timestamp="2009-11-24T21:45:25Z" uid="178444" user="wrifka" changeset="3208093" lat="50.3653862" lon="7.6202713">
    <tag k="shop" v="supermarket"/>
    <tag k="name" v="Norma"/>
  </node>
  <node id="556846397" version="4" timestamp="2011-04-25T20:04:20Z" uid="92274" user="adjuva" changeset="7968240" lat="50.3634548" lon="7.5751205">
    <tag k="addr:postcode" v="56073"/>
    <tag k="shop" v="supermarket"/>
    <tag k="ref" v="109"/>
    <tag k="website" v="http://www.hit.de/"/>
    <tag k="addr:country" v="DE"/>
    <tag k="name" v="HIT"/>
    <tag k="addr:street" v="Schlachthofstraße"/>
    <tag k="addr:city" v="Koblenz"/>
    <tag k="addr:housenumber" v="66"/>
    <tag k="opening_hours" v="Mo-Sa 08:00-21:00"/>
  </node>
  <node id="565071749" version="1" timestamp="2009-11-15T22:38:35Z" uid="178444" user="wrifka" changeset="3127909" lat="50.366137" lon="7.6205679">
    <tag k="shop" v="supermarket"/>
    <tag k="name" v="REWE"/>
  </node>
  <node id="567164705" version="2" timestamp="2010-10-22T17:06:37Z" uid="290680" user="wheelmap_visitor" changeset="6133243" lat="50.3717472" lon="7.5954258">
    <tag k="shop" v="supermarket"/>
    <tag k="wheelchair" v="yes"/>
    <tag k="name" v="Norma"/>
  </node>
  <node id="571488503" version="1" timestamp="2009-11-26T16:22:15Z" uid="201150" user="linderklaus" changeset="3221360" lat="50.3541282" lon="7.5766449">
    <tag k="shop" v="supermarket"/>
  </node>
  <node id="618957935" version="2" timestamp="2012-01-27T11:36:01Z" uid="290680" user="wheelmap_visitor" changeset="10510749" lat="50.3575551" lon="7.6109315">
    <tag k="addr:postcode" v="56076"/>
    <tag k="shop" v="supermarket"/>
    <tag k="wheelchair" v="limited"/>
    <tag k="addr:country" v="DE"/>
    <tag k="name" v="Lidl"/>
    <tag k="addr:street" v="Im Teichert"/>
    <tag k="addr:city" v="Koblenz"/>
    <tag k="addr:housenumber" v="115"/>
  </node>
  <node id="638646461" version="3" timestamp="2011-10-03T16:52:33Z" uid="290680" user="wheelmap_visitor" changeset="9456721" lat="50.344564" lon="7.588196">
    <tag k="shop" v="supermarket"/>
    <tag k="phone" v="026114850"/>
    <tag k="wheelchair" v="limited"/>
    <tag k="name" v="Edeka-Aktiv-Markt Kreuzberg"/>
    <tag k="addr:street" v="Hohenzollernstraße"/>
    <tag k="addr:housenumber" v="132"/>
  </node>
  <node id="660660515" version="1" timestamp="2010-03-05T13:46:00Z" uid="74410" user="hdEATH" changeset="4041052" lat="50.3936161" lon="7.6295512">
    <tag k="shop" v="supermarket"/>
    <tag k="name" v="nah und gut"/>
  </node>
  <node id="671503358" version="2" timestamp="2010-12-07T20:15:38Z" uid="74410" user="hdEATH" changeset="6579089" lat="50.3939552" lon="7.6169465">
    <tag k="shop" v="supermarket"/>
    <tag k="name" v="Aldi"/>
  </node>
  <node id="673455373" version="4" timestamp="2010-11-07T06:23:35Z" uid="290680" user="wheelmap_visitor" changeset="6308379" lat="50.4096617" lon="7.6943207">
    <tag k="shop" v="supermarket"/>
    <tag k="wheelchair" v="no"/>
    <tag k="name" v="Edeka"/>
  </node>
  <node id="1109736669" version="5" timestamp="2011-01-19T19:10:01Z" uid="70696" user="xybot" changeset="7023573" lat="50.3941629" lon="7.5377301">
    <tag k="addr:postcode" v="56218"/>
    <tag k="shop" v="supermarket"/>
    <tag k="addr:full" v="Jungenstraße 18, D-56218 Mülheim-Kärlich"/>
    <tag k="website" v="http://www.betten-walther.de"/>
    <tag k="addr:country" v="DE"/>
    <tag k="description" v="Betten Fachgeschäft"/>
    <tag k="name" v="Betten Walther"/>
    <tag k="addr:street" v="Jungenstraße"/>
    <tag k="addr:city" v="Mülheim-Kärlich"/>
    <tag k="addr:housenumber" v="18"/>
  </node>
  <node id="1311575800" version="2" timestamp="2011-10-08T19:35:41Z" uid="290680" user="wheelmap_visitor" changeset="9499106" lat="50.2976972" lon="7.6081054">
    <tag k="addr:postcode" v="56112"/>
    <tag k="shop" v="supermarket"/>
    <tag k="wheelchair" v="yes"/>
    <tag k="name" v="Netto"/>
    <tag k="addr:street" v="Braubacher Straße"/>
    <tag k="addr:housenumber" v="1"/>
  </node>
</osm>
