<?xml version='1.0' encoding='UTF-8'?>
<osm version="0.6" generator="Osmosis SNAPSHOT-r26564">
  <node id="26930108" version="4" timestamp="2011-03-16T20:06:32Z" uid="323389" user="Michael_H" changeset="7579087" lat="48.1341246" lon="11.3865867">
    <tag k="addr:postcode" v="82110"/>
    <tag k="phone" v="+49 89 846222"/>
    <tag k="addr:country" v="DE"/>
    <tag k="name" v="Sankt Cäcilia"/>
    <tag k="amenity" v="kindergarten"/>
    <tag k="addr:street" v="Sankt-Cäcilia-Straße"/>
    <tag k="addr:city" v="Germering"/>
    <tag k="addr:housenumber" v="1"/>
  </node>
  <node id="110357017" version="6" timestamp="2011-03-16T12:44:40Z" uid="290680" user="wheelmap_visitor" changeset="7575259" lat="48.0927931" lon="11.4575397">
    <tag k="wheelchair" v="yes"/>
    <tag k="name" v="Kindergarten am Kraillinger Weg"/>
    <tag k="amenity" v="kindergarten"/>
  </node>
  <node id="119858657" version="4" timestamp="2010-07-29T23:40:27Z" uid="324392" user="skyliner2" changeset="5351065" lat="48.1354066" lon="11.3605477">
    <tag k="name" v="St. Martin"/>
    <tag k="amenity" v="kindergarten"/>
  </node>
  <node id="192305034" version="4" timestamp="2009-07-07T13:37:10Z" uid="59819" user="Fuss-im-Ohr" changeset="1761905" lat="48.1703735" lon="11.7235525">
    <tag k="name" v="Watzmannstraße"/>
    <tag k="amenity" v="kindergarten"/>
  </node>
  <node id="201784796" version="5" timestamp="2011-01-01T15:48:27Z" uid="68010" user="ms2000" changeset="6828969" lat="48.1516828" lon="11.4386289">
    <tag k="name" v="Städtische Kindertagesstätte am Ravensburger Ring"/>
    <tag k="amenity" v="kindergarten"/>
  </node>
  <node id="238362594" version="4" timestamp="2009-04-09T19:56:47Z" uid="72235" user="Basstoelpel" changeset="348148" lat="48.1796133" lon="11.5804508">
    <tag k="name" v="Städtischer Kindergarten"/>
    <tag k="amenity" v="kindergarten"/>
    <tag k="addr:street" v="Torquato-Tasso-Straße"/>
    <tag k="addr:housenumber" v="36"/>
  </node>
  <node id="238362615" version="3" timestamp="2009-09-02T14:40:49Z" uid="85761" user="klausis" changeset="2348916" lat="48.1829004" lon="11.5818838">
    <tag k="amenity" v="kindergarten"/>
  </node>
  <node id="254951809" version="3" timestamp="2011-10-07T17:36:31Z" uid="290680" user="wheelmap_visitor" changeset="9490517" lat="48.1955697" lon="11.5493809">
    <tag k="created_by" v="JOSM"/>
    <tag k="addr:postcode" v="80935"/>
    <tag k="wheelchair" v="limited"/>
    <tag k="name" v="Kita Waldmeisterstraße"/>
    <tag k="amenity" v="kindergarten"/>
    <tag k="addr:street" v="Waldmeisterstraße"/>
    <tag k="addr:housenumber" v="25"/>
  </node>
  <node id="261056273" version="3" timestamp="2008-10-21T12:54:38Z" uid="31605" user="hatzfeld" changeset="480964" lat="48.1254949" lon="11.5949708">
    <tag k="name" v="St. Wolfgang"/>
    <tag k="amenity" v="kindergarten"/>
  </node>
  <node id="261056311" version="3" timestamp="2008-07-14T09:49:55Z" uid="6975" user="ulfl" changeset="486169" lat="48.1252224" lon="11.5945684">
    <tag k="name" v="Städtischer Kindergarten"/>
    <tag k="amenity" v="kindergarten"/>
  </node>
  <node id="264008246" version="6" timestamp="2011-05-24T22:17:13Z" uid="56526" user="JJ Rammerl" changeset="8240351" lat="48.1236611" lon="11.6223871">
    <tag k="name" v="Kindertagesstätte Fehwiesenstraße 122"/>
    <tag k="amenity" v="kindergarten"/>
  </node>
  <node id="264011987" version="4" timestamp="2010-12-31T18:41:44Z" uid="42393" user="mawi42" changeset="6822744" lat="48.1251555" lon="11.6165454">
    <tag k="name" v="Städtische Kindertagesstätte"/>
    <tag k="amenity" v="kindergarten"/>
  </node>
  <node id="270587015" version="5" timestamp="2011-03-11T17:14:13Z" uid="39803" user="Harti" changeset="7525409" lat="48.1129926" lon="11.6771925">
    <tag k="name" v="Kath. Kindergarten Franz Xaver"/>
    <tag k="amenity" v="kindergarten"/>
  </node>
  <node id="273344329" version="7" timestamp="2010-11-06T09:28:55Z" uid="290680" user="wheelmap_visitor" changeset="6300162" lat="48.1120402" lon="11.676831">
    <tag k="wheelchair" v="unknown"/>
    <tag k="name" v="Kindergarten Hugo-Weiss-Straße 10"/>
    <tag k="amenity" v="kindergarten"/>
  </node>
  <node id="277251969" version="3" timestamp="2010-01-11T09:41:02Z" uid="29061" user="KPG" changeset="3594361" lat="48.1240584" lon="11.6198633">
    <tag k="name" v="Städtische Kinderkrippe"/>
    <tag k="amenity" v="kindergarten"/>
  </node>
  <node id="290528215" version="5" timestamp="2011-03-14T11:28:24Z" uid="29061" user="KPG" changeset="7554843" lat="48.1233195" lon="11.63547">
    <tag k="addr:country" v="DE"/>
    <tag k="name" v="Städtische Kindertagesstätte"/>
    <tag k="amenity" v="kindergarten"/>
    <tag k="addr:city" v="München"/>
    <tag k="addr:housenumber" v="28"/>
  </node>
  <node id="291364384" version="11" timestamp="2009-01-30T11:58:24Z" uid="59819" user="Fuss-im-Ohr" changeset="855416" lat="48.1383634" lon="11.5901877">
    <tag k="addr:postcode" v="80538"/>
    <tag k="phone" v="+49 89 21949184"/>
    <tag k="website" v="http://www.kindergarten-mobo.de"/>
    <tag k="addr:country" v="DE"/>
    <tag k="name" v="Mobolino Kindertagesstätte"/>
    <tag k="amenity" v="kindergarten"/>
    <tag k="addr:street" v="Sternstraße"/>
    <tag k="addr:city" v="München"/>
    <tag k="addr:housenumber" v="16"/>
  </node>
  <node id="291642245" version="8" timestamp="2009-01-26T00:07:26Z" uid="59819" user="Fuss-im-Ohr" changeset="838356" lat="48.145502" lon="11.593293">
    <tag k="addr:postcode" v="80538"/>
    <tag k="phone" v="+49 89 295457"/>
    <tag k="addr:country" v="DE"/>
    <tag k="name" v="Kinderhaus"/>
    <tag k="amenity" v="kindergarten"/>
    <tag k="addr:street" v="Oettingenstraße"/>
    <tag k="addr:city" v="München"/>
    <tag k="addr:housenumber" v="31"/>
  </node>
  <node id="291642290" version="7" timestamp="2009-01-30T11:58:22Z" uid="59819" user="Fuss-im-Ohr" changeset="855416" lat="48.1416925" lon="11.5934408">
    <tag k="addr:postcode" v="80538"/>
    <tag k="phone" v="+49 89 21578333"/>
    <tag k="addr:country" v="DE"/>
    <tag k="name" v="Sankt Anna-Heim"/>
    <tag k="amenity" v="kindergarten"/>
    <tag k="addr:street" v="Prinzregentenstraße"/>
    <tag k="addr:city" v="München"/>
    <tag k="addr:housenumber" v="11a"/>
  </node>
  <node id="291898771" version="9" timestamp="2010-08-09T08:20:06Z" uid="84189" user="joglo" changeset="5441010" lat="48.1476641" lon="11.5952876">
    <tag k="addr:postcode" v="80538"/>
    <tag k="phone" v="+49 89 2289314"/>
    <tag k="addr:country" v="DE"/>
    <tag k="name" v="Kinderhaus Lenk"/>
    <tag k="amenity" v="kindergarten"/>
    <tag k="addr:street" v="Dianastraße"/>
    <tag k="addr:city" v="München"/>
    <tag k="addr:housenumber" v="2"/>
  </node>
  <node id="291898787" version="8" timestamp="2009-01-26T00:07:34Z" uid="59819" user="Fuss-im-Ohr" changeset="838356" lat="48.1457691" lon="11.5938492">
    <tag k="addr:postcode" v="80538"/>
    <tag k="phone" v="+49 89 21019490"/>
    <tag k="website" v="http://www.mimo-ev.de"/>
    <tag k="addr:country" v="DE"/>
    <tag k="name" v="Montessori Integrationskindergarten München Ost-MIMO e.V."/>
    <tag k="amenity" v="kindergarten"/>
    <tag k="addr:street" v="Emil-Riedel-Straße"/>
    <tag k="addr:city" v="München"/>
    <tag k="addr:housenumber" v="1"/>
  </node>
  <node id="292291027" version="8" timestamp="2009-01-30T11:58:23Z" uid="59819" user="Fuss-im-Ohr" changeset="855416" lat="48.1397011" lon="11.5901983">
    <tag k="addr:postcode" v="80538"/>
    <tag k="addr:country" v="DE"/>
    <tag k="name" v="Kinderkrippe im Lehel"/>
    <tag k="amenity" v="kindergarten"/>
    <tag k="addr:street" v="Robert-Koch-Straße"/>
    <tag k="addr:city" v="München"/>
    <tag k="operator" v="Stadt München"/>
    <tag k="addr:housenumber" v="5"/>
  </node>
  <node id="292736024" version="2" timestamp="2008-09-08T21:02:44Z" uid="17933" user="abunai" changeset="574512" lat="48.1456145" lon="11.6559312">
    <tag k="amenity" v="kindergarten"/>
  </node>
  <node id="297933556" version="7" timestamp="2010-10-06T08:50:55Z" uid="109029" user="shorty_de" changeset="5967149" lat="48.1348896" lon="11.5866664">
    <tag k="addr:postcode" v="80538"/>
    <tag k="phone" v="+49 89 29161305"/>
    <tag k="website" v="http://www.sanktlukas.de/index.php?id=32"/>
    <tag k="addr:country" v="DE"/>
    <tag k="name" v="Kindergarten in der Lukaskirche"/>
    <tag k="amenity" v="kindergarten"/>
    <tag k="addr:street" v="Thierschstraße"/>
    <tag k="addr:city" v="München"/>
    <tag k="addr:housenumber" v="28"/>
  </node>
  <node id="298824088" version="2" timestamp="2008-09-21T18:48:13Z" uid="44374" user="harfner" changeset="676529" lat="48.2135417" lon="11.5361416">
    <tag k="created_by" v="Potlatch 0.10b"/>
    <tag k="amenity" v="kindergarten"/>
  </node>
  <node id="303135340" version="6" timestamp="2010-11-10T17:50:54Z" uid="8748" user="ToniE" changeset="6337697" lat="48.1093948" lon="11.6916964">
    <tag k="addr:postcode" v="81827"/>
    <tag k="addr:country" v="DE"/>
    <tag k="name" v="Städtischer Kindergarten"/>
    <tag k="amenity" v="kindergarten"/>
    <tag k="addr:street" v="Waldschulstraße"/>
    <tag k="addr:city" v="München"/>
    <tag k="operator" v="Landeshauptstadt München"/>
    <tag k="addr:housenumber" v="20"/>
  </node>
  <node id="307646307" version="1" timestamp="2008-10-26T11:09:38Z" uid="44811" user="laufstar1" changeset="579377" lat="48.1266416" lon="11.4412023">
    <tag k="created_by" v="Potlatch 0.10e"/>
    <tag k="amenity" v="kindergarten"/>
  </node>
  <node id="307658554" version="2" timestamp="2009-09-04T18:06:18Z" uid="85761" user="klausis" changeset="2371943" lat="48.143133" lon="11.44691">
    <tag k="amenity" v="kindergarten"/>
  </node>
  <node id="309254778" version="7" timestamp="2011-07-13T01:05:29Z" uid="64164" user="osmkurt" changeset="8708383" lat="48.2062713" lon="11.5492361">
    <tag k="name" v="Städt. Kindergarten und Tagesheim"/>
    <tag k="amenity" v="kindergarten"/>
  </node>
  <node id="309384000" version="1" timestamp="2008-11-02T14:21:54Z" uid="72235" user="Basstoelpel" changeset="657847" lat="48.2062208" lon="11.4911166">
    <tag k="name" v="Kinderzentrum Kunterbunt"/>
    <tag k="amenity" v="kindergarten"/>
  </node>
  <node id="312788992" version="5" timestamp="2011-06-24T16:06:43Z" uid="64164" user="osmkurt" changeset="8534396" lat="48.1334922" lon="11.6023089">
    <tag k="addr:postcode" v="81667"/>
    <tag k="phone" v="+49 89 4489629"/>
    <tag k="website" v="http://www.kindergarten-kiki.de"/>
    <tag k="email" v="info@kindergarten-kiki.de"/>
    <tag k="addr:country" v="DE"/>
    <tag k="name" v="Kinderladen Kiki"/>
    <tag k="amenity" v="kindergarten"/>
    <tag k="addr:street" v="Kirchenstraße"/>
    <tag k="addr:city" v="München"/>
    <tag k="addr:housenumber" v="32"/>
  </node>
  <node id="315930021" version="1" timestamp="2008-11-30T21:04:30Z" uid="72235" user="Basstoelpel" changeset="816318" lat="48.2260772" lon="11.4790767">
    <tag k="ref" v="Kinderhort 4"/>
    <tag k="name" v="An der Sesamstraße"/>
    <tag k="amenity" v="kindergarten"/>
  </node>
  <node id="319144456" version="7" timestamp="2011-10-07T17:18:47Z" uid="290680" user="wheelmap_visitor" changeset="9490517" lat="48.0800951" lon="11.6049845">
    <tag k="addr:postcode" v="82008"/>
    <tag k="wheelchair" v="limited"/>
    <tag k="addr:country" v="DE"/>
    <tag k="name" v="Kindergarten Sankt Birgitta"/>
    <tag k="amenity" v="kindergarten"/>
    <tag k="addr:street" v="Parkstraße"/>
    <tag k="addr:city" v="Unterhaching"/>
    <tag k="addr:housenumber" v="11"/>
  </node>
  <node id="329104757" version="10" timestamp="2009-12-30T09:16:12Z" uid="51782" user="maxbe" changeset="3488049" lat="48.1277055" lon="11.6731429">
    <tag k="addr:postcode" v="81829"/>
    <tag k="addr:country" v="DE"/>
    <tag k="name" v="Städtischer Kindergarten Haniklstraße"/>
    <tag k="amenity" v="kindergarten"/>
    <tag k="addr:street" v="Haniklstraße"/>
    <tag k="addr:city" v="München"/>
    <tag k="addr:housenumber" v="2"/>
  </node>
  <node id="331170600" version="2" timestamp="2010-01-17T19:37:42Z" uid="72235" user="Basstoelpel" changeset="3644859" lat="48.1970371" lon="11.54526">
    <tag k="addr:postcode" v="80935"/>
    <tag k="name" v="International Kids Campus"/>
    <tag k="amenity" v="kindergarten"/>
    <tag k="addr:street" v="Lerchenauer Straße"/>
    <tag k="addr:housenumber" v="197"/>
  </node>
  <node id="336115648" version="1" timestamp="2009-01-24T22:26:03Z" uid="20244" user="Jeffrey Ratcliffe" changeset="831253" lat="48.1653476" lon="11.623091">
    <tag k="amenity" v="kindergarten"/>
  </node>
  <node id="336278582" version="1" timestamp="2009-01-25T13:34:21Z" uid="72235" user="Basstoelpel" changeset="834061" lat="48.1792918" lon="11.5197352">
    <tag k="name" v="Kindertagesstätte"/>
    <tag k="amenity" v="kindergarten"/>
  </node>
  <node id="344666468" version="4" timestamp="2012-01-09T02:32:13Z" uid="64164" user="osmkurt" changeset="10338604" lat="48.2113888" lon="11.5702105">
    <tag k="name" v="Städtischer Hort Hildegard-von-Bingen-Anger"/>
    <tag k="amenity" v="kindergarten"/>
    <tag k="addr:street" v="Hildegard-von-Bingen-Anger"/>
    <tag k="operator" v="Stadt München"/>
    <tag k="addr:housenumber" v="4b"/>
  </node>
  <node id="345843642" version="1" timestamp="2009-02-15T22:34:26Z" uid="17933" user="abunai" changeset="461506" lat="48.1713173" lon="11.5942763">
    <tag k="name" v="Casa Luz"/>
    <tag k="amenity" v="kindergarten"/>
  </node>
  <node id="354473274" version="1" timestamp="2009-03-01T12:08:44Z" uid="75620" user="Arthur Lorenz" changeset="718446" lat="48.1810957" lon="11.5651978">
    <tag k="name" v="Städtischer Hort an der Hanselmannstraße"/>
    <tag k="amenity" v="kindergarten"/>
  </node>
  <node id="364754679" version="4" timestamp="2011-10-16T21:07:00Z" uid="290680" user="wheelmap_visitor" changeset="9569216" lat="48.1175025" lon="11.4333692">
    <tag k="created_by" v="Potlatch 0.10f"/>
    <tag k="wheelchair" v="yes"/>
    <tag k="name" v="Kindergarten St. Stefan"/>
    <tag k="amenity" v="kindergarten"/>
  </node>
  <node id="366569237" version="2" timestamp="2010-09-17T20:45:44Z" uid="59632" user="tanne" changeset="5807189" lat="48.1820664" lon="11.4835778">
    <tag k="name" v="Städtischer Kindergarten Gruithuisenstraße 8"/>
    <tag k="amenity" v="kindergarten"/>
  </node>
  <node id="366594252" version="6" timestamp="2010-09-19T14:49:01Z" uid="65148" user="tixuwuoz" changeset="5820386" lat="48.1960119" lon="11.4607688">
    <tag k="website" v="http://www.zauberfloete-allach.de/"/>
    <tag k="name" v="Kindertagesstätte Zauberflöte"/>
    <tag k="amenity" v="kindergarten"/>
  </node>
  <node id="368354966" version="2" timestamp="2011-07-07T16:21:26Z" uid="56526" user="JJ Rammerl" changeset="8656395" lat="48.1622096" lon="11.6468363">
    <tag k="addr:postcode" v="81927"/>
    <tag k="addr:country" v="DE"/>
    <tag k="name" v="Kinderkrippe Karl-Erb-Weg 9"/>
    <tag k="amenity" v="kindergarten"/>
    <tag k="addr:street" v="Stegmühlstraße"/>
    <tag k="addr:state" v="Bayern"/>
    <tag k="addr:city" v="München"/>
    <tag k="addr:housenumber" v="9"/>
  </node>
  <node id="369534434" version="1" timestamp="2009-04-03T20:03:34Z" uid="54552" user="osm191639" changeset="139750" lat="48.1224455" lon="11.6325508">
    <tag k="amenity" v="kindergarten"/>
  </node>
  <node id="371199040" version="1" timestamp="2009-04-09T19:56:41Z" uid="72235" user="Basstoelpel" changeset="348148" lat="48.1794804" lon="11.5803967">
    <tag k="name" v="Städtischer Hort"/>
    <tag k="amenity" v="kindergarten"/>
  </node>
  <node id="371240830" version="1" timestamp="2009-04-09T23:03:37Z" uid="72235" user="Basstoelpel" changeset="366487" lat="48.1863973" lon="11.5191015">
    <tag k="name" v="Kindergarten Thorner Straße 3"/>
    <tag k="amenity" v="kindergarten"/>
  </node>
  <node id="372348812" version="4" timestamp="2010-05-17T17:31:50Z" uid="246245" user="mouch" changeset="4730772" lat="48.1106384" lon="11.5070482">
    <tag k="amenity" v="kindergarten"/>
  </node>
  <node id="374243903" version="2" timestamp="2010-04-03T18:47:04Z" uid="57158" user="kay_D" changeset="4316092" lat="48.1982428" lon="11.4589419">
    <tag k="name" v="Städtischer Hort"/>
    <tag k="amenity" v="kindergarten"/>
    <tag k="addr:street" v="Kupfferstraße"/>
    <tag k="addr:housenumber" v="3"/>
  </node>
  <node id="376924459" version="5" timestamp="2010-11-15T13:56:12Z" uid="65148" user="tixuwuoz" changeset="6377564" lat="48.1279785" lon="11.5665815">
    <tag k="addr:postcode" v="80469"/>
    <tag k="addr:country" v="DE"/>
    <tag k="name" v="Integrativer Kindergarten"/>
    <tag k="amenity" v="kindergarten"/>
    <tag k="addr:street" v="Pestalozzistraße"/>
    <tag k="addr:city" v="München"/>
    <tag k="addr:housenumber" v="52a"/>
  </node>
  <node id="391217681" version="1" timestamp="2009-05-06T05:41:09Z" uid="72235" user="Basstoelpel" changeset="1093018" lat="48.1863954" lon="11.4665395">
    <tag k="name" v="Lila Lupi"/>
    <tag k="amenity" v="kindergarten"/>
  </node>
  <node id="394918477" version="4" timestamp="2010-07-09T19:12:26Z" uid="8748" user="ToniE" changeset="5176242" lat="48.0929378" lon="11.6086659">
    <tag k="name" v="Kindertagesstätte Tirschenreuther Straße"/>
    <tag k="amenity" v="kindergarten"/>
  </node>
  <node id="408517486" version="2" timestamp="2010-07-03T11:35:21Z" uid="8748" user="ToniE" changeset="5123986" lat="48.080771" lon="11.5569219">
    <tag k="name" v="Waldkindergarten Wurzelkinder e.V."/>
    <tag k="amenity" v="kindergarten"/>
  </node>
  <node id="409577873" version="2" timestamp="2012-01-09T02:09:50Z" uid="64164" user="osmkurt" changeset="10338604" lat="48.2100931" lon="11.569287">
    <tag k="addr:postcode" v="80937"/>
    <tag k="name" v="Caritas Haus für Kinder"/>
    <tag k="amenity" v="kindergarten"/>
    <tag k="addr:street" v="Hildegard-von-Bingen-Anger"/>
    <tag k="operator" v="Caritas"/>
    <tag k="addr:housenumber" v="3"/>
  </node>
  <node id="414624589" version="2" timestamp="2009-08-10T21:50:46Z" uid="51552" user="kfg" changeset="2102806" lat="48.1687489" lon="11.4675335">
    <tag k="amenity" v="kindergarten"/>
  </node>
  <node id="414892991" version="4" timestamp="2009-08-14T22:43:52Z" uid="68974" user="Broky" changeset="2148332" lat="48.1661237" lon="11.4656092">
    <tag k="addr:postcode" v="81247"/>
    <tag k="addr:country" v="DE"/>
    <tag k="name" v="Kindergarten Ingrid Hein e.V."/>
    <tag k="amenity" v="kindergarten"/>
    <tag k="addr:street" v="Ziegelhofstraße"/>
    <tag k="addr:city" v="München"/>
    <tag k="addr:housenumber" v="4"/>
  </node>
  <node id="416879536" version="1" timestamp="2009-06-07T11:45:05Z" uid="44811" user="laufstar1" changeset="1445979" lat="48.1139323" lon="11.4288175">
    <tag k="name" v="Spatzennest"/>
    <tag k="amenity" v="kindergarten"/>
  </node>
  <node id="444762518" version="1" timestamp="2009-07-21T11:20:30Z" uid="32951" user="Johannes123" changeset="1893538" lat="48.06208" lon="11.7003687">
    <tag k="amenity" v="kindergarten"/>
  </node>
  <node id="447845552" version="1" timestamp="2009-07-25T15:07:54Z" uid="72235" user="Basstoelpel" changeset="1934681" lat="48.1611945" lon="11.5292915">
    <tag k="name" v="&quot;Gernerchen&quot; Kinderkrippe"/>
    <tag k="amenity" v="kindergarten"/>
  </node>
  <node id="448296240" version="1" timestamp="2009-07-26T14:38:41Z" uid="66073" user="ElChefe" changeset="1944853" lat="48.2012048" lon="11.6031271">
    <tag k="amenity" v="kindergarten"/>
  </node>
  <node id="459829224" version="2" timestamp="2010-04-18T20:24:59Z" uid="68010" user="ms2000" changeset="4462622" lat="48.144636" lon="11.4282077">
    <tag k="addr:postcode" v="81243"/>
    <tag k="addr:country" v="DE"/>
    <tag k="amenity" v="kindergarten"/>
    <tag k="addr:street" v="Thuisbrunner Straße"/>
    <tag k="addr:city" v="München"/>
    <tag k="addr:housenumber" v="24"/>
  </node>
  <node id="470763320" version="4" timestamp="2009-10-03T18:35:30Z" uid="179968" user="Ich_hasse_doitsche_OSM-Korinthenkacker" changeset="2727120" lat="48.0752108" lon="11.5191201">
    <tag k="name" v="Städtische Kindertagesstätte"/>
    <tag k="amenity" v="kindergarten"/>
  </node>
  <node id="473692778" version="1" timestamp="2009-08-25T17:37:19Z" uid="118197" user="JosmJo" changeset="2258487" lat="48.0898993" lon="11.4669595">
    <tag k="name" v="Kindergarten am Maxhofweg"/>
    <tag k="amenity" v="kindergarten"/>
  </node>
  <node id="476566855" version="3" timestamp="2009-09-01T12:22:48Z" uid="36809" user="lmaa-du-osm-korinthenkacker" changeset="2336416" lat="48.0875537" lon="11.4697001">
    <tag k="name" v="Kindergarten an der Zugspitzstraße"/>
    <tag k="is_in" v="Neuried"/>
    <tag k="amenity" v="kindergarten"/>
  </node>
  <node id="477959943" version="2" timestamp="2010-07-24T15:50:36Z" uid="8748" user="ToniE" changeset="5305045" lat="48.1091772" lon="11.7291026">
    <tag k="name" v="Kindergarten St. Konrad"/>
    <tag k="amenity" v="kindergarten"/>
  </node>
  <node id="540382881" version="2" timestamp="2011-02-01T21:21:32Z" uid="290680" user="wheelmap_visitor" changeset="7156704" lat="48.0833773" lon="11.4850582">
    <tag k="wheelchair" v="yes"/>
    <tag k="name" v="Wiederkunft des Herrn"/>
    <tag k="amenity" v="kindergarten"/>
  </node>
  <node id="558874833" version="1" timestamp="2009-11-07T14:18:21Z" uid="89073" user="eimer42" changeset="3056018" lat="48.132097" lon="11.3626808">
    <tag k="addr:postcode" v="82110"/>
    <tag k="addr:country" v="DE"/>
    <tag k="name" v="Kindergarten Benjamin"/>
    <tag k="amenity" v="kindergarten"/>
    <tag k="addr:street" v="Goethestraße"/>
    <tag k="addr:city" v="Germering"/>
    <tag k="addr:housenumber" v="26"/>
  </node>
  <node id="600443944" version="1" timestamp="2009-12-28T17:29:12Z" uid="72235" user="Basstoelpel" changeset="3473859" lat="48.2472695" lon="11.6085716">
    <tag k="name" v="St. Franziska Romana"/>
    <tag k="amenity" v="kindergarten"/>
  </node>
  <node id="601386386" version="1" timestamp="2009-12-30T09:36:22Z" uid="51782" user="maxbe" changeset="3488174" lat="48.1114322" lon="11.6968066">
    <tag k="addr:postcode" v="81827"/>
    <tag k="addr:country" v="DE"/>
    <tag k="name" v="Rudi-Seitz-Garten"/>
    <tag k="amenity" v="kindergarten"/>
    <tag k="addr:street" v="Am Hochstand"/>
    <tag k="addr:city" v="München"/>
    <tag k="addr:housenumber" v="26"/>
  </node>
  <node id="601389967" version="2" timestamp="2010-01-26T19:15:38Z" uid="8748" user="ToniE" changeset="3722180" lat="48.1101751" lon="11.6908715">
    <tag k="addr:postcode" v="81827"/>
    <tag k="addr:country" v="DE"/>
    <tag k="name" v="Katholischer Kindergarten Christi Himmelfahrt"/>
    <tag k="amenity" v="kindergarten"/>
    <tag k="addr:street" v="Waldschulstraße"/>
    <tag k="addr:city" v="München"/>
    <tag k="addr:housenumber" v="6"/>
  </node>
  <node id="616641987" version="3" timestamp="2011-02-01T20:31:35Z" uid="290680" user="wheelmap_visitor" changeset="7156704" lat="48.1174514" lon="11.5180628">
    <tag k="wheelchair" v="no"/>
    <tag k="name" v="Kindergarten S"/>
    <tag k="amenity" v="kindergarten"/>
  </node>
  <node id="619332426" version="2" timestamp="2010-04-15T16:24:43Z" uid="70696" user="xybot" changeset="4431179" lat="48.076624" lon="11.6639926">
    <tag k="phone" v="+49 89 60061928"/>
    <tag k="name" v="Kinderkrippe Kiwi"/>
    <tag k="amenity" v="kindergarten"/>
    <tag k="operator" v="Geneinnützige Paritätische Kindertagesbetreuung GmbH Süd"/>
  </node>
  <node id="653955818" version="1" timestamp="2010-02-25T23:11:18Z" uid="237354" user="BeJay" changeset="3976764" lat="48.220625" lon="11.460771">
    <tag k="name" v="Arche Noah"/>
    <tag k="amenity" v="kindergarten"/>
  </node>
  <node id="656248224" version="2" timestamp="2011-07-25T19:06:38Z" uid="64164" user="osmkurt" changeset="8828858" lat="48.1246415" lon="11.5821764">
    <tag k="name" v="Städtische Kindertagesstätte Mariahilfplatz 17b (LRA)"/>
    <tag k="amenity" v="kindergarten"/>
    <tag k="operator" v="LH München"/>
  </node>
  <node id="656248254" version="2" timestamp="2011-07-25T19:06:38Z" uid="64164" user="osmkurt" changeset="8828858" lat="48.1245657" lon="11.5823698">
    <tag k="name" v="Städtische Kindertagesstätte + Hort Mariahilfplatz 17a (LRA)"/>
    <tag k="amenity" v="kindergarten"/>
    <tag k="operator" v="LH München"/>
  </node>
  <node id="666401902" version="2" timestamp="2010-08-02T14:11:06Z" uid="68010" user="ms2000" changeset="5381037" lat="48.1599933" lon="11.4407411">
    <tag k="addr:postcode" v="81245"/>
    <tag k="addr:country" v="DE"/>
    <tag k="amenity" v="kindergarten"/>
    <tag k="addr:street" v="Lucia-Popp-Bogen"/>
    <tag k="addr:city" v="München"/>
    <tag k="addr:housenumber" v="27"/>
  </node>
  <node id="668477093" version="1" timestamp="2010-03-18T07:33:08Z" uid="247574" user="kart&apos;o&apos;graf" changeset="4159095" lat="48.1277963" lon="11.5110207">
    <tag k="amenity" v="kindergarten"/>
  </node>
  <node id="668477094" version="1" timestamp="2010-03-18T07:33:08Z" uid="247574" user="kart&apos;o&apos;graf" changeset="4159095" lat="48.1285088" lon="11.5120775">
    <tag k="amenity" v="kindergarten"/>
  </node>
  <node id="676956435" version="1" timestamp="2010-03-28T19:42:41Z" uid="72235" user="Basstoelpel" changeset="4261241" lat="48.2033316" lon="11.5453825">
    <tag k="name" v="Lerchennest"/>
    <tag k="amenity" v="kindergarten"/>
  </node>
  <node id="677195649" version="1" timestamp="2010-03-28T23:02:50Z" uid="107037" user="ulfm" changeset="4263021" lat="48.1299315" lon="11.4739606">
    <tag k="name" v="Waldorfkinderhaus Pasing in der Blumenau e.V."/>
    <tag k="amenity" v="kindergarten"/>
  </node>
  <node id="678046305" version="1" timestamp="2010-03-29T23:26:42Z" uid="107037" user="ulfm" changeset="4272564" lat="48.159645" lon="11.5333982">
    <tag k="amenity" v="kindergarten"/>
  </node>
  <node id="678046332" version="1" timestamp="2010-03-29T23:26:43Z" uid="107037" user="ulfm" changeset="4272564" lat="48.1586663" lon="11.5334664">
    <tag k="name" v="Städtischer Kindergarten"/>
    <tag k="amenity" v="kindergarten"/>
  </node>
  <node id="683449447" version="2" timestamp="2010-04-03T18:48:53Z" uid="57158" user="kay_D" changeset="4316113" lat="48.1921274" lon="11.4595447">
    <tag k="website:official" v="http://www.littlepeople-allach.com/"/>
    <tag k="name" v="Little People"/>
    <tag k="amenity" v="kindergarten"/>
    <tag k="addr:street" v="Eversbuschstraße"/>
    <tag k="addr:housenumber" v="122"/>
  </node>
  <node id="731646687" version="5" timestamp="2011-11-06T15:51:24Z" uid="46472" user="sendelhorst" changeset="9756520" lat="48.1243253" lon="11.5344889">
    <tag k="amenity" v="kindergarten"/>
  </node>
  <node id="741072865" version="1" timestamp="2010-05-20T14:46:20Z" uid="247670" user="burt13de" changeset="4757757" lat="48.118822" lon="11.5298769">
    <tag k="amenity" v="kindergarten"/>
  </node>
  <node id="768080084" version="1" timestamp="2010-06-09T18:50:15Z" uid="8748" user="ToniE" changeset="4947907" lat="48.1162248" lon="11.6162102">
    <tag k="name" v="Kindertagesstätte"/>
    <tag k="amenity" v="kindergarten"/>
    <tag k="operator" v="Landeshauptstadt München"/>
  </node>
  <node id="819934456" version="2" timestamp="2011-11-06T15:51:24Z" uid="46472" user="sendelhorst" changeset="9756520" lat="48.1250074" lon="11.5362972">
    <tag k="addr:postcode" v="81373"/>
    <tag k="addr:country" v="DE"/>
    <tag k="amenity" v="kindergarten"/>
    <tag k="addr:street" v="Lenaustraße"/>
    <tag k="addr:city" v="München"/>
    <tag k="addr:housenumber" v="8a"/>
  </node>
  <node id="821115663" version="2" timestamp="2010-07-19T18:54:46Z" uid="8748" user="ToniE" changeset="5263941" lat="48.1041971" lon="11.6353502">
    <tag k="name" v="Städtische Kindertagesstätte Quiddestraße 112"/>
    <tag k="amenity" v="kindergarten"/>
  </node>
  <node id="821115672" version="1" timestamp="2010-07-16T19:36:13Z" uid="8748" user="ToniE" changeset="5237359" lat="48.1042409" lon="11.6358639">
    <tag k="name" v="Städtischer Kinderhort Quiddestraße 110"/>
    <tag k="amenity" v="kindergarten"/>
  </node>
  <node id="829367650" version="3" timestamp="2010-09-14T14:25:20Z" uid="192395" user="BBO" changeset="5778959" lat="48.159524" lon="11.5343326">
    <tag k="name" v="Dom-Pedro-Kindergarten"/>
    <tag k="amenity" v="kindergarten"/>
  </node>
  <node id="838151561" version="1" timestamp="2010-07-29T23:40:26Z" uid="324392" user="skyliner2" changeset="5351065" lat="48.1355964" lon="11.3606738">
    <tag k="name" v="St. Martin"/>
    <tag k="amenity" v="kindergarten"/>
  </node>
  <node id="921667264" version="1" timestamp="2010-09-22T19:23:22Z" uid="323389" user="Michael_H" changeset="5848375" lat="48.1280691" lon="11.3638976">
    <tag k="addr:postcode" v="82110"/>
    <tag k="addr:country" v="DE"/>
    <tag k="name" v="Denk mit! Zwerge"/>
    <tag k="owner" v="Karin Bader"/>
    <tag k="amenity" v="kindergarten"/>
    <tag k="addr:street" v="Frühlingstraße"/>
    <tag k="addr:city" v="Germering"/>
    <tag k="addr:housenumber" v="14"/>
  </node>
  <node id="922831113" version="1" timestamp="2010-09-23T16:10:31Z" uid="344721" user="stumpi80" changeset="5855220" lat="48.1944496" lon="11.6121875">
    <tag k="name" v="Regenbogenkäfer Freimann"/>
    <tag k="amenity" v="kindergarten"/>
  </node>
  <node id="924178713" version="4" timestamp="2010-11-15T13:56:30Z" uid="65148" user="tixuwuoz" changeset="6377564" lat="48.1659531" lon="11.5317877">
    <tag k="addr:postcode" v="80638"/>
    <tag k="addr:country" v="DE"/>
    <tag k="name" v="St. Laurentius Kindergarten"/>
    <tag k="amenity" v="kindergarten"/>
    <tag k="addr:street" v="Hohenlohestraße"/>
    <tag k="addr:city" v="München"/>
    <tag k="addr:housenumber" v="41"/>
  </node>
  <node id="938800696" version="2" timestamp="2011-03-06T11:27:11Z" uid="68974" user="Broky" changeset="7472039" lat="48.1382516" lon="11.5321198">
    <tag k="addr:postcode" v="80339"/>
    <tag k="addr:country" v="DE"/>
    <tag k="name" v="Evangelische Kindertagesstätte Westend"/>
    <tag k="amenity" v="kindergarten"/>
    <tag k="addr:street" v="Schnaderböckstraße"/>
    <tag k="addr:city" v="München"/>
    <tag k="addr:housenumber" v="4"/>
  </node>
  <node id="946424385" version="2" timestamp="2010-10-13T18:23:37Z" uid="70696" user="xybot" changeset="6031870" lat="48.1051984" lon="11.62407">
    <tag k="addr:postcode" v="91737"/>
    <tag k="addr:country" v="DE"/>
    <tag k="name" v="Zauberperlen"/>
    <tag k="amenity" v="kindergarten"/>
    <tag k="addr:street" v="Siegertsbrunner Straße"/>
    <tag k="addr:city" v="München"/>
    <tag k="addr:housenumber" v="4"/>
  </node>
  <node id="957256006" version="4" timestamp="2011-07-13T17:19:13Z" uid="290680" user="wheelmap_visitor" changeset="8713480" lat="48.0758099" lon="11.6090323">
    <tag k="wheelchair" v="no"/>
    <tag k="name" v="Hort"/>
    <tag k="amenity" v="kindergarten"/>
  </node>
  <node id="957261278" version="3" timestamp="2011-10-07T17:18:47Z" uid="290680" user="wheelmap_visitor" changeset="9490517" lat="48.0792135" lon="11.6045451">
    <tag k="wheelchair" v="limited"/>
    <tag k="name" v="Kindergarten Die Arche"/>
    <tag k="amenity" v="kindergarten"/>
    <tag k="addr:street" v="Parkstraße"/>
    <tag k="addr:housenumber" v="9"/>
  </node>
  <node id="961425292" version="2" timestamp="2010-11-11T09:45:59Z" uid="293774" user="Oli-Wan" changeset="6342171" lat="48.1044975" lon="11.7179741">
    <tag k="name" v="Kindertagesstätte"/>
    <tag k="amenity" v="kindergarten"/>
  </node>
  <node id="980331065" version="3" timestamp="2011-03-09T11:26:36Z" uid="68974" user="Broky" changeset="7502959" lat="48.1374669" lon="11.5286543">
    <tag k="name" v="Kindergarten Maria Heimsuchung"/>
    <tag k="amenity" v="kindergarten"/>
  </node>
  <node id="983692120" version="1" timestamp="2010-11-09T21:05:49Z" uid="354821" user="joi" changeset="6331207" lat="48.1389345" lon="11.513163">
    <tag k="amenity" v="kindergarten"/>
  </node>
  <node id="1003901473" version="2" timestamp="2012-01-07T13:54:46Z" uid="301486" user="occam11" changeset="10321229" lat="48.16213" lon="11.5907959">
    <tag k="name" v="Kindergarten an der Heimhauserstraße"/>
    <tag k="amenity" v="kindergarten"/>
  </node>
  <node id="1008177101" version="1" timestamp="2010-11-27T17:08:22Z" uid="8748" user="ToniE" changeset="6471536" lat="48.0636885" lon="11.663245">
    <tag k="website" v="http://www.kitapro.info"/>
    <tag k="name" v="Das Tollhaus"/>
    <tag k="amenity" v="kindergarten"/>
    <tag k="opening_hours" v="Mo,Fr 08:00-12:00; We 18:00-19:30"/>
  </node>
  <node id="1026435513" version="4" timestamp="2011-06-28T10:51:04Z" uid="140599" user="Bratix" changeset="8570388" lat="48.0972146" lon="11.5374643">
    <tag k="name" v="Silizius"/>
    <tag k="amenity" v="kindergarten"/>
  </node>
  <node id="1117152833" version="1" timestamp="2011-01-23T17:16:20Z" uid="72235" user="Basstoelpel" changeset="7064193" lat="48.1973532" lon="11.5094772">
    <tag k="name" v="Naturkindergarten Fasanerie"/>
    <tag k="amenity" v="kindergarten"/>
  </node>
  <node id="1120319483" version="1" timestamp="2011-01-25T20:45:45Z" uid="125136" user="olisi" changeset="7087887" lat="48.2140388" lon="11.4666668">
    <tag k="name" v="Lionkids"/>
    <tag k="amenity" v="kindergarten"/>
  </node>
  <node id="1128117022" version="2" timestamp="2011-01-30T16:37:47Z" uid="381750" user="andreaslrchr" changeset="7136013" lat="48.1818795" lon="11.4945671">
    <tag k="name" v="städt. Kindertagesstätte"/>
    <tag k="leisure" v="playground"/>
    <tag k="amenity" v="kindergarten"/>
    <tag k="addr:street" v="Dillinger Straße"/>
    <tag k="addr:housenumber" v="14"/>
  </node>
  <node id="1128119224" version="1" timestamp="2011-01-30T16:37:46Z" uid="381750" user="andreaslrchr" changeset="7136013" lat="48.1815262" lon="11.4945601">
    <tag k="name" v="städt. Kindertagesstätte"/>
    <tag k="leisure" v="playground"/>
    <tag k="amenity" v="kindergarten"/>
    <tag k="addr:street" v="Dillinger Straße"/>
    <tag k="addr:housenumber" v="15"/>
  </node>
  <node id="1129239149" version="1" timestamp="2011-01-31T08:42:28Z" uid="381750" user="andreaslrchr" changeset="7142794" lat="48.1751053" lon="11.4896464">
    <tag k="name" v="St-Raphael"/>
    <tag k="amenity" v="kindergarten"/>
  </node>
  <node id="1154083165" version="1" timestamp="2011-02-15T07:11:14Z" uid="381750" user="andreaslrchr" changeset="7292281" lat="48.1817414" lon="11.5301245">
    <tag k="name" v="Spielhaus Boomerang"/>
    <tag k="amenity" v="kindergarten"/>
  </node>
  <node id="1179554262" version="2" timestamp="2011-05-23T09:35:14Z" uid="109029" user="shorty_de" changeset="8224570" lat="48.1835904" lon="11.4780068">
    <tag k="addr:postcode" v="80997"/>
    <tag k="addr:country" v="DE"/>
    <tag k="name" v="Kinderkrippe Villa Kunterbunt"/>
    <tag k="amenity" v="kindergarten"/>
    <tag k="addr:street" v="Manzostraße"/>
    <tag k="addr:state" v="Bayern"/>
    <tag k="addr:city" v="München"/>
    <tag k="addr:housenumber" v="37"/>
  </node>
  <node id="1198716465" version="3" timestamp="2011-06-09T16:06:57Z" uid="64164" user="osmkurt" changeset="8389341" lat="48.1302561" lon="11.5999774">
    <tag k="addr:postcode" v="81667"/>
    <tag k="phone" v="+49896887707"/>
    <tag k="wheelchair" v="no"/>
    <tag k="name" v="Tageseltern München und Umgebung e.V."/>
    <tag k="amenity" v="kindergarten"/>
    <tag k="addr:street" v="Wörthstraße"/>
    <tag k="addr:city" v="München"/>
    <tag k="addr:housenumber" v="20"/>
  </node>
  <node id="1201821610" version="1" timestamp="2011-03-14T17:21:52Z" uid="68974" user="Broky" changeset="7558622" lat="48.1351824" lon="11.5332708">
    <tag k="addr:postcode" v="80339"/>
    <tag k="addr:country" v="DE"/>
    <tag k="name" v="Kinderhaus St. Rupert"/>
    <tag k="amenity" v="kindergarten"/>
    <tag k="addr:street" v="Kazmairstraße"/>
    <tag k="addr:city" v="München"/>
    <tag k="addr:housenumber" v="66"/>
  </node>
  <node id="1206500313" version="1" timestamp="2011-03-17T21:43:05Z" uid="423565" user="Aloisius" changeset="7590163" lat="48.1076245" lon="11.5765213">
    <tag k="name" v="Kindergarten St.Helena"/>
    <tag k="amenity" v="kindergarten"/>
  </node>
  <node id="1207767892" version="2" timestamp="2011-03-18T21:54:28Z" uid="290680" user="wheelmap_visitor" changeset="7598401" lat="48.10081" lon="11.54265">
    <tag k="wheelchair" v="limited"/>
    <tag k="name" v="Städtischer Kindergarten"/>
    <tag k="amenity" v="kindergarten"/>
  </node>
  <node id="1224904918" version="2" timestamp="2011-03-30T18:31:22Z" uid="8748" user="ToniE" changeset="7719049" lat="48.1305681" lon="11.6921147">
    <tag k="name" v="Katholischer Kindergarten St. Florian"/>
    <tag k="amenity" v="kindergarten"/>
  </node>
  <node id="1224905219" version="2" timestamp="2011-03-30T18:31:21Z" uid="8748" user="ToniE" changeset="7719049" lat="48.1313547" lon="11.6947647">
    <tag k="name" v="Städtischer Kindergarten"/>
    <tag k="amenity" v="kindergarten"/>
  </node>
  <node id="1224905539" version="2" timestamp="2011-03-30T18:31:21Z" uid="8748" user="ToniE" changeset="7719049" lat="48.1293693" lon="11.6934773">
    <tag k="name" v="Städtischer Kindergarten"/>
    <tag k="amenity" v="kindergarten"/>
  </node>
  <node id="1224905661" version="2" timestamp="2011-03-30T18:31:22Z" uid="8748" user="ToniE" changeset="7719049" lat="48.1292547" lon="11.6895827">
    <tag k="name" v="Städtischer Kindergarten"/>
    <tag k="amenity" v="kindergarten"/>
  </node>
  <node id="1238528219" version="1" timestamp="2011-04-09T12:49:04Z" uid="46472" user="sendelhorst" changeset="7813008" lat="48.125812" lon="11.5383243">
    <tag k="amenity" v="kindergarten"/>
  </node>
  <node id="1239742099" version="2" timestamp="2011-04-10T15:19:55Z" uid="42875" user="burnus" changeset="7823938" lat="48.1759953" lon="11.5683889">
    <tag k="addr:postcode" v="80809"/>
    <tag k="contact:email" v="Kiga-sankt-josef-schwabing@t-online.de"/>
    <tag k="website" v="http://www.kindergarten-sanktjosef.de/"/>
    <tag k="name" v="St Josef"/>
    <tag k="contact:phone" v="+49 89 3009056"/>
    <tag k="amenity" v="kindergarten"/>
    <tag k="addr:street" v="Schleißheimer Straße"/>
    <tag k="addr:city" v="München"/>
    <tag k="addr:housenumber" v="278"/>
  </node>
  <node id="1240332751" version="2" timestamp="2011-07-29T15:52:21Z" uid="64164" user="osmkurt" changeset="8864493" lat="48.1146463" lon="11.5673821">
    <tag k="addr:postcode" v="81543"/>
    <tag k="source" v="survey"/>
    <tag k="website" v="http://www.morimu.de"/>
    <tag k="name" v="Morimu Kinderkrippe"/>
    <tag k="amenity" v="kindergarten"/>
    <tag k="addr:street" v="Agilolfingerstraße"/>
    <tag k="addr:housenumber" v="23"/>
  </node>
  <node id="1246973911" version="2" timestamp="2011-07-17T03:49:17Z" uid="64164" user="osmkurt" changeset="8744179" lat="48.1323417" lon="11.6079872">
    <tag k="name" v="Kindertagesstätte Michael-Huber-Weg"/>
    <tag k="amenity" v="kindergarten"/>
  </node>
  <node id="1266391586" version="2" timestamp="2011-04-30T06:27:42Z" uid="446175" user="schiwi" changeset="8008667" lat="48.1186049" lon="11.6781417">
    <tag k="name" v="Kindergarten"/>
    <tag k="amenity" v="kindergarten"/>
  </node>
  <node id="1286263557" version="1" timestamp="2011-05-15T12:38:25Z" uid="68974" user="Broky" changeset="8151321" lat="48.1380015" lon="11.5389925">
    <tag k="addr:postcode" v="80339"/>
    <tag k="addr:country" v="DE"/>
    <tag k="name" v="LHM/ Kinderkrippe"/>
    <tag k="amenity" v="kindergarten"/>
    <tag k="addr:street" v="Westendstraße"/>
    <tag k="addr:city" v="München"/>
    <tag k="addr:housenumber" v="97"/>
  </node>
  <node id="1313374461" version="1" timestamp="2011-06-05T19:30:14Z" uid="64164" user="osmkurt" changeset="8352633" lat="48.1288787" lon="11.5956709">
    <tag k="website" v="www.haidhauser-zwergerl.de"/>
    <tag k="amenity" v="kindergarten"/>
    <tag k="operator" v="Haidhauser Zwergerl e.V."/>
  </node>
  <node id="1316369688" version="3" timestamp="2011-07-07T13:19:12Z" uid="56526" user="JJ Rammerl" changeset="8656395" lat="48.1311566" lon="11.6666194">
    <tag k="addr:postcode" v="81829"/>
    <tag k="website" v="http://www.kleine-piraten.com/"/>
    <tag k="addr:country" v="DE"/>
    <tag k="name" v="Die kleinen Piraten"/>
    <tag k="amenity" v="kindergarten"/>
    <tag k="addr:street" v="Am Moosfeld"/>
    <tag k="addr:city" v="München"/>
    <tag k="addr:housenumber" v="85"/>
  </node>
  <node id="1321592021" version="2" timestamp="2011-10-16T14:05:34Z" uid="46472" user="sendelhorst" changeset="9572578" lat="48.1216077" lon="11.5458362">
    <tag k="addr:postcode" v="80371"/>
    <tag k="addr:country" v="DE"/>
    <tag k="name" v="wichtlakademie"/>
    <tag k="amenity" v="kindergarten"/>
    <tag k="addr:street" v="Aberlestraße"/>
    <tag k="addr:city" v="München"/>
    <tag k="addr:housenumber" v="11"/>
  </node>
  <node id="1324437900" version="1" timestamp="2011-06-13T23:42:12Z" uid="469939" user="fredero" changeset="8432758" lat="48.2068365" lon="11.568123">
    <tag k="name" v="städt. Hugo Wolf Kindergarten"/>
    <tag k="amenity" v="kindergarten"/>
  </node>
  <node id="1327712928" version="1" timestamp="2011-06-16T16:37:41Z" uid="68974" user="Broky" changeset="8457719" lat="48.1499856" lon="11.543132">
    <tag k="addr:postcode" v="80636"/>
    <tag k="website" v="villakunterbunt-neuhausen.de"/>
    <tag k="addr:country" v="DE"/>
    <tag k="name" v="Villa Kunterbund"/>
    <tag k="amenity" v="kindergarten"/>
    <tag k="addr:street" v="Elvirastraße"/>
    <tag k="addr:city" v="München"/>
    <tag k="addr:housenumber" v="2"/>
  </node>
  <node id="1333893367" version="3" timestamp="2011-09-23T17:21:50Z" uid="290680" user="wheelmap_visitor" changeset="9373820" lat="48.1354818" lon="11.6058125">
    <tag k="wheelchair" v="yes"/>
    <tag k="name" v="Purzelbaum"/>
    <tag k="amenity" v="kindergarten"/>
  </node>
  <node id="1338702173" version="1" timestamp="2011-06-25T18:16:55Z" uid="64164" user="osmkurt" changeset="8544474" lat="48.132636" lon="11.5947239">
    <tag k="name" v="St. Josefsheim"/>
    <tag k="amenity" v="kindergarten"/>
  </node>
  <node id="1342127621" version="1" timestamp="2011-06-28T10:51:04Z" uid="140599" user="Bratix" changeset="8570388" lat="48.0936083" lon="11.5386556">
    <tag k="addr:postcode" v="81379"/>
    <tag k="amenity" v="kindergarten"/>
    <tag k="addr:street" v="Neunkirchner Straße"/>
  </node>
  <node id="1357094794" version="5" timestamp="2011-11-03T00:21:04Z" uid="64164" user="osmkurt" changeset="9726958" lat="48.1337691" lon="11.6065858">
    <tag k="name" v="Städt. Hort + Kindergarten"/>
    <tag k="amenity" v="kindergarten"/>
    <tag k="addr:street" v="Flurstraße"/>
    <tag k="addr:housenumber" v="8"/>
  </node>
  <node id="1361241387" version="1" timestamp="2011-07-14T09:37:05Z" uid="488531" user="dkirumira" changeset="8720198" lat="48.167478" lon="11.5677713">
    <tag k="amenity" v="kindergarten"/>
  </node>
  <node id="1362666040" version="2" timestamp="2011-10-14T20:21:07Z" uid="290680" user="wheelmap_visitor" changeset="9552229" lat="48.1513193" lon="11.5493369">
    <tag k="addr:postcode" v="80335"/>
    <tag k="wheelchair" v="no"/>
    <tag k="website" v="http://www.st-benno-muenchen.de/kindergartenundhort/n_kindergarten.htm"/>
    <tag k="addr:country" v="DE"/>
    <tag k="name" v="St. Benno"/>
    <tag k="amenity" v="kindergarten"/>
    <tag k="addr:street" v="Lothstraße"/>
    <tag k="addr:city" v="München"/>
    <tag k="addr:housenumber" v="16"/>
  </node>
  <node id="1364269370" version="6" timestamp="2011-07-24T03:09:19Z" uid="64164" user="osmkurt" changeset="8811574" lat="48.1303709" lon="11.6127485">
    <tag k="name" v="Kindergarten"/>
    <tag k="amenity" v="kindergarten"/>
  </node>
  <node id="1365334118" version="2" timestamp="2011-07-18T11:47:52Z" uid="482628" user="gumul" changeset="8757540" lat="48.0632846" lon="11.3914296">
    <tag k="name" v="Kindergarten Spielkiste e.V."/>
    <tag k="amenity" v="kindergarten"/>
  </node>
  <node id="1367859892" version="1" timestamp="2011-07-20T13:25:59Z" uid="489164" user="Fotoportal" changeset="8778651" lat="48.1290936" lon="11.6434517">
    <tag k="amenity" v="kindergarten"/>
  </node>
  <node id="1371806191" version="3" timestamp="2011-10-14T20:22:08Z" uid="290680" user="wheelmap_visitor" changeset="9552229" lat="48.1501847" lon="11.6111177">
    <tag k="wheelchair" v="limited"/>
    <tag k="name" v="Kindergarten"/>
    <tag k="amenity" v="kindergarten"/>
  </node>
  <node id="1371808421" version="2" timestamp="2011-07-24T05:42:29Z" uid="64164" user="osmkurt" changeset="8811780" lat="48.1504477" lon="11.6104472">
    <tag k="name" v="Hort"/>
    <tag k="amenity" v="kindergarten"/>
  </node>
  <node id="1374129471" version="3" timestamp="2011-07-25T23:36:13Z" uid="64164" user="osmkurt" changeset="8831301" lat="48.1249548" lon="11.5842449">
    <tag k="name" v="Theresia-Gerhardinger- Kindergarten"/>
    <tag k="amenity" v="kindergarten"/>
    <tag k="operator" v="Arme Schulschwestern von Unserer Lieben Frau"/>
  </node>
  <node id="1376150418" version="1" timestamp="2011-07-27T19:45:03Z" uid="72235" user="Basstoelpel" changeset="8848431" lat="48.1854602" lon="11.5774078">
    <tag k="name" v="Kinderkrippe Fantasia"/>
    <tag k="amenity" v="kindergarten"/>
    <tag k="operator" v="Der Paritätische"/>
  </node>
  <node id="1390999111" version="1" timestamp="2011-08-08T15:35:13Z" uid="262291" user="Andi_Voss" changeset="8958219" lat="48.2212919" lon="11.5905209">
    <tag k="name" v="Ganz schön frech e.V."/>
    <tag k="amenity" v="kindergarten"/>
  </node>
  <node id="1393352255" version="2" timestamp="2011-08-10T07:06:11Z" uid="503836" user="MKEMKE" changeset="8973571" lat="48.1503846" lon="11.728542">
    <tag k="name" v="Hort St. Jakob"/>
    <tag k="amenity" v="kindergarten"/>
  </node>
  <node id="1393383879" version="1" timestamp="2011-08-10T07:10:06Z" uid="503836" user="MKEMKE" changeset="8973571" lat="48.1529431" lon="11.7231613">
    <tag k="name" v="Kindergarten Bienenhaus"/>
    <tag k="amenity" v="kindergarten"/>
  </node>
  <node id="1394178560" version="2" timestamp="2011-11-18T15:47:25Z" uid="13219" user="Pyrokrat" changeset="9865010" lat="48.1111046" lon="11.6753545">
    <tag k="addr:postcode" v="81827"/>
    <tag k="amenity" v="kindergarten"/>
    <tag k="addr:street" v="Felicitas-Füss-Straße"/>
    <tag k="addr:housenumber" v="14"/>
  </node>
  <node id="1404238141" version="1" timestamp="2011-08-19T04:23:53Z" uid="64164" user="osmkurt" changeset="9062213" lat="48.1477284" lon="11.6021108">
    <tag k="name" v="Städt. Kindertagesstätte Neuberghauser Straße"/>
    <tag k="amenity" v="kindergarten"/>
    <tag k="operator" v="LH München"/>
  </node>
  <node id="1405087467" version="1" timestamp="2011-08-20T00:21:45Z" uid="64164" user="osmkurt" changeset="9069895" lat="48.1472691" lon="11.6015162">
    <tag k="name" v="Bilingualer Kindergarten PhorMinis"/>
    <tag k="amenity" v="kindergarten"/>
    <tag k="operator" v="Phorms Bavaria gGmbH"/>
  </node>
  <node id="1431726860" version="1" timestamp="2011-09-13T09:44:06Z" uid="495268" user="WLG" changeset="9287983" lat="48.1537773" lon="11.5852715">
    <tag k="addr:postcode" v="80802"/>
    <tag k="wheelchair" v="no"/>
    <tag k="wheelchair:description" v="Stufe deutlich höher als 7 cm"/>
    <tag k="name" v="Kindergarten u. Vorschule"/>
    <tag k="amenity" v="kindergarten"/>
    <tag k="addr:street" v="Ohmstraße"/>
    <tag k="addr:city" v="München"/>
  </node>
  <node id="1436866486" version="2" timestamp="2012-01-09T02:20:19Z" uid="64164" user="osmkurt" changeset="10338604" lat="48.2097677" lon="11.568169">
    <tag k="name" v="Kinderkrippe Neuherbergstraße"/>
    <tag k="amenity" v="kindergarten"/>
    <tag k="operator" v="Stadt München"/>
  </node>
  <node id="1437726398" version="2" timestamp="2011-09-19T23:21:38Z" uid="461328" user="Gogul" changeset="9347550" lat="48.2147221" lon="11.5325412">
    <tag k="addr:postcode" v="80995"/>
    <tag k="name" v="Kindergarten St. Josef"/>
    <tag k="amenity" v="kindergarten"/>
    <tag k="addr:street" v="Josef-Zintl-Straße"/>
    <tag k="addr:housenumber" v="33"/>
  </node>
  <node id="1444975905" version="2" timestamp="2012-01-04T13:01:50Z" uid="70696" user="xybot" changeset="10290040" lat="48.1486119" lon="11.6456172">
    <tag k="name" v="Städtische Kinderkrippe Posener Straße 2"/>
    <tag k="amenity" v="kindergarten"/>
    <tag k="addr:street" v="Posener Straße"/>
    <tag k="addr:housenumber" v="2"/>
  </node>
  <node id="1446216971" version="1" timestamp="2011-09-26T12:50:30Z" uid="168932" user="pappou" changeset="9401828" lat="48.1069568" lon="11.534373">
    <tag k="addr:postcode" v="81369"/>
    <tag k="phone" v="+49 89 876037"/>
    <tag k="fax" v="+49 89 54877326"/>
    <tag k="website" v="www.kinderkrippe-liberi.de"/>
    <tag k="email" v="info@kinderkrippe-liberi.de"/>
    <tag k="addr:country" v="DE"/>
    <tag k="name" v="Kinderkrippe Liberi"/>
    <tag k="amenity" v="kindergarten"/>
    <tag k="addr:street" v="Sonnenlängstraße"/>
    <tag k="addr:city" v="München"/>
    <tag k="addr:housenumber" v="2"/>
  </node>
  <node id="1449511584" version="1" timestamp="2011-09-30T12:47:18Z" uid="529891" user="Sandweg" changeset="9434951" lat="48.1874791" lon="11.5870252">
    <tag k="name" v="Mini-Timmi-Kindergarten"/>
    <tag k="amenity" v="kindergarten"/>
  </node>
  <node id="1484895090" version="1" timestamp="2011-10-29T18:05:15Z" uid="72235" user="Basstoelpel" changeset="9687050" lat="48.2230177" lon="11.5632555">
    <tag k="name" v="KITA Thelottstraße"/>
    <tag k="amenity" v="kindergarten"/>
    <tag k="addr:street" v="Thelottstraße"/>
    <tag k="addr:housenumber" v="18"/>
  </node>
  <node id="1484921278" version="1" timestamp="2011-10-29T18:39:47Z" uid="316238" user="brunos" changeset="9687346" lat="48.0859088" lon="11.4485941">
    <tag k="name" v="Waldkindergarten"/>
    <tag k="amenity" v="kindergarten"/>
  </node>
  <node id="1486076315" version="2" timestamp="2011-10-31T18:34:07Z" uid="70696" user="xybot" changeset="9706309" lat="48.2094253" lon="11.4503277">
    <tag k="addr:postcode" v="85757"/>
    <tag k="name" v="Sonnenschein"/>
    <tag k="amenity" v="kindergarten"/>
    <tag k="addr:housename" v="Sonnenschein"/>
    <tag k="addr:street" v="Lärchenweg"/>
    <tag k="addr:housenumber" v="1"/>
  </node>
  <node id="1487064642" version="2" timestamp="2012-01-06T23:15:01Z" uid="13354" user="ivl1705" changeset="10316936" lat="48.1780303" lon="11.5980792">
    <tag k="addr:postcode" v="80805"/>
    <tag k="addr:country" v="DE"/>
    <tag k="name" v="Städtischer Kindergarten"/>
    <tag k="amenity" v="kindergarten"/>
    <tag k="addr:street" v="Alte Heide"/>
    <tag k="addr:state" v="Bayern"/>
    <tag k="addr:city" v="München"/>
    <tag k="addr:housenumber" v="3"/>
  </node>
  <node id="1487523616" version="1" timestamp="2011-10-31T17:04:59Z" uid="44395" user="route662" changeset="9705347" lat="48.177281" lon="11.5962585">
    <tag k="name" v="Städtische Kindertageseinrichtung"/>
    <tag k="amenity" v="kindergarten"/>
    <tag k="addr:street" v="Fröttmaninger Straße"/>
    <tag k="addr:housenumber" v="19"/>
  </node>
  <node id="1501199732" version="1" timestamp="2011-11-13T10:54:28Z" uid="8703" user="rolandg" changeset="9812291" lat="48.1131263" lon="11.5324468">
    <tag k="website" v="http://www.isarkids.de/muenchen/"/>
    <tag k="name" v="Isarkids Kinderkrippe &quot;J30&quot;"/>
    <tag k="amenity" v="kindergarten"/>
  </node>
  <node id="1501271608" version="1" timestamp="2011-11-13T11:55:59Z" uid="8703" user="rolandg" changeset="9812291" lat="48.1118283" lon="11.5284245">
    <tag k="name" v="Städt. Kindertagesstätte Arnimstraße"/>
    <tag k="amenity" v="kindergarten"/>
  </node>
  <node id="1509885810" version="2" timestamp="2012-01-06T23:14:56Z" uid="13354" user="ivl1705" changeset="10316936" lat="48.1805838" lon="11.5984178">
    <tag k="addr:postcode" v="80807"/>
    <tag k="addr:country" v="DE"/>
    <tag k="name" v="Kindergarten Allerheiligen"/>
    <tag k="amenity" v="kindergarten"/>
    <tag k="addr:street" v="Marchgrabenweg"/>
    <tag k="addr:state" v="Bayern"/>
    <tag k="addr:city" v="München"/>
    <tag k="addr:housenumber" v="3"/>
  </node>
  <node id="1534539193" version="2" timestamp="2011-12-06T21:03:59Z" uid="403382" user="Voice01" changeset="10053612" lat="48.1260416" lon="11.5502885">
    <tag k="addr:postcode" v="80336"/>
    <tag k="wheelchair" v="no"/>
    <tag k="wheelchair:description" v="Acht Treppenstufen zum integrativen Kindergarten. In der Einrichtung auch keinerlei Barrierefreiheit"/>
    <tag k="name" v="Montessori Kindergarten Güllstraße e.V."/>
    <tag k="amenity" v="kindergarten"/>
    <tag k="addr:street" v="Güllstraße"/>
    <tag k="addr:housenumber" v="3"/>
  </node>
  <node id="1538016013" version="1" timestamp="2011-12-09T11:25:53Z" uid="107899" user="Ossi58" changeset="10072289" lat="48.1581513" lon="11.5104945">
    <tag k="amenity" v="kindergarten"/>
  </node>
  <node id="1538017365" version="1" timestamp="2011-12-09T11:27:08Z" uid="107899" user="Ossi58" changeset="10072289" lat="48.1529443" lon="11.5165617">
    <tag k="amenity" v="kindergarten"/>
  </node>
  <node id="1539338795" version="2" timestamp="2011-12-11T12:02:26Z" uid="137116" user="Tiyzery" changeset="10088789" lat="48.1069196" lon="11.4763891">
    <tag k="amenity" v="kindergarten"/>
  </node>
  <node id="1572761130" version="1" timestamp="2012-01-01T15:25:42Z" uid="72235" user="Basstoelpel" changeset="10262229" lat="48.1917435" lon="11.5520658">
    <tag k="name" v="Babywatch"/>
    <tag k="amenity" v="kindergarten"/>
  </node>
  <node id="1575007128" version="1" timestamp="2012-01-03T03:03:18Z" uid="64164" user="osmkurt" changeset="10278101" lat="48.1164038" lon="11.5654056">
    <tag k="name" v="Kinderkrippe Teutoburger Straße"/>
    <tag k="amenity" v="kindergarten"/>
    <tag k="operator" v="Stadt München"/>
  </node>
  <node id="1576529477" version="2" timestamp="2012-01-04T10:17:35Z" uid="64164" user="osmkurt" changeset="10289318" lat="48.1332047" lon="11.5725534">
    <tag k="name" v="Theresia-Gerhardinger-Kindergarten am Anger"/>
    <tag k="amenity" v="kindergarten"/>
    <tag k="operator" v="Arme Schulschwestern von Unserer Lieben Frau"/>
  </node>
  <node id="1576877481" version="1" timestamp="2012-01-04T15:16:13Z" uid="64164" user="osmkurt" changeset="10291456" lat="48.1318921" lon="11.5772763">
    <tag k="amenity" v="kindergarten"/>
    <tag k="operator" v="Stadt München"/>
  </node>
  <node id="1578140843" version="1" timestamp="2012-01-05T13:33:29Z" uid="289251" user="SAS6667" changeset="10300881" lat="48.1345106" lon="11.6551902">
    <tag k="amenity" v="kindergarten"/>
  </node>
  <node id="1578839747" version="2" timestamp="2012-01-06T00:34:20Z" uid="64164" user="osmkurt" changeset="10307135" lat="48.2035291" lon="11.6160939">
    <tag k="addr:postcode" v="80939"/>
    <tag k="name" v="Hort Burmesterstraße 17-19"/>
    <tag k="amenity" v="kindergarten"/>
    <tag k="addr:street" v="Burmesterstraße"/>
    <tag k="addr:housenumber" v="19"/>
  </node>
  <node id="1579890077" version="1" timestamp="2012-01-06T19:24:31Z" uid="580874" user="PAule666" changeset="10314808" lat="48.1085389" lon="11.6381485">
    <tag k="name" v="Kindergarten St. Jacobus"/>
    <tag k="amenity" v="kindergarten"/>
  </node>
  <node id="1583439750" version="1" timestamp="2012-01-09T02:34:47Z" uid="64164" user="osmkurt" changeset="10338604" lat="48.2102381" lon="11.5704241">
    <tag k="name" v="Tagesheim Hildegard-von-Bingen-Anger 4 an der Grundschule"/>
    <tag k="amenity" v="kindergarten"/>
    <tag k="operator" v="Stadt München"/>
  </node>
  <node id="1583450863" version="2" timestamp="2012-01-09T03:11:21Z" uid="64164" user="osmkurt" changeset="10338699" lat="48.2123827" lon="11.5694316">
    <tag k="name" v="Kita Hildegard-von-Bingen-Anger 26"/>
    <tag k="amenity" v="kindergarten"/>
  </node>
  <node id="1583450879" version="2" timestamp="2012-01-09T03:13:55Z" uid="64164" user="osmkurt" changeset="10338699" lat="48.2130817" lon="11.5654056">
    <tag k="name" v="Kindertagesstätte Felsennelkenanger"/>
    <tag k="amenity" v="kindergarten"/>
    <tag k="operator" v="Diakonie"/>
  </node>
</osm>
