<?xml version='1.0' encoding='UTF-8'?>
<osm version="0.6" generator="Osmosis SNAPSHOT-r26564">
  <node id="280291126" version="4" timestamp="2011-11-11T07:54:33Z" uid="290680" user="wheelmap_visitor" changeset="9794046" lat="50.3563635" lon="7.5934943">
    <tag k="addr:postcode" v="56068"/>
    <tag k="dispensing" v="yes"/>
    <tag k="wheelchair" v="limited"/>
    <tag k="addr:country" v="DE"/>
    <tag k="name" v="Rheinland Apotheke"/>
    <tag k="amenity" v="pharmacy"/>
    <tag k="addr:street" v="Stegemannstraße"/>
    <tag k="addr:city" v="Koblenz"/>
    <tag k="addr:housenumber" v="33"/>
  </node>
  <node id="292971989" version="5" timestamp="2011-04-01T15:19:49Z" uid="290680" user="wheelmap_visitor" changeset="7736031" lat="50.3570021" lon="7.5937209">
    <tag k="addr:postcode" v="56068"/>
    <tag k="shop" v="pharmacy"/>
    <tag k="dispensing" v="yes"/>
    <tag k="wheelchair" v="yes"/>
    <tag k="addr:country" v="DE"/>
    <tag k="name" v="Cosmos Apotheke"/>
    <tag k="amenity" v="pharmacy"/>
    <tag k="addr:street" v="Schloßstraße"/>
    <tag k="addr:city" v="Koblenz"/>
    <tag k="addr:housenumber" v="38"/>
  </node>
  <node id="292971990" version="3" timestamp="2011-04-01T15:18:47Z" uid="290680" user="wheelmap_visitor" changeset="7736031" lat="50.3564512" lon="7.5964726">
    <tag k="addr:postcode" v="56068"/>
    <tag k="shop" v="pharmacy"/>
    <tag k="dispensing" v="yes"/>
    <tag k="wheelchair" v="yes"/>
    <tag k="addr:country" v="DE"/>
    <tag k="name" v="Schloß Apotheke‎"/>
    <tag k="amenity" v="pharmacy"/>
    <tag k="addr:street" v="Schloßstraße"/>
    <tag k="addr:city" v="Koblenz"/>
    <tag k="addr:housenumber" v="17"/>
  </node>
  <node id="292971991" version="3" timestamp="2011-10-03T20:58:56Z" uid="290680" user="wheelmap_visitor" changeset="9456721" lat="50.3585284" lon="7.5944447">
    <tag k="addr:postcode" v="56068"/>
    <tag k="dispensing" v="no"/>
    <tag k="wheelchair" v="yes"/>
    <tag k="addr:country" v="DE"/>
    <tag k="name" v="DocMorris"/>
    <tag k="amenity" v="pharmacy"/>
    <tag k="addr:street" v="Altlöhrtor"/>
    <tag k="addr:city" v="Koblenz"/>
    <tag k="addr:housenumber" v="17"/>
  </node>
  <node id="301319503" version="5" timestamp="2011-09-27T12:08:22Z" uid="520297" user="Cpt Hornblower" changeset="9410139" lat="50.3690182" lon="7.5618488">
    <tag k="addr:postcode" v="56072"/>
    <tag k="wheelchair" v="yes"/>
    <tag k="addr:country" v="DE"/>
    <tag k="name" v="Eulen Apotheke"/>
    <tag k="amenity" v="pharmacy"/>
    <tag k="addr:street" v="Rübenacher Straße"/>
    <tag k="addr:city" v="Koblenz"/>
    <tag k="addr:housenumber" v="32"/>
  </node>
  <node id="303231997" version="7" timestamp="2011-07-11T21:42:39Z" uid="114405" user="Pajopath" changeset="8698184" lat="50.3505434" lon="7.5926767">
    <tag k="addr:postcode" v="56068"/>
    <tag k="addr:country" v="DE"/>
    <tag k="name" v="Rondell Apotheke"/>
    <tag k="amenity" v="pharmacy"/>
    <tag k="addr:street" v="Markenbildchenweg"/>
    <tag k="addr:city" v="Koblenz"/>
    <tag k="addr:housenumber" v="30"/>
  </node>
  <node id="303231999" version="4" timestamp="2011-10-07T17:45:41Z" uid="290680" user="wheelmap_visitor" changeset="9490517" lat="50.3485605" lon="7.5902962">
    <tag k="addr:postcode" v="56068"/>
    <tag k="wheelchair" v="limited"/>
    <tag k="addr:country" v="DE"/>
    <tag k="name" v="Sonnenscheinapotheke"/>
    <tag k="amenity" v="pharmacy"/>
    <tag k="addr:street" v="Neversstraße"/>
    <tag k="addr:city" v="Koblenz"/>
    <tag k="addr:housenumber" v="5"/>
  </node>
  <node id="310082158" version="2" timestamp="2008-11-11T12:01:30Z" uid="64783" user="DAIMO" changeset="735848" lat="50.388104" lon="7.4988015">
    <tag k="dispensing" v="no"/>
    <tag k="name" v="Mauritius"/>
    <tag k="amenity" v="pharmacy"/>
  </node>
  <node id="311049318" version="5" timestamp="2011-03-24T13:18:51Z" uid="267745" user="kletterpitter" changeset="7655792" lat="50.3869743" lon="7.4982614">
    <tag k="dispensing" v="no"/>
    <tag k="name" v="Rathaus"/>
    <tag k="amenity" v="pharmacy"/>
  </node>
  <node id="311073796" version="3" timestamp="2010-07-21T08:20:10Z" uid="322106" user="LongJohnSilver" changeset="5276857" lat="50.388558" lon="7.4950366">
    <tag k="dispensing" v="no"/>
    <tag k="name" v="Kurfürsten"/>
    <tag k="amenity" v="pharmacy"/>
  </node>
  <node id="320563855" version="5" timestamp="2010-04-15T15:30:41Z" uid="70696" user="xybot" changeset="4431179" lat="50.312496" lon="7.5192156">
    <tag k="addr:postcode" v="56333"/>
    <tag k="phone" v="+4926062224"/>
    <tag k="dispensing" v="yes"/>
    <tag k="name" v="Schlickum Apotheke"/>
    <tag k="amenity" v="pharmacy"/>
    <tag k="addr:street" v="Osterstraße"/>
    <tag k="addr:city" v="Winningen"/>
    <tag k="addr:housenumber" v="2"/>
  </node>
  <node id="347536551" version="1" timestamp="2009-02-19T13:17:00Z" uid="32156" user="mountnMaps" changeset="561140" lat="50.4000205" lon="7.6153364">
    <tag k="dispensing" v="yes"/>
    <tag k="name" v="Alte Apotheke"/>
    <tag k="amenity" v="pharmacy"/>
  </node>
  <node id="375808418" version="2" timestamp="2010-12-18T14:52:40Z" uid="44217" user="kjon" changeset="6696467" lat="50.3813674" lon="7.5773259">
    <tag k="dispensing" v="no"/>
    <tag k="name" v="Dr. Schlags Apotheke im E-Center"/>
    <tag k="amenity" v="pharmacy"/>
  </node>
  <node id="400709350" version="2" timestamp="2009-08-20T17:42:18Z" uid="44217" user="kjon" changeset="2214342" lat="50.3288406" lon="7.5973096">
    <tag k="addr:postcode" v="56076"/>
    <tag k="addr:country" v="DE"/>
    <tag k="name" v="Apotheke Am Römerplatz"/>
    <tag k="amenity" v="pharmacy"/>
    <tag k="addr:street" v="Emser Straße"/>
    <tag k="addr:city" v="Koblenz"/>
    <tag k="addr:housenumber" v="339"/>
  </node>
  <node id="408457670" version="3" timestamp="2009-11-21T11:46:49Z" uid="121271" user="migath" changeset="3175199" lat="50.3517488" lon="7.5895163">
    <tag k="addr:postcode" v="56068"/>
    <tag k="dispensing" v="yes"/>
    <tag k="addr:country" v="DE"/>
    <tag k="name" v="Rosen Apotheke"/>
    <tag k="amenity" v="pharmacy"/>
    <tag k="addr:street" v="Löhrstraße"/>
    <tag k="addr:city" v="Koblenz"/>
    <tag k="addr:housenumber" v="139"/>
  </node>
  <node id="408457673" version="6" timestamp="2011-10-05T22:25:46Z" uid="290680" user="wheelmap_visitor" changeset="9474855" lat="50.3561226" lon="7.5910498">
    <tag k="addr:postcode" v="56068"/>
    <tag k="dispensing" v="yes"/>
    <tag k="wheelchair" v="limited"/>
    <tag k="addr:country" v="DE"/>
    <tag k="name" v="Apotheke am Ring"/>
    <tag k="amenity" v="pharmacy"/>
    <tag k="addr:street" v="Löhrstraße"/>
    <tag k="addr:city" v="Koblenz"/>
    <tag k="addr:housenumber" v="74"/>
  </node>
  <node id="408479884" version="3" timestamp="2011-11-03T16:03:33Z" uid="290680" user="wheelmap_visitor" changeset="9727851" lat="50.3601109" lon="7.5954489">
    <tag k="addr:postcode" v="56068"/>
    <tag k="dispensing" v="yes"/>
    <tag k="wheelchair" v="limited"/>
    <tag k="addr:country" v="DE"/>
    <tag k="name" v="Hirsch-Apotheke"/>
    <tag k="amenity" v="pharmacy"/>
    <tag k="addr:street" v="Am Plan"/>
    <tag k="addr:city" v="Koblenz"/>
    <tag k="addr:housenumber" v="24"/>
  </node>
  <node id="408479885" version="3" timestamp="2009-09-01T17:45:48Z" uid="44217" user="kjon" changeset="2339767" lat="50.3607844" lon="7.5983242">
    <tag k="addr:postcode" v="56068"/>
    <tag k="dispensing" v="yes"/>
    <tag k="addr:country" v="DE"/>
    <tag k="name" v="Apotheke am Jesuitenplatz"/>
    <tag k="amenity" v="pharmacy"/>
    <tag k="addr:street" v="Firmungstraße"/>
    <tag k="addr:city" v="Koblenz"/>
    <tag k="addr:housenumber" v="36"/>
  </node>
  <node id="408485688" version="5" timestamp="2011-10-10T14:45:28Z" uid="290680" user="wheelmap_visitor" changeset="9518514" lat="50.3554583" lon="7.5939561">
    <tag k="addr:postcode" v="56068"/>
    <tag k="dispensing" v="yes"/>
    <tag k="wheelchair" v="yes"/>
    <tag k="addr:country" v="DE"/>
    <tag k="name" v="Löwen-Apotheke"/>
    <tag k="amenity" v="pharmacy"/>
    <tag k="addr:street" v="Friedrich-Ebert-Ring"/>
    <tag k="addr:city" v="Koblenz"/>
    <tag k="addr:housenumber" v="36"/>
  </node>
  <node id="441593550" version="3" timestamp="2009-07-15T17:54:18Z" uid="145034" user="mbohnen" changeset="1837955" lat="50.3671162" lon="7.5972478">
    <tag k="name" v="Antonius Apotheke"/>
    <tag k="amenity" v="pharmacy"/>
  </node>
  <node id="471560949" version="2" timestamp="2010-04-14T12:04:03Z" uid="43447" user="astersteiner" changeset="4421936" lat="50.3463908" lon="7.6197482">
    <tag k="addr:postcode" v="56077"/>
    <tag k="addr:country" v="DE"/>
    <tag k="name" v="Asterstein Apotheke"/>
    <tag k="amenity" v="pharmacy"/>
    <tag k="addr:street" v="Fritz-von-Unruh-Straße"/>
    <tag k="addr:city" v="Koblenz"/>
    <tag k="addr:housenumber" v="1"/>
  </node>
  <node id="480222470" version="4" timestamp="2010-05-18T21:03:49Z" uid="44217" user="kjon" changeset="4743011" lat="50.3604" lon="7.5939222">
    <tag k="dispensing" v="yes"/>
    <tag k="name" v="Einhorn Apotheke"/>
    <tag k="amenity" v="pharmacy"/>
    <tag k="addr:street" v="Löhrstraße"/>
    <tag k="addr:housenumber" v="2"/>
  </node>
  <node id="480243644" version="2" timestamp="2011-04-01T15:23:00Z" uid="290680" user="wheelmap_visitor" changeset="7736031" lat="50.3580082" lon="7.5922989">
    <tag k="addr:postcode" v="56068"/>
    <tag k="shop" v="pharmacy"/>
    <tag k="wheelchair" v="yes"/>
    <tag k="addr:country" v="DE"/>
    <tag k="name" v="Görres Apotheke"/>
    <tag k="amenity" v="pharmacy"/>
    <tag k="addr:street" v="Löhrstraße"/>
    <tag k="addr:city" v="Koblenz"/>
    <tag k="addr:housenumber" v="66"/>
  </node>
  <node id="480243704" version="5" timestamp="2010-12-16T15:02:37Z" uid="363904" user="maltejohannson" changeset="6677537" lat="50.3547734" lon="7.5903687">
    <tag k="addr:postcode" v="56068"/>
    <tag k="addr:country" v="DE"/>
    <tag k="name" v="Rhein-Mosel-Apotheke"/>
    <tag k="amenity" v="pharmacy"/>
    <tag k="addr:street" v="Löhrstraße"/>
    <tag k="addr:city" v="Koblenz"/>
    <tag k="addr:housenumber" v="99"/>
  </node>
  <node id="480256460" version="3" timestamp="2011-10-07T09:26:45Z" uid="290680" user="wheelmap_visitor" changeset="9490517" lat="50.3529418" lon="7.5909647">
    <tag k="addr:postcode" v="56068"/>
    <tag k="wheelchair" v="yes"/>
    <tag k="addr:country" v="DE"/>
    <tag k="name" v="Regenbogen Apotheke"/>
    <tag k="amenity" v="pharmacy"/>
    <tag k="addr:street" v="Bahnhofstraße"/>
    <tag k="addr:city" v="Koblenz"/>
    <tag k="addr:housenumber" v="37"/>
  </node>
  <node id="480272005" version="2" timestamp="2011-10-07T17:45:40Z" uid="290680" user="wheelmap_visitor" changeset="9490517" lat="50.3505275" lon="7.590917">
    <tag k="addr:postcode" v="56068"/>
    <tag k="wheelchair" v="limited"/>
    <tag k="addr:country" v="DE"/>
    <tag k="name" v="Medico Apotheke"/>
    <tag k="amenity" v="pharmacy"/>
    <tag k="addr:street" v="Bahnhofplatz"/>
    <tag k="addr:city" v="Koblenz"/>
    <tag k="addr:housenumber" v="66"/>
  </node>
  <node id="480272039" version="3" timestamp="2011-10-07T17:48:46Z" uid="290680" user="wheelmap_visitor" changeset="9490517" lat="50.3498922" lon="7.5960068">
    <tag k="addr:postcode" v="56068"/>
    <tag k="wheelchair" v="yes"/>
    <tag k="addr:country" v="DE"/>
    <tag k="name" v="Markenbildchen Apotheke"/>
    <tag k="amenity" v="pharmacy"/>
    <tag k="addr:street" v="Markenbildchenweg"/>
    <tag k="addr:city" v="Koblenz"/>
    <tag k="addr:housenumber" v="6"/>
  </node>
  <node id="480272074" version="1" timestamp="2009-09-01T18:11:06Z" uid="44217" user="kjon" changeset="2339767" lat="50.3460145" lon="7.5890116">
    <tag k="addr:postcode" v="56068"/>
    <tag k="addr:country" v="DE"/>
    <tag k="name" v="Rheingold Apotheke"/>
    <tag k="amenity" v="pharmacy"/>
    <tag k="addr:street" v="Hohenzollernstraße"/>
    <tag k="addr:city" v="Koblenz"/>
    <tag k="addr:housenumber" v="98"/>
  </node>
  <node id="480272087" version="1" timestamp="2009-09-01T18:11:06Z" uid="44217" user="kjon" changeset="2339767" lat="50.3453955" lon="7.5890545">
    <tag k="addr:postcode" v="56068"/>
    <tag k="addr:country" v="DE"/>
    <tag k="name" v="Süd Apotheke"/>
    <tag k="amenity" v="pharmacy"/>
    <tag k="addr:street" v="Hohenzollernstraße"/>
    <tag k="addr:city" v="Koblenz"/>
    <tag k="addr:housenumber" v="107"/>
  </node>
  <node id="480284586" version="1" timestamp="2009-09-01T18:22:10Z" uid="44217" user="kjon" changeset="2340236" lat="50.3605375" lon="7.5818174">
    <tag k="addr:postcode" v="56073"/>
    <tag k="addr:country" v="DE"/>
    <tag k="name" v="Rauental Apotheke"/>
    <tag k="amenity" v="pharmacy"/>
    <tag k="addr:street" v="Moselweißer Straße"/>
    <tag k="addr:city" v="Koblenz"/>
    <tag k="addr:housenumber" v="40"/>
  </node>
  <node id="480284591" version="2" timestamp="2010-02-22T21:22:49Z" uid="44217" user="kjon" changeset="3947584" lat="50.3609981" lon="7.5833154">
    <tag k="dispensing" v="yes"/>
    <tag k="website" v="www.moselweiss-apotheke.de"/>
    <tag k="name" v="Moselweiß Apotheke"/>
    <tag k="amenity" v="pharmacy"/>
    <tag k="addr:street" v="Moselweißer Straße"/>
    <tag k="addr:city" v="Koblenz"/>
    <tag k="addr:housenumber" v="29"/>
  </node>
  <node id="480284597" version="3" timestamp="2011-06-30T13:26:45Z" uid="178113" user="KO-TG" changeset="8590683" lat="50.3565972" lon="7.5706136">
    <tag k="addr:postcode" v="56073"/>
    <tag k="addr:country" v="DE"/>
    <tag k="name" v="Sauerbruch Apotheke"/>
    <tag k="amenity" v="pharmacy"/>
    <tag k="addr:street" v="Ferdinand-Sauerbruch-Straße"/>
    <tag k="addr:city" v="Koblenz"/>
    <tag k="addr:housenumber" v="31"/>
  </node>
  <node id="480285522" version="1" timestamp="2009-09-01T18:23:45Z" uid="44217" user="kjon" changeset="2340236" lat="50.3541306" lon="7.5830705">
    <tag k="addr:postcode" v="56073"/>
    <tag k="addr:country" v="DE"/>
    <tag k="name" v="Apotheke in der Goldgrube"/>
    <tag k="amenity" v="pharmacy"/>
    <tag k="addr:street" v="Lindenstraße"/>
    <tag k="addr:city" v="Koblenz"/>
    <tag k="addr:housenumber" v="28"/>
  </node>
  <node id="480287673" version="2" timestamp="2011-06-15T06:44:42Z" uid="290680" user="wheelmap_visitor" changeset="8444297" lat="50.3538185" lon="7.5629604">
    <tag k="wheelchair" v="yes"/>
    <tag k="name" v="Laurentius Apotheke"/>
    <tag k="amenity" v="pharmacy"/>
    <tag k="addr:street" v="Koblenzer Straße"/>
    <tag k="addr:city" v="Koblenz"/>
  </node>
  <node id="480287676" version="2" timestamp="2011-11-05T22:35:05Z" uid="290680" user="wheelmap_visitor" changeset="9744488" lat="50.3653558" lon="7.5529868">
    <tag k="addr:postcode" v="56072"/>
    <tag k="wheelchair" v="yes"/>
    <tag k="addr:country" v="DE"/>
    <tag k="name" v="Fontane Apotheke"/>
    <tag k="amenity" v="pharmacy"/>
    <tag k="addr:street" v="Kemmertstraße"/>
    <tag k="addr:city" v="Koblenz"/>
    <tag k="addr:housenumber" v="1"/>
  </node>
  <node id="480288355" version="2" timestamp="2011-10-10T14:49:32Z" uid="290680" user="wheelmap_visitor" changeset="9518514" lat="50.3439798" lon="7.5482327">
    <tag k="addr:postcode" v="56072"/>
    <tag k="wheelchair" v="yes"/>
    <tag k="addr:country" v="DE"/>
    <tag k="name" v="Servatius Apotheke"/>
    <tag k="amenity" v="pharmacy"/>
    <tag k="addr:street" v="Planstraße"/>
    <tag k="addr:city" v="Koblenz-Güls"/>
    <tag k="addr:housenumber" v="4"/>
  </node>
  <node id="494458789" version="2" timestamp="2011-10-19T19:31:59Z" uid="290680" user="wheelmap_visitor" changeset="9596105" lat="50.3952629" lon="7.5300326">
    <tag k="dispensing" v="yes"/>
    <tag k="wheelchair" v="yes"/>
    <tag k="amenity" v="pharmacy"/>
  </node>
  <node id="518122844" version="2" timestamp="2009-10-10T20:28:25Z" uid="178444" user="wrifka" changeset="2807657" lat="50.3672609" lon="7.6508311">
    <tag k="addr:postcode" v="56077"/>
    <tag k="dispensing" v="no"/>
    <tag k="addr:country" v="DE"/>
    <tag k="name" v="Sonnen-Apotheke"/>
    <tag k="amenity" v="pharmacy"/>
    <tag k="addr:street" v="Pfarrer-Kraus-Straße"/>
    <tag k="addr:city" v="Koblenz"/>
    <tag k="addr:housenumber" v="100"/>
  </node>
  <node id="534425066" version="1" timestamp="2009-10-17T20:34:02Z" uid="178444" user="wrifka" changeset="2877552" lat="50.3606295" lon="7.6112741">
    <tag k="addr:postcode" v="56077"/>
    <tag k="dispensing" v="no"/>
    <tag k="addr:country" v="DE"/>
    <tag k="name" v="Festung Apotheke"/>
    <tag k="amenity" v="pharmacy"/>
    <tag k="addr:street" v="Charlottenstraße"/>
    <tag k="addr:city" v="Koblenz"/>
    <tag k="addr:housenumber" v="25"/>
  </node>
  <node id="566756345" version="1" timestamp="2009-11-18T21:16:16Z" uid="178444" user="wrifka" changeset="3154957" lat="50.3708052" lon="7.6287299">
    <tag k="addr:postcode" v="56077"/>
    <tag k="dispensing" v="yes"/>
    <tag k="addr:country" v="DE"/>
    <tag k="name" v="Niederberg Apotheke"/>
    <tag k="amenity" v="pharmacy"/>
    <tag k="addr:street" v="Arenberger Straße"/>
    <tag k="addr:city" v="Koblenz"/>
    <tag k="addr:housenumber" v="144"/>
  </node>
  <node id="575943145" version="5" timestamp="2011-10-08T19:35:20Z" uid="290680" user="wheelmap_visitor" changeset="9499106" lat="50.3022542" lon="7.6058143">
    <tag k="wheelchair" v="yes"/>
    <tag k="name" v="Victoria Apotheke"/>
    <tag k="amenity" v="pharmacy"/>
    <tag k="addr:street" v="Adolfstraße"/>
    <tag k="addr:housenumber" v="35"/>
  </node>
  <node id="786043054" version="2" timestamp="2011-10-08T19:37:15Z" uid="290680" user="wheelmap_visitor" changeset="9499106" lat="50.3071066" lon="7.6043372">
    <tag k="wheelchair" v="yes"/>
    <tag k="name" v="Lahn Apotheke"/>
    <tag k="amenity" v="pharmacy"/>
  </node>
  <node id="853401607" version="1" timestamp="2010-08-10T17:30:38Z" uid="307637" user="Oase-paul" changeset="5455932" lat="50.409525" lon="7.6947498">
    <tag k="amenity" v="pharmacy"/>
  </node>
  <node id="903915210" version="1" timestamp="2010-09-09T09:56:30Z" uid="191633" user="Der Schnerv" changeset="5731188" lat="50.2839929" lon="7.6158059">
    <tag k="name" v="Adler-Apotheke"/>
    <tag k="amenity" v="pharmacy"/>
  </node>
  <node id="1270223381" version="3" timestamp="2012-01-02T15:37:05Z" uid="70696" user="xybot" changeset="10271761" lat="50.3994209" lon="7.6147461">
    <tag k="addr:postcode" v="56179"/>
    <tag k="name" v="Marien-Apotheke"/>
    <tag k="amenity" v="pharmacy"/>
    <tag k="addr:street" v="Hellenstraße"/>
    <tag k="addr:housenumber" v="37"/>
  </node>
  <node id="1496178968" version="1" timestamp="2011-11-09T09:40:44Z" uid="163029" user="kuziro" changeset="9779864" lat="50.3602622" lon="7.6004456">
    <tag k="name" v="MediPlaza Apotheke"/>
    <tag k="amenity" v="pharmacy"/>
    <tag k="addr:housenumber" v="Firmungstraße 1"/>
  </node>
  <node id="1577967596" version="1" timestamp="2012-01-05T11:28:24Z" uid="92761" user="flothi" changeset="10299683" lat="50.3634629" lon="7.5755766">
    <tag k="name" v="Easy-Apotheke"/>
    <tag k="amenity" v="pharmacy"/>
  </node>
  <node id="1651802873" version="1" timestamp="2012-02-28T18:41:39Z" uid="213143" user="Azumanga" changeset="10821359" lat="50.3302742" lon="7.6123747">
    <tag k="amenity" v="pharmacy"/>
  </node>
</osm>
