<?xml version="1.0" encoding="UTF-8"?>
<osm version="0.6" generator="Osmosis SNAPSHOT-r26564">
  <node id="486343837" version="3" timestamp="2010-05-20T06:32:50Z" uid="12055" user="aude" changeset="4754157" lat="38.8975639" lon="-77.0202807">
    <tag k="name" v="The Green Turtle Sports Bar &amp; Grill"/>
    <tag k="amenity" v="pub"/>
    <tag k="addr:street" v="F Street NW"/>
    <tag k="addr:housenumber" v="601"/>
  </node>
  <node id="569664786" version="3" timestamp="2010-08-23T16:01:16Z" uid="12055" user="aude" changeset="5572357" lat="38.8995121" lon="-77.0191122">
    <tag k="name" v="Irish Channel Restaurant and Pub"/>
    <tag k="amenity" v="pub"/>
  </node>
  <node id="687314812" version="3" timestamp="2010-08-30T12:40:18Z" uid="28794" user="csdf" changeset="5635852" lat="38.8991891" lon="-77.0207942">
    <tag k="name" v="Lucky Strike"/>
    <tag k="sport" v="10pin"/>
    <tag k="amenity" v="pub"/>
  </node>
  <node id="687314822" version="3" timestamp="2011-09-05T23:39:18Z" uid="516686" user="r_e" changeset="9223328" lat="38.8986379" lon="-77.0223713">
    <tag k="source" v="http://dcredline.com"/>
    <tag k="name" v="Redline"/>
    <tag k="amenity" v="pub"/>
    <tag k="addr:street" v="G Street NW"/>
    <tag k="addr:housenumber" v="707"/>
  </node>
  <node id="734267231" version="1" timestamp="2010-05-14T17:24:06Z" uid="12055" user="aude" changeset="4698099" lat="38.89646" lon="-77.032238">
    <tag k="name" v="Round Robin Bar"/>
    <tag k="amenity" v="pub"/>
  </node>
  <node id="737404943" version="2" timestamp="2010-07-19T21:42:03Z" uid="18069" user="Claudius Henrichs" changeset="5264814" lat="38.8981386" lon="-77.008189">
    <tag k="source" v="dcgis"/>
    <tag k="dataset" v="ABRA locations"/>
    <tag k="name" v="Capitol City Brewing Company"/>
    <tag k="amenity" v="pub"/>
    <tag k="addr:street" v="Massachusetts Avenue NE"/>
    <tag k="addr:housenumber" v="2"/>
  </node>
  <node id="738194972" version="2" timestamp="2010-07-19T21:43:08Z" uid="18069" user="Claudius Henrichs" changeset="5264814" lat="38.8965145" lon="-77.0119103">
    <tag k="source" v="dcgis"/>
    <tag k="dataset" v="ABRA locations"/>
    <tag k="name" v="Billy Goat Tavern &amp; Grill"/>
    <tag k="amenity" v="pub"/>
    <tag k="addr:street" v="New Jersey Avenue NW"/>
    <tag k="addr:housenumber" v="500"/>
  </node>
  <node id="738194975" version="2" timestamp="2010-05-24T17:57:27Z" uid="12055" user="aude" changeset="4796431" lat="38.8955933" lon="-77.0283357">
    <tag k="source" v="dcgis"/>
    <tag k="dataset" v="ABRA locations"/>
    <tag k="name" v="Elephant &amp; Castle"/>
    <tag k="amenity" v="pub"/>
    <tag k="addr:street" v="Pennsylvania Avenue NW"/>
    <tag k="addr:housenumber" v="1201"/>
  </node>
  <node id="738194977" version="4" timestamp="2010-05-28T18:26:52Z" uid="12055" user="aude" changeset="4833802" lat="38.8994479" lon="-77.0263962">
    <tag k="source" v="dcgis"/>
    <tag k="dataset" v="ABRA locations"/>
    <tag k="name" v="Grand Slam"/>
    <tag k="amenity" v="pub"/>
    <tag k="addr:street" v="H Street NW"/>
    <tag k="addr:housenumber" v="1000"/>
  </node>
  <node id="738194980" version="3" timestamp="2011-01-08T00:07:00Z" uid="12055" user="aude" changeset="6899075" lat="38.9000347" lon="-77.0273573">
    <tag k="source" v="dcgis"/>
    <tag k="dataset" v="ABRA locations"/>
    <tag k="name" v="Capitol City Brewing Company"/>
    <tag k="amenity" v="pub"/>
    <tag k="addr:street" v="New York Avenue NW"/>
    <tag k="addr:housenumber" v="1100"/>
  </node>
  <node id="738195004" version="2" timestamp="2010-05-24T17:56:52Z" uid="12055" user="aude" changeset="4796431" lat="38.9000767" lon="-77.0221192">
    <tag k="source" v="dcgis"/>
    <tag k="dataset" v="ABRA locations"/>
    <tag k="name" v="Fado Irish Pub"/>
    <tag k="amenity" v="pub"/>
    <tag k="addr:street" v="7th Street NW"/>
    <tag k="addr:housenumber" v="804"/>
  </node>
  <node id="738195020" version="2" timestamp="2010-05-24T17:57:03Z" uid="12055" user="aude" changeset="4796431" lat="38.8989396" lon="-77.0207789">
    <tag k="source" v="dcgis"/>
    <tag k="dataset" v="ABRA locations"/>
    <tag k="name" v="Bar Louie"/>
    <tag k="amenity" v="pub"/>
    <tag k="addr:street" v="7th Street NW"/>
    <tag k="addr:housenumber" v="701"/>
  </node>
  <node id="739150330" version="2" timestamp="2010-05-24T17:57:18Z" uid="12055" user="aude" changeset="4796431" lat="38.8942389" lon="-77.0215529">
    <tag k="source" v="dcgis"/>
    <tag k="dataset" v="ABRA locations"/>
    <tag k="name" v="Penn Quarter Sports Tavern"/>
    <tag k="amenity" v="pub"/>
    <tag k="addr:street" v="Indiana Avenue NW"/>
    <tag k="addr:housenumber" v="639"/>
  </node>
  <node id="739150358" version="3" timestamp="2011-07-31T01:42:37Z" uid="230350" user="westendguy" changeset="8876717" lat="38.8996053" lon="-77.033411">
    <tag k="source" v="dcgis"/>
    <tag k="dataset" v="ABRA locations"/>
    <tag k="name" v="Recess Bar"/>
    <tag k="amenity" v="pub"/>
    <tag k="addr:street" v="15th Street NW"/>
    <tag k="addr:housenumber" v="727"/>
  </node>
  <node id="739150370" version="7" timestamp="2010-05-24T17:57:02Z" uid="12055" user="aude" changeset="4796431" lat="38.9003532" lon="-77.0221333">
    <tag k="source" v="dcgis"/>
    <tag k="dataset" v="ABRA locations"/>
    <tag k="name" v="RFD"/>
    <tag k="amenity" v="pub"/>
    <tag k="addr:street" v="7th Street NW"/>
    <tag k="addr:housenumber" v="810"/>
  </node>
  <node id="739150378" version="2" timestamp="2010-07-19T21:45:06Z" uid="18069" user="Claudius Henrichs" changeset="5264814" lat="38.8953896" lon="-77.0106838">
    <tag k="source" v="dcgis"/>
    <tag k="dataset" v="ABRA locations"/>
    <tag k="name" v="The Liaison Capitol Hill"/>
    <tag k="amenity" v="pub"/>
    <tag k="addr:street" v="New Jersey Avenue NW"/>
    <tag k="addr:housenumber" v="415"/>
  </node>
  <node id="739528064" version="2" timestamp="2010-05-22T05:48:23Z" uid="12055" user="aude" changeset="4771572" lat="38.9008834" lon="-77.0401858">
    <tag k="source" v="dcgis"/>
    <tag k="dataset" v="ABRA locations"/>
    <tag k="name" v="Eye Bar"/>
    <tag k="amenity" v="pub"/>
    <tag k="addr:street" v="I Street NW"/>
    <tag k="addr:housenumber" v="1716"/>
  </node>
  <node id="875991981" version="1" timestamp="2010-08-23T15:58:57Z" uid="12055" user="aude" changeset="5572357" lat="38.8971839" lon="-77.0095184">
    <tag k="dcgis:lot" v="0174"/>
    <tag k="source" v="dcgis"/>
    <tag k="dataset" v="ABRA locations"/>
    <tag k="name" v="The Dubliner"/>
    <tag k="amenity" v="pub"/>
    <tag k="dcgis:square" v="0628"/>
    <tag k="addr:street" v="F Street NW"/>
    <tag k="addr:housenumber" v="4"/>
  </node>
  <node id="1422466837" version="1" timestamp="2011-09-03T20:25:49Z" uid="12055" user="aude" changeset="9203638" lat="38.896434" lon="-77.0216801">
    <tag k="name" v="Iron Horse Tap Room"/>
    <tag k="amenity" v="pub"/>
    <tag k="addr:street" v="7th St NW"/>
    <tag k="addr:housenumber" v="507"/>
  </node>
</osm>