<?xml version='1.0' encoding='UTF-8'?>
<osm version="0.6" generator="Osmosis SNAPSHOT-r26564">
  <node id="60347733" version="5" timestamp="2010-11-25T17:46:14Z" uid="290680" user="wheelmap_visitor" changeset="6452840" lat="48.1312408" lon="11.5918434">
    <tag k="wheelchair" v="yes"/>
    <tag k="name" v="Münchner Volkshochschule"/>
    <tag k="amenity" v="school"/>
  </node>
  <node id="124223721" version="3" timestamp="2009-09-04T18:07:45Z" uid="85761" user="klausis" changeset="2371943" lat="48.1043188" lon="11.4246022">
    <tag k="name" v="Grundschule"/>
    <tag k="amenity" v="school"/>
  </node>
  <node id="192305036" version="5" timestamp="2010-03-04T19:44:16Z" uid="241212" user="Pinback" changeset="4035626" lat="48.1652416" lon="11.7259342">
    <tag k="addr:postcode" v="85609"/>
    <tag k="addr:country" v="DE"/>
    <tag k="name" v="St. Emmeram Realschule"/>
    <tag k="amenity" v="school"/>
    <tag k="addr:street" v="Eichendorffstraße"/>
    <tag k="addr:city" v="Aschheim"/>
    <tag k="addr:housenumber" v="14"/>
  </node>
  <node id="193713648" version="6" timestamp="2011-10-31T17:04:11Z" uid="290680" user="wheelmap_visitor" changeset="9700443" lat="48.0662674" lon="11.3781845">
    <tag k="wheelchair" v="yes"/>
    <tag k="name" v="Realschule"/>
    <tag k="amenity" v="school"/>
  </node>
  <node id="199521374" version="5" timestamp="2011-10-04T16:24:04Z" uid="290680" user="wheelmap_visitor" changeset="9466302" lat="48.1874384" lon="11.3748885">
    <tag k="created_by" v="Potlatch 0.10f"/>
    <tag k="wheelchair" v="no"/>
    <tag k="name" v="Bernhard-Rößner-Grundschule Gröbenzell"/>
    <tag k="amenity" v="school"/>
  </node>
  <node id="207230074" version="12" timestamp="2011-12-18T20:31:45Z" uid="290680" user="wheelmap_visitor" changeset="10145307" lat="48.1785758" lon="11.3616774">
    <tag k="addr:postcode" v="82178"/>
    <tag k="wheelchair" v="no"/>
    <tag k="website" v="http://www.gs-puchheim.de/"/>
    <tag k="addr:country" v="DE"/>
    <tag k="name" v="Grundschule am Gerner Platz"/>
    <tag k="amenity" v="school"/>
    <tag k="addr:street" v="Gerner Platz"/>
    <tag k="addr:city" v="Puchheim"/>
    <tag k="addr:housenumber" v="2"/>
  </node>
  <node id="207231287" version="9" timestamp="2010-09-19T14:48:50Z" uid="65148" user="tixuwuoz" changeset="5820386" lat="48.1791463" lon="11.3614999">
    <tag k="addr:postcode" v="82178"/>
    <tag k="website" v="http://www.hs-puchheim.de/"/>
    <tag k="addr:country" v="DE"/>
    <tag k="name" v="Hauptschule Puchheim"/>
    <tag k="amenity" v="school"/>
    <tag k="addr:street" v="Lagerstraße"/>
    <tag k="addr:city" v="Puchheim"/>
    <tag k="addr:housenumber" v="26"/>
  </node>
  <node id="211255188" version="3" timestamp="2011-11-08T23:05:26Z" uid="290680" user="wheelmap_visitor" changeset="9770655" lat="48.1137457" lon="11.593221">
    <tag k="created_by" v="JOSM"/>
    <tag k="source" v="survey"/>
    <tag k="wheelchair" v="yes"/>
    <tag k="name" v="Abendgymnasium"/>
    <tag k="amenity" v="school"/>
  </node>
  <node id="238362600" version="5" timestamp="2009-04-09T19:56:47Z" uid="72235" user="Basstoelpel" changeset="348148" lat="48.1803116" lon="11.5811876">
    <tag k="name" v="Volksschule an der Torquato-Tasso-Straße"/>
    <tag k="amenity" v="school"/>
  </node>
  <node id="238410523" version="6" timestamp="2009-09-02T14:40:37Z" uid="85761" user="klausis" changeset="2348916" lat="48.178383" lon="11.580891">
    <tag k="name" v="Städtisches Lion-Feuchtwanger-Gymnasium"/>
    <tag k="amenity" v="school"/>
  </node>
  <node id="239924566" version="1" timestamp="2008-01-19T14:43:59Z" uid="8940" user="webbie" changeset="666874" lat="48.1928872" lon="11.3824557">
    <tag k="created_by" v="JOSM"/>
    <tag k="name" v="Gymnasium Gröbenzell"/>
    <tag k="amenity" v="school"/>
  </node>
  <node id="243067036" version="6" timestamp="2009-11-13T22:57:57Z" uid="56526" user="JJ Rammerl" changeset="3109583" lat="48.2258949" lon="11.6756566">
    <tag k="addr:postcode" v="85737"/>
    <tag k="website" v="www.gs-kirchplatz.de"/>
    <tag k="addr:country" v="DE"/>
    <tag k="name" v="Grundschule am Kirchplatz"/>
    <tag k="amenity" v="school"/>
    <tag k="addr:street" v="Gottfried-Ziegler-Straße"/>
    <tag k="addr:city" v="Ismaning"/>
    <tag k="addr:housenumber" v="5"/>
  </node>
  <node id="248627861" version="1" timestamp="2008-02-21T11:05:03Z" uid="27959" user="nibbler" changeset="175735" lat="48.1937577" lon="11.3855727">
    <tag k="created_by" v="Potlatch 0.7b"/>
    <tag k="name" v="Waldorfschule Gröbenzell"/>
    <tag k="amenity" v="school"/>
  </node>
  <node id="257005653" version="4" timestamp="2011-06-13T22:34:04Z" uid="469939" user="fredero" changeset="8432455" lat="48.207308" lon="11.568566">
    <tag k="name" v="Balthasar-Neumann-Realschule"/>
    <tag k="amenity" v="school"/>
  </node>
  <node id="259775795" version="6" timestamp="2011-01-29T11:57:18Z" uid="46472" user="sendelhorst" changeset="7121288" lat="48.1273684" lon="11.5995012">
    <tag k="name" v="Privatgymnasium Dr. Florian Überreiter"/>
    <tag k="amenity" v="school"/>
    <tag k="type" v="Gymnasium"/>
  </node>
  <node id="260122934" version="1" timestamp="2008-04-27T10:12:39Z" uid="31605" user="hatzfeld" changeset="264675" lat="48.0938425" lon="11.6009098">
    <tag k="created_by" v="Potlatch 0.8b"/>
    <tag k="name" v="Schulzentrum Perlacher Forst"/>
    <tag k="amenity" v="school"/>
  </node>
  <node id="260442128" version="5" timestamp="2011-10-19T17:14:12Z" uid="290680" user="wheelmap_visitor" changeset="9596105" lat="48.1281831" lon="11.6941832">
    <tag k="wheelchair" v="yes"/>
    <tag k="name" v="Grund-/Haupt-Schule an der Lehrer-Wirth-Straße 31"/>
    <tag k="amenity" v="school"/>
  </node>
  <node id="260447083" version="10" timestamp="2011-07-07T16:01:14Z" uid="56526" user="JJ Rammerl" changeset="8656395" lat="48.1257379" lon="11.6694031">
    <tag k="addr:postcode" v="81829"/>
    <tag k="source" v="survey"/>
    <tag k="addr:country" v="DE"/>
    <tag k="name" v="Grundschule Lehrer-Götz-Weg München"/>
    <tag k="amenity" v="school"/>
    <tag k="addr:street" v="Lehrer-Götz-Weg"/>
    <tag k="addr:city" v="München"/>
    <tag k="addr:housenumber" v="21"/>
  </node>
  <node id="260481044" version="4" timestamp="2009-04-27T21:31:14Z" uid="120149" user="mctheduck" changeset="997035" lat="48.0990903" lon="11.4063576">
    <tag k="created_by" v="Potlatch 0.8b"/>
    <tag k="name" v="Grundschule Krailling"/>
    <tag k="amenity" v="school"/>
  </node>
  <node id="260743274" version="2" timestamp="2008-05-12T09:30:37Z" uid="31605" user="hatzfeld" changeset="432928" lat="48.1239246" lon="11.6213829">
    <tag k="created_by" v="Potlatch 0.9a"/>
    <tag k="name" v="Schule am Innsbrucker Ring"/>
    <tag k="amenity" v="school"/>
    <tag k="type" v="Sonderpädagogisches Förderzentrum"/>
  </node>
  <node id="261056061" version="2" timestamp="2009-06-26T18:27:25Z" uid="85761" user="klausis" changeset="1643040" lat="48.1240937" lon="11.5951778">
    <tag k="name" v="Simon-Knoll-Berufsschule Außenstelle Salesianum"/>
    <tag k="amenity" v="school"/>
  </node>
  <node id="262609293" version="8" timestamp="2011-03-04T10:10:43Z" uid="29061" user="KPG" changeset="7452461" lat="48.1949477" lon="11.5737321">
    <tag k="wheelchair" v="yes"/>
    <tag k="name" v="Münchner Volkshochschule Stadtbereichszentrum Nord"/>
    <tag k="amenity" v="school"/>
  </node>
  <node id="263822475" version="5" timestamp="2011-05-28T23:06:13Z" uid="64164" user="osmkurt" changeset="8273816" lat="48.1303187" lon="11.6065782">
    <tag k="name" v="Schwanthaler Kunstschule"/>
    <tag k="amenity" v="school"/>
  </node>
  <node id="264008145" version="1" timestamp="2008-05-12T09:31:03Z" uid="31605" user="hatzfeld" changeset="432928" lat="48.1242569" lon="11.6220438">
    <tag k="created_by" v="Potlatch 0.9a"/>
    <tag k="name" v="Ludwig-Thoma-Realschule"/>
    <tag k="amenity" v="school"/>
  </node>
  <node id="266655293" version="5" timestamp="2011-09-23T17:20:25Z" uid="290680" user="wheelmap_visitor" changeset="9373820" lat="48.1567559" lon="11.5730236">
    <tag k="wheelchair" v="yes"/>
    <tag k="name" v="Giselagymnasium"/>
    <tag k="amenity" v="school"/>
  </node>
  <node id="271231757" version="2" timestamp="2010-05-17T09:52:57Z" uid="8748" user="ToniE" changeset="4727205" lat="48.1067354" lon="11.6542096">
    <tag k="name" v="Staatliche Grundschule"/>
    <tag k="amenity" v="school"/>
  </node>
  <node id="274617205" version="6" timestamp="2011-08-03T03:10:16Z" uid="64164" user="osmkurt" changeset="8906563" lat="48.1332929" lon="11.6052394">
    <tag k="phone" v="+49 89 41901484"/>
    <tag k="website" v="http://rabennest.de"/>
    <tag k="addr:country" v="DE"/>
    <tag k="name" v="Rabennest"/>
    <tag k="amenity" v="school"/>
    <tag k="addr:street" v="Flurstraße"/>
    <tag k="addr:city" v="München"/>
    <tag k="addr:housenumber" v="2"/>
  </node>
  <node id="274617208" version="8" timestamp="2011-10-08T19:40:38Z" uid="290680" user="wheelmap_visitor" changeset="9499106" lat="48.1358133" lon="11.6111939">
    <tag k="addr:postcode" v="81675"/>
    <tag k="phone" v="+49 89 4576980"/>
    <tag k="wheelchair" v="yes"/>
    <tag k="website" v="http://www.fnr.musin.de"/>
    <tag k="email" v="fridtjof-nansen-realschule@muenchen.de"/>
    <tag k="addr:country" v="DE"/>
    <tag k="name" v="Fridtjof-Nansen-Realschule"/>
    <tag k="amenity" v="school"/>
    <tag k="addr:street" v="Ernst-Reuter-Straße"/>
    <tag k="addr:city" v="München"/>
    <tag k="addr:housenumber" v="4"/>
  </node>
  <node id="274617211" version="9" timestamp="2011-11-01T00:46:26Z" uid="64164" user="osmkurt" changeset="9709228" lat="48.1343888" lon="11.6000538">
    <tag k="addr:postcode" v="81675"/>
    <tag k="phone" v="+49 89 41942321"/>
    <tag k="website" v="http://www.sfz-an-der-isar.musin.de/"/>
    <tag k="email" v="fs-kirchen-13@münchen.de"/>
    <tag k="addr:country" v="DE"/>
    <tag k="name" v="Schule zur Lernförderung"/>
    <tag k="amenity" v="school"/>
    <tag k="addr:street" v="Kirchenstraße"/>
    <tag k="addr:city" v="München"/>
  </node>
  <node id="277718442" version="2" timestamp="2011-10-16T21:07:00Z" uid="290680" user="wheelmap_visitor" changeset="9569216" lat="48.1174281" lon="11.434412">
    <tag k="created_by" v="Potlatch 0.9c"/>
    <tag k="wheelchair" v="no"/>
    <tag k="name" v="VS Gräfelfing"/>
    <tag k="amenity" v="school"/>
  </node>
  <node id="278354372" version="6" timestamp="2011-06-18T14:41:27Z" uid="80117" user="kartenleser" changeset="8474008" lat="48.1803584" lon="11.5370987">
    <tag k="name" v="Berufschulzentrum an der Riesstraße"/>
    <tag k="amenity" v="school"/>
  </node>
  <node id="279835100" version="4" timestamp="2011-07-31T09:06:28Z" uid="137160" user="xyzlr" changeset="8878693" lat="48.1695881" lon="11.5719617">
    <tag k="name" v="Willi-Graf-Gymnasium"/>
    <tag k="amenity" v="school"/>
  </node>
  <node id="279876589" version="7" timestamp="2011-07-07T12:29:07Z" uid="56526" user="JJ Rammerl" changeset="8656395" lat="48.1245507" lon="11.6657449">
    <tag k="addr:postcode" v="81825"/>
    <tag k="addr:country" v="DE"/>
    <tag k="name" v="Pestalozzi-Realschule"/>
    <tag k="amenity" v="school"/>
    <tag k="addr:street" v="Truderinger Straße"/>
    <tag k="addr:city" v="München"/>
    <tag k="addr:housenumber" v="265b"/>
  </node>
  <node id="280152958" version="5" timestamp="2009-10-23T21:53:54Z" uid="42393" user="mawi42" changeset="2933236" lat="48.124508" lon="11.6027577">
    <tag k="name" v="Taxischule München"/>
    <tag k="amenity" v="school"/>
    <tag k="operator" v="Taxi-München eG"/>
  </node>
  <node id="280152989" version="6" timestamp="2009-10-23T21:57:39Z" uid="42393" user="mawi42" changeset="2933236" lat="48.1243075" lon="11.6023114">
    <tag k="name" v="IsarFunk Fahrertraining"/>
    <tag k="amenity" v="school"/>
    <tag k="operator" v="IsarFunk Taxizentrale GmbH &amp; Co. KG"/>
  </node>
  <node id="281222407" version="2" timestamp="2008-07-26T16:12:21Z" uid="8748" user="ToniE" changeset="597796" lat="48.0741844" lon="11.7158143">
    <tag k="source" v="survey"/>
    <tag k="name" v="Kindergarten"/>
    <tag k="amenity" v="school"/>
  </node>
  <node id="281222830" version="2" timestamp="2008-11-17T15:00:13Z" uid="8748" user="ToniE" changeset="761001" lat="48.0745053" lon="11.71532">
    <tag k="source" v="survey"/>
    <tag k="name" v="Grundschule"/>
    <tag k="amenity" v="school"/>
  </node>
  <node id="281259575" version="2" timestamp="2010-03-04T16:44:45Z" uid="29061" user="KPG" changeset="4034040" lat="48.1270936" lon="11.6286227">
    <tag k="name" v="Maria-Ward Mädchenrealschule"/>
    <tag k="amenity" v="school"/>
  </node>
  <node id="287819214" version="3" timestamp="2011-03-10T13:13:03Z" uid="68010" user="ms2000" changeset="7513969" lat="48.1353946" lon="11.4237356">
    <tag k="addr:postcode" v="81249"/>
    <tag k="addr:country" v="DE"/>
    <tag k="name" v="Förderschule und Heilpädagogische Tagesstätte"/>
    <tag k="amenity" v="school"/>
    <tag k="addr:street" v="Köferinger Straße"/>
    <tag k="addr:city" v="München"/>
    <tag k="addr:housenumber" v="21"/>
  </node>
  <node id="291364403" version="12" timestamp="2010-04-03T15:46:25Z" uid="42393" user="mawi42" changeset="4314364" lat="48.138217" lon="11.5885473">
    <tag k="addr:postcode" v="80538"/>
    <tag k="phone" v="+49 89 21949184"/>
    <tag k="website" v="http://www.wilhelmsgymnasium.de"/>
    <tag k="addr:country" v="DE"/>
    <tag k="name" v="Staatliches Wilhelmsgymnasium"/>
    <tag k="wikipedia" v="http://de.wikipedia.org/wiki/Wilhelmsgymnasium_M%C3%BCnchen"/>
    <tag k="amenity" v="school"/>
    <tag k="addr:street" v="Thierschstraße"/>
    <tag k="addr:city" v="München"/>
    <tag k="addr:housenumber" v="46"/>
  </node>
  <node id="291642235" version="8" timestamp="2011-10-14T19:31:30Z" uid="290680" user="wheelmap_visitor" changeset="9552229" lat="48.1445819" lon="11.5922645">
    <tag k="addr:postcode" v="80538"/>
    <tag k="phone" v="+49 89 2103850"/>
    <tag k="wheelchair" v="yes"/>
    <tag k="website" v="http://www.lpg.musin.de/"/>
    <tag k="addr:country" v="DE"/>
    <tag k="name" v="Staatliches Luitpold-Gymnasium"/>
    <tag k="amenity" v="school"/>
    <tag k="addr:street" v="Seeaustraße"/>
    <tag k="addr:city" v="München"/>
    <tag k="addr:housenumber" v="1"/>
  </node>
  <node id="292285524" version="1" timestamp="2008-08-30T15:49:56Z" uid="54265" user="bridgeburner" changeset="459551" lat="48.1171791" lon="11.6690853">
    <tag k="name" v="Feldbergschule"/>
    <tag k="amenity" v="school"/>
  </node>
  <node id="295434645" version="2" timestamp="2011-02-10T22:46:46Z" uid="56526" user="JJ Rammerl" changeset="7250431" lat="48.1924554" lon="11.6409131">
    <tag k="name" v="VHS"/>
    <tag k="amenity" v="school"/>
  </node>
  <node id="298122450" version="5" timestamp="2011-05-01T17:16:37Z" uid="446175" user="schiwi" changeset="8023122" lat="48.1087923" lon="11.6758918">
    <tag k="name" v="Markgrafenschule"/>
    <tag k="amenity" v="school"/>
  </node>
  <node id="299252200" version="8" timestamp="2011-10-09T21:00:21Z" uid="290680" user="wheelmap_visitor" changeset="9508573" lat="48.0608897" lon="11.5131601">
    <tag k="wheelchair" v="no"/>
    <tag k="name" v="Pater-Rupert-Mayer-Gymnasium"/>
    <tag k="layer" v="1"/>
    <tag k="amenity" v="school"/>
  </node>
  <node id="299252216" version="7" timestamp="2009-10-02T22:22:19Z" uid="86259" user="hasse_osm_korinthenkacker" changeset="2717728" lat="48.0605044" lon="11.5128191">
    <tag k="name" v="Pater-Rupert-Mayer-Realschule"/>
    <tag k="layer" v="1"/>
    <tag k="amenity" v="school"/>
  </node>
  <node id="299252412" version="8" timestamp="2011-10-09T21:00:23Z" uid="290680" user="wheelmap_visitor" changeset="9508573" lat="48.0601072" lon="11.5124659">
    <tag k="wheelchair" v="no"/>
    <tag k="name" v="Pater-Rupert-Mayer-Volksschule"/>
    <tag k="layer" v="1"/>
    <tag k="amenity" v="school"/>
  </node>
  <node id="300673921" version="2" timestamp="2010-07-05T09:25:36Z" uid="42393" user="mawi42" changeset="5140295" lat="48.0906782" lon="11.6391019">
    <tag k="source" v="survey"/>
    <tag k="name" v="Volkshochschule München Perlach-Süd"/>
    <tag k="amenity" v="school"/>
  </node>
  <node id="302726285" version="11" timestamp="2010-09-24T18:48:21Z" uid="88527" user="Qubit" changeset="5865419" lat="48.0915226" lon="11.4832359">
    <tag k="addr:postcode" v="81475"/>
    <tag k="website" v="http://www.gswalliser.musin.de/"/>
    <tag k="addr:country" v="DE"/>
    <tag k="name" v="Grund- und Hauptschule an der Walliser Straße"/>
    <tag k="amenity" v="school"/>
    <tag k="addr:street" v="Walliser Straße"/>
    <tag k="addr:city" v="München"/>
    <tag k="addr:housenumber" v="5"/>
  </node>
  <node id="302793819" version="2" timestamp="2011-10-16T21:08:01Z" uid="290680" user="wheelmap_visitor" changeset="9569216" lat="48.1165914" lon="11.4360248">
    <tag k="created_by" v="Potlatch 0.10d"/>
    <tag k="wheelchair" v="no"/>
    <tag k="name" v="Musikschule"/>
    <tag k="amenity" v="school"/>
  </node>
  <node id="310865228" version="7" timestamp="2009-10-03T18:33:27Z" uid="179968" user="Ich_hasse_doitsche_OSM-Korinthenkacker" changeset="2727120" lat="48.0665076" lon="11.510286">
    <tag k="name" v="Hans-Hofer-Realschule"/>
    <tag k="amenity" v="school"/>
  </node>
  <node id="312793352" version="5" timestamp="2011-08-25T22:37:34Z" uid="56526" user="JJ Rammerl" changeset="9125665" lat="48.1322045" lon="11.5815046">
    <tag k="addr:postcode" v="80469"/>
    <tag k="phone" v="+49 89 293333"/>
    <tag k="website" v="http://www.schulverbund.de"/>
    <tag k="email" v="kontakt@schulverbund.de"/>
    <tag k="addr:country" v="DE"/>
    <tag k="name" v="Schulverbund München"/>
    <tag k="amenity" v="school"/>
    <tag k="addr:housename" v="Schulverbund München"/>
    <tag k="addr:street" v="Kohlstraße"/>
    <tag k="addr:state" v="Bayern"/>
    <tag k="addr:city" v="München"/>
    <tag k="addr:housenumber" v="5"/>
  </node>
  <node id="315935197" version="1" timestamp="2008-11-30T21:15:32Z" uid="17933" user="abunai" changeset="814704" lat="48.1482107" lon="11.5541691">
    <tag k="name" v="Wall Street Institute"/>
    <tag k="amenity" v="school"/>
  </node>
  <node id="315953203" version="2" timestamp="2011-06-15T15:15:08Z" uid="68974" user="Broky" changeset="8448059" lat="48.152098" lon="11.542613">
    <tag k="name" v="Grund- und Hauptschule Alfonsstraße 8"/>
    <tag k="amenity" v="school"/>
  </node>
  <node id="317977451" version="3" timestamp="2008-12-12T11:40:11Z" uid="8748" user="ToniE" changeset="327254" lat="48.0952576" lon="11.5610508">
    <tag k="source" v="survey"/>
    <tag k="name" v="Albert-Einstein-Gymnasium"/>
    <tag k="amenity" v="school"/>
  </node>
  <node id="318769757" version="3" timestamp="2009-08-18T17:06:53Z" uid="68010" user="ms2000" changeset="2191689" lat="48.1346455" lon="11.3778236">
    <tag k="name" v="Wittelsbacher Grundschule"/>
    <tag k="amenity" v="school"/>
  </node>
  <node id="320205167" version="4" timestamp="2009-09-02T14:39:53Z" uid="85761" user="klausis" changeset="2348916" lat="48.1812337" lon="11.5651763">
    <tag k="addr:postcode" v="80809"/>
    <tag k="addr:country" v="DE"/>
    <tag k="name" v="Grundschule an der Hanselmannstraße"/>
    <tag k="amenity" v="school"/>
    <tag k="addr:street" v="Hanselmannstraße"/>
    <tag k="addr:city" v="München"/>
    <tag k="addr:housenumber" v="45"/>
  </node>
  <node id="329332144" version="1" timestamp="2009-01-06T16:53:23Z" uid="80809" user="muenchner" changeset="749247" lat="48.1331665" lon="11.5225428">
    <tag k="name" v="GFEB - mediziniale Schule"/>
    <tag k="amenity" v="school"/>
  </node>
  <node id="331528250" version="12" timestamp="2011-06-27T23:28:04Z" uid="64164" user="osmkurt" changeset="8566996" lat="48.1245666" lon="11.5985394">
    <tag k="addr:country" v="DE"/>
    <tag k="name" v="IHK-Akademie München"/>
    <tag k="amenity" v="school"/>
    <tag k="addr:street" v="Orleansstraße"/>
    <tag k="addr:city" v="München"/>
    <tag k="addr:housenumber" v="12"/>
  </node>
  <node id="332544444" version="4" timestamp="2011-03-20T20:06:09Z" uid="290680" user="wheelmap_visitor" changeset="7620533" lat="48.1420926" lon="11.5603036">
    <tag k="wheelchair" v="limited"/>
    <tag k="name" v="Münchner Schmink und Kosmetikschule"/>
    <tag k="amenity" v="school"/>
  </node>
  <node id="335564596" version="1" timestamp="2009-01-22T20:21:17Z" uid="93534" user="Retz" changeset="826326" lat="48.1514358" lon="11.544321">
    <tag k="name" v="Rupprecht Gymnasium"/>
    <tag k="amenity" v="school"/>
  </node>
  <node id="335564648" version="2" timestamp="2011-02-01T21:56:24Z" uid="290680" user="wheelmap_visitor" changeset="7156704" lat="48.1516767" lon="11.5434098">
    <tag k="wheelchair" v="no"/>
    <tag k="name" v="Hauptschule an der Alfonsstraße"/>
    <tag k="amenity" v="school"/>
  </node>
  <node id="335836677" version="4" timestamp="2011-10-02T22:51:44Z" uid="290680" user="wheelmap_visitor" changeset="9447804" lat="48.1752962" lon="11.5753944">
    <tag k="addr:postcode" v="80804"/>
    <tag k="wheelchair" v="yes"/>
    <tag k="addr:country" v="DE"/>
    <tag k="name" v="Berufsfachschule für Pflegekräfte"/>
    <tag k="amenity" v="school"/>
    <tag k="addr:street" v="Kraepelinstraße"/>
    <tag k="addr:city" v="München"/>
    <tag k="addr:housenumber" v="18"/>
  </node>
  <node id="338723406" version="1" timestamp="2009-01-28T17:37:06Z" uid="81297" user="susi0712" changeset="849571" lat="48.2083018" lon="11.4742575">
    <tag k="name" v="Waldklassenzimmer"/>
    <tag k="amenity" v="school"/>
  </node>
  <node id="342293225" version="1" timestamp="2009-02-06T20:23:19Z" uid="80809" user="muenchner" changeset="208667" lat="48.1399275" lon="11.5197511">
    <tag k="name" v="Ohrwurm - Ausbildungszentrum für Musik"/>
    <tag k="amenity" v="school"/>
  </node>
  <node id="342309527" version="4" timestamp="2011-06-13T22:34:04Z" uid="469939" user="fredero" changeset="8432455" lat="48.206568" lon="11.5689469">
    <tag k="name" v="Grundschule an der Hugo-Wolf-Straße"/>
    <tag k="amenity" v="school"/>
  </node>
  <node id="365937473" version="3" timestamp="2011-10-22T07:06:01Z" uid="290680" user="wheelmap_visitor" changeset="9621211" lat="48.1847813" lon="11.5189911">
    <tag k="wheelchair" v="yes"/>
    <tag k="name" v="Gymnasium München/Moosach"/>
    <tag k="amenity" v="school"/>
  </node>
  <node id="365937579" version="2" timestamp="2009-09-04T13:39:29Z" uid="85761" user="klausis" changeset="2369376" lat="48.1851761" lon="11.5185276">
    <tag k="name" v="Artur-Kutscher-Realschule"/>
    <tag k="amenity" v="school"/>
  </node>
  <node id="368291796" version="3" timestamp="2011-12-17T16:21:48Z" uid="290680" user="wheelmap_visitor" changeset="10137416" lat="48.12767" lon="11.5078215">
    <tag k="wheelchair" v="no"/>
    <tag k="name" v="Grundschule"/>
    <tag k="amenity" v="school"/>
  </node>
  <node id="368291881" version="4" timestamp="2011-10-06T19:25:46Z" uid="533259" user="Hiefi" changeset="9488470" lat="48.1274638" lon="11.5092506">
    <tag k="wheelchair" v="unknown"/>
    <tag k="name" v="Georg-Büchner-Realschule"/>
    <tag k="amenity" v="school"/>
  </node>
  <node id="369812222" version="1" timestamp="2009-04-04T20:31:27Z" uid="72235" user="Basstoelpel" changeset="186432" lat="48.1995548" lon="11.4584802">
    <tag k="name" v="Grundschule an der Eversbuschstraße 182"/>
    <tag k="amenity" v="school"/>
  </node>
  <node id="387199683" version="2" timestamp="2010-01-19T10:43:42Z" uid="44811" user="laufstar1" changeset="3657529" lat="48.1151213" lon="11.4354249">
    <tag k="website" v="http://www.doemens.org/"/>
    <tag k="name" v="Fachakademie für Brauwesen und Getränketechnik"/>
    <tag k="amenity" v="school"/>
  </node>
  <node id="439234773" version="3" timestamp="2010-04-15T15:58:25Z" uid="70696" user="xybot" changeset="4431179" lat="48.1338" lon="11.5609199">
    <tag k="addr:postcode" v="80336"/>
    <tag k="phone" v="+49 89 5160-7101"/>
    <tag k="fax" v="+49 89 5160-7102"/>
    <tag k="website" v="http://www.inm-online.de"/>
    <tag k="email" v="gs.inm@med.uni-muenchen.de"/>
    <tag k="addr:country" v="DE"/>
    <tag k="name" v="Institut für Notfallmedizin"/>
    <tag k="amenity" v="school"/>
    <tag k="addr:street" v="Schillerstraße"/>
    <tag k="addr:city" v="München"/>
    <tag k="operator" v="Ludwig-Maximilians-Universität (LMU)"/>
    <tag k="addr:housenumber" v="53"/>
  </node>
  <node id="442680002" version="6" timestamp="2011-12-23T00:07:05Z" uid="290680" user="wheelmap_visitor" changeset="10178643" lat="48.0664786" lon="11.525704">
    <tag k="wheelchair" v="limited"/>
    <tag k="name" v="Staatliches Gymnasium Pullach"/>
    <tag k="amenity" v="school"/>
  </node>
  <node id="443898649" version="2" timestamp="2011-11-08T17:06:56Z" uid="290680" user="wheelmap_visitor" changeset="9770655" lat="48.0769996" lon="11.6623555">
    <tag k="wheelchair" v="yes"/>
    <tag k="name" v="Volkshochschule"/>
    <tag k="amenity" v="school"/>
  </node>
  <node id="444283480" version="1" timestamp="2009-07-20T07:56:01Z" uid="8748" user="ToniE" changeset="1881490" lat="48.0966604" lon="11.6578651">
    <tag k="name" v="Städtische Wilhelm-Roentgen-Realschule"/>
    <tag k="amenity" v="school"/>
  </node>
  <node id="450603352" version="2" timestamp="2009-08-08T16:13:40Z" uid="8748" user="ToniE" changeset="2076696" lat="48.1056621" lon="11.6599696">
    <tag k="name" v="Grundschule am Karl-Marx-Ring"/>
    <tag k="amenity" v="school"/>
  </node>
  <node id="451946347" version="3" timestamp="2009-11-04T20:42:12Z" uid="56526" user="JJ Rammerl" changeset="3036108" lat="48.2279535" lon="11.6786584">
    <tag k="addr:postcode" v="85737"/>
    <tag k="website" v="www.rs-ismaning.de"/>
    <tag k="addr:country" v="DE"/>
    <tag k="name" v="Johann-Andreas-Schmeller Realschule Ismaning"/>
    <tag k="amenity" v="school"/>
    <tag k="addr:street" v="An der Torfbahn"/>
    <tag k="addr:city" v="Ismaning"/>
    <tag k="addr:housenumber" v="5"/>
  </node>
  <node id="462733290" version="6" timestamp="2011-05-17T13:39:26Z" uid="290680" user="wheelmap_visitor" changeset="8169529" lat="48.2224857" lon="11.6770337">
    <tag k="addr:postcode" v="85737"/>
    <tag k="wheelchair" v="yes"/>
    <tag k="website" v="www.vhs-nord.de"/>
    <tag k="addr:country" v="DE"/>
    <tag k="name" v="VHS"/>
    <tag k="amenity" v="school"/>
    <tag k="addr:street" v="Mühlenstraße"/>
    <tag k="addr:city" v="Ismaning"/>
    <tag k="addr:housenumber" v="15"/>
  </node>
  <node id="462733300" version="4" timestamp="2011-05-17T13:39:26Z" uid="290680" user="wheelmap_visitor" changeset="8169529" lat="48.2221761" lon="11.6771008">
    <tag k="addr:postcode" v="85737"/>
    <tag k="wheelchair" v="yes"/>
    <tag k="addr:country" v="DE"/>
    <tag k="name" v="Musikschule"/>
    <tag k="amenity" v="school"/>
    <tag k="addr:street" v="Mühlenstraße"/>
    <tag k="addr:city" v="Ismaning"/>
    <tag k="addr:housenumber" v="19"/>
  </node>
  <node id="470371620" version="1" timestamp="2009-08-18T17:06:52Z" uid="68010" user="ms2000" changeset="2191689" lat="48.1354104" lon="11.3774525">
    <tag k="name" v="Wittelsbacher Hauptschule"/>
    <tag k="amenity" v="school"/>
  </node>
  <node id="471511133" version="8" timestamp="2010-10-24T19:14:20Z" uid="8748" user="ToniE" changeset="6161552" lat="48.0614521" lon="11.6139164">
    <tag k="addr:postcode" v="82008"/>
    <tag k="wheelchair" v="yes"/>
    <tag k="website" v="http://www.jahnschule-unterhaching.de/"/>
    <tag k="addr:country" v="DE"/>
    <tag k="name" v="Volksschule an der Jahnstraße"/>
    <tag k="amenity" v="school"/>
    <tag k="addr:housename" v="Volksschule an de Jahnstraße"/>
    <tag k="addr:street" v="Jahnstraße"/>
    <tag k="addr:city" v="Unterhaching"/>
    <tag k="addr:housenumber" v="1a"/>
  </node>
  <node id="477967298" version="1" timestamp="2009-08-30T21:02:10Z" uid="53144" user="amd1200" changeset="2319072" lat="48.1073203" lon="11.7242618">
    <tag k="name" v="Ernst-Mach-Gymnasium"/>
    <tag k="amenity" v="school"/>
  </node>
  <node id="477967302" version="1" timestamp="2009-08-30T21:02:10Z" uid="53144" user="amd1200" changeset="2319072" lat="48.1068159" lon="11.7246738">
    <tag k="name" v="Jagdfeld Grundschule"/>
    <tag k="amenity" v="school"/>
  </node>
  <node id="485186147" version="1" timestamp="2009-09-05T20:34:01Z" uid="43078" user="bib" changeset="2384285" lat="48.1214565" lon="11.4827877">
    <tag k="amenity" v="school"/>
  </node>
  <node id="518114441" version="3" timestamp="2010-05-09T20:40:35Z" uid="30579" user="Tiramisu" changeset="4653985" lat="48.0769007" lon="11.5256759">
    <tag k="addr:postcode" v="81479"/>
    <tag k="name" v="Fahrschule"/>
    <tag k="amenity" v="school"/>
    <tag k="addr:street" v="Wolfratshauser Straße"/>
    <tag k="addr:city" v="München"/>
    <tag k="addr:housenumber" v="173"/>
  </node>
  <node id="519403027" version="3" timestamp="2011-12-28T18:39:17Z" uid="290680" user="wheelmap_visitor" changeset="10222046" lat="48.0761226" lon="11.5194984">
    <tag k="addr:postcode" v="81479"/>
    <tag k="wheelchair" v="no"/>
    <tag k="addr:country" v="DE"/>
    <tag k="name" v="Grundschule an der Herterichstraße"/>
    <tag k="amenity" v="school"/>
    <tag k="addr:street" v="Herterichstraße"/>
    <tag k="addr:city" v="München"/>
    <tag k="addr:housenumber" v="41"/>
  </node>
  <node id="522101591" version="1" timestamp="2009-10-05T21:31:24Z" uid="182098" user="pomodorow" changeset="2755024" lat="48.1524673" lon="11.5178824">
    <tag k="name" v="Käthe Kollwitz Gymnasium"/>
    <tag k="amenity" v="school"/>
  </node>
  <node id="539112865" version="2" timestamp="2009-11-04T20:42:09Z" uid="56526" user="JJ Rammerl" changeset="3036108" lat="48.218461" lon="11.6693643">
    <tag k="addr:postcode" v="85737"/>
    <tag k="website" v="www.gscamerloher-ismaning.de"/>
    <tag k="addr:country" v="DE"/>
    <tag k="name" v="Grundschule an der Camerloherstraße"/>
    <tag k="amenity" v="school"/>
    <tag k="addr:street" v="Camerloherstraße"/>
    <tag k="addr:city" v="Ismaning"/>
    <tag k="addr:housenumber" v="20"/>
  </node>
  <node id="539112934" version="2" timestamp="2009-11-04T20:42:11Z" uid="56526" user="JJ Rammerl" changeset="3036108" lat="48.2286854" lon="11.6767998">
    <tag k="addr:postcode" v="85737"/>
    <tag k="website" v="www.hs-ismaning.de"/>
    <tag k="addr:country" v="DE"/>
    <tag k="name" v="Hauptschule Ismaning"/>
    <tag k="amenity" v="school"/>
    <tag k="addr:street" v="Erich-Zeitler-Straße"/>
    <tag k="addr:city" v="Ismaning"/>
    <tag k="addr:housenumber" v="8"/>
  </node>
  <node id="543518511" version="1" timestamp="2009-10-28T13:18:42Z" uid="191071" user="Trallali" changeset="2973157" lat="48.1852059" lon="11.5188571">
    <tag k="name" v="Grundschule an der Gerastraße"/>
    <tag k="amenity" v="school"/>
  </node>
  <node id="563844146" version="4" timestamp="2011-12-30T13:14:01Z" uid="64164" user="osmkurt" changeset="10245027" lat="48.1156883" lon="11.5872371">
    <tag k="name" v="Münchner Volkshochschule Stadtbrerichszentrum Ost"/>
    <tag k="amenity" v="school"/>
  </node>
  <node id="563851080" version="2" timestamp="2011-02-01T21:48:14Z" uid="290680" user="wheelmap_visitor" changeset="7156704" lat="48.1171545" lon="11.5377996">
    <tag k="wheelchair" v="yes"/>
    <tag k="name" v="Münchner Volkshochschule Stadtbereichszentrum Süd"/>
    <tag k="amenity" v="school"/>
  </node>
  <node id="574624346" version="3" timestamp="2009-11-29T14:59:32Z" uid="202996" user="anprbide" changeset="3246235" lat="48.122164" lon="11.4810848">
    <tag k="name" v="Lukasschule"/>
    <tag k="amenity" v="school"/>
  </node>
  <node id="582614550" version="2" timestamp="2011-11-08T23:05:27Z" uid="290680" user="wheelmap_visitor" changeset="9770655" lat="48.1131791" lon="11.5934774">
    <tag k="source" v="survey"/>
    <tag k="wheelchair" v="yes"/>
    <tag k="name" v="Münchner Volkshochschule"/>
    <tag k="amenity" v="school"/>
  </node>
  <node id="597659625" version="1" timestamp="2009-12-21T13:31:34Z" uid="105757" user="mkuh" changeset="3420172" lat="48.1277441" lon="11.5518756">
    <tag k="name" v="Grundschule an der Stielerstraße"/>
    <tag k="amenity" v="school"/>
  </node>
  <node id="606125880" version="1" timestamp="2010-01-05T20:00:40Z" uid="56526" user="JJ Rammerl" changeset="3548422" lat="48.2149041" lon="11.6863729">
    <tag k="addr:postcode" v="85737"/>
    <tag k="website" v="www.waldorfschule-ismaning.de"/>
    <tag k="addr:country" v="DE"/>
    <tag k="name" v="Rudolf-Steiner-Schule, Freie Waldorfschule"/>
    <tag k="amenity" v="school"/>
    <tag k="addr:street" v="Dorfstraße"/>
    <tag k="addr:city" v="Ismaning"/>
    <tag k="addr:housenumber" v="77"/>
  </node>
  <node id="606601568" version="4" timestamp="2011-10-30T12:03:13Z" uid="290680" user="wheelmap_visitor" changeset="9690785" lat="48.1645509" lon="11.5537554">
    <tag k="wheelchair" v="yes"/>
    <tag k="name" v="Hauptschule"/>
    <tag k="amenity" v="school"/>
  </node>
  <node id="616315092" version="5" timestamp="2010-04-10T12:35:29Z" uid="42393" user="mawi42" changeset="4382041" lat="48.1256679" lon="11.6173677">
    <tag k="website" v="http://www.schulamt-muenchen.musin.de/index.php?option=com_content&amp;view=article&amp;catid=20:grundschulen&amp;id=194:2183-grundschule-an-der-grafinger-strasse-71&amp;Itemid=35"/>
    <tag k="name" v="Grundschule an der Grafinger Straße"/>
    <tag k="amenity" v="school"/>
  </node>
  <node id="619332417" version="2" timestamp="2010-04-15T16:24:42Z" uid="70696" user="xybot" changeset="4431179" lat="48.0764239" lon="11.6639514">
    <tag k="phone" v="+49 89 61864"/>
    <tag k="website" v="http://www.musikschule-neubiberg.de"/>
    <tag k="email" v="info@musikschule-neubiberg.de"/>
    <tag k="name" v="Musikschule Neubiberg"/>
    <tag k="amenity" v="school"/>
    <tag k="opening_hours" v="Tu 10:00-13:00; We 10:00-13:00; Fr 10:00-13:00"/>
  </node>
  <node id="621140648" version="1" timestamp="2010-01-27T10:48:33Z" uid="225408" user="Flaminia11" changeset="3726763" lat="48.124461" lon="11.6019581">
    <tag k="name" v="Circulo Tanzschule"/>
    <tag k="amenity" v="school"/>
  </node>
  <node id="656248222" version="2" timestamp="2011-07-25T19:01:01Z" uid="64164" user="osmkurt" changeset="8828858" lat="48.1247064" lon="11.5820112">
    <tag k="name" v="Grundschule am Mariahilfplatz"/>
    <tag k="amenity" v="school"/>
  </node>
  <node id="656646642" version="1" timestamp="2010-02-28T20:38:39Z" uid="107037" user="ulfm" changeset="4002816" lat="48.1375516" lon="11.6302744">
    <tag k="name" v="Private Volksschule der Republik Griechenland &quot;ΣΩΚΡΑΤΗΣ&quot;"/>
    <tag k="amenity" v="school"/>
  </node>
  <node id="662495324" version="2" timestamp="2010-11-15T13:57:22Z" uid="65148" user="tixuwuoz" changeset="6377564" lat="48.0938423" lon="11.4992281">
    <tag k="addr:postcode" v="81476"/>
    <tag k="addr:country" v="DE"/>
    <tag k="name" v="Münchner Volkshochschule"/>
    <tag k="amenity" v="school"/>
    <tag k="addr:street" v="Forstenrieder Allee"/>
    <tag k="addr:city" v="München"/>
    <tag k="addr:housenumber" v="61"/>
  </node>
  <node id="669177262" version="2" timestamp="2010-05-30T00:16:45Z" uid="230707" user="stanton" changeset="4847617" lat="48.1107393" lon="11.5459791">
    <tag k="website" v="http://www.jism.de/"/>
    <tag k="name:jp" v="ミュンヘン日本人国際学校"/>
    <tag k="name" v="Japanische Internationale Schule München"/>
    <tag k="amenity" v="school"/>
    <tag k="addr:street" v="Bleyerstraße"/>
    <tag k="addr:housenumber" v="44"/>
  </node>
  <node id="671548674" version="3" timestamp="2011-11-27T00:35:23Z" uid="290680" user="wheelmap_visitor" changeset="9958928" lat="48.1084107" lon="11.6321107">
    <tag k="wheelchair" v="limited"/>
    <tag k="name" v="Grundschule am Strehleranger"/>
    <tag k="amenity" v="school"/>
  </node>
  <node id="674318763" version="2" timestamp="2011-02-21T23:00:16Z" uid="412573" user="Ulwald" changeset="7359137" lat="48.1002787" lon="11.6309073">
    <tag k="name" v="Grundschule am Pfanzeltplatz"/>
    <tag k="amenity" v="school"/>
  </node>
  <node id="676956220" version="1" timestamp="2010-03-28T19:42:38Z" uid="72235" user="Basstoelpel" changeset="4261241" lat="48.2021774" lon="11.5439239">
    <tag k="name" v="Internationale Montessori-Schule München"/>
    <tag k="amenity" v="school"/>
  </node>
  <node id="698066749" version="1" timestamp="2010-04-15T22:28:01Z" uid="107037" user="ulfm" changeset="4435124" lat="48.1603797" lon="11.5052161">
    <tag k="name" v="Grundschule Maria-Ward-Straße"/>
    <tag k="amenity" v="school"/>
    <tag k="addr:street" v="Maria-Ward-Straße"/>
    <tag k="addr:housenumber" v="1"/>
  </node>
  <node id="703266518" version="2" timestamp="2011-02-03T20:12:19Z" uid="8748" user="ToniE" changeset="7177410" lat="48.1387038" lon="11.5746772">
    <tag k="name" v="EAM School of International Business"/>
    <tag k="amenity" v="school"/>
  </node>
  <node id="724236114" version="1" timestamp="2010-05-06T15:23:31Z" uid="52171" user="HenryLoenwind" changeset="4622560" lat="48.1700276" lon="11.6463905">
    <tag k="amenity" v="school"/>
  </node>
  <node id="736790256" version="1" timestamp="2010-05-16T18:35:27Z" uid="287645" user="Don Kostino" changeset="4720824" lat="48.177256" lon="11.535889">
    <tag k="name" v="KFZ-Innung Berufsbildungszentrum"/>
    <tag k="amenity" v="school"/>
  </node>
  <node id="737231554" version="2" timestamp="2010-07-14T20:28:15Z" uid="8748" user="ToniE" changeset="5221501" lat="48.1013577" lon="11.6537589">
    <tag k="name" v="Staatliche Haupt- und Förderschule"/>
    <tag k="amenity" v="school"/>
  </node>
  <node id="768080089" version="2" timestamp="2011-10-17T15:31:00Z" uid="290680" user="wheelmap_visitor" changeset="9578325" lat="48.1158983" lon="11.6150202">
    <tag k="wheelchair" v="no"/>
    <tag k="name" v="Grund- und Hauptschule an der Führichstraße 53"/>
    <tag k="amenity" v="school"/>
  </node>
  <node id="768848726" version="2" timestamp="2010-11-15T13:56:26Z" uid="65148" user="tixuwuoz" changeset="6377564" lat="48.145819" lon="11.5630235">
    <tag k="addr:postcode" v="80333"/>
    <tag k="addr:country" v="DE"/>
    <tag k="name" v="Städtische Berufsoberschule"/>
    <tag k="amenity" v="school"/>
    <tag k="addr:street" v="Brienner Straße"/>
    <tag k="addr:city" v="München"/>
    <tag k="addr:housenumber" v="37"/>
  </node>
  <node id="780185038" version="1" timestamp="2010-06-21T21:02:56Z" uid="307650" user="Righard" changeset="5046614" lat="48.1936433" lon="11.3745775">
    <tag k="amenity" v="school"/>
  </node>
  <node id="835205260" version="1" timestamp="2010-07-27T09:16:51Z" uid="324542" user="ThSteinhoff" changeset="5327558" lat="48.1471724" lon="11.5292068">
    <tag k="name" v="Stiftung Journalistenakademie Dr. Hooffacker GmbH &amp; Co. KG"/>
    <tag k="amenity" v="school"/>
  </node>
  <node id="843805336" version="1" timestamp="2010-08-02T18:25:34Z" uid="90333" user="Quasimondo" changeset="5383247" lat="48.1491679" lon="11.5392141">
    <tag k="name" v="Ausbildungszentrum"/>
    <tag k="amenity" v="school"/>
  </node>
  <node id="846758859" version="2" timestamp="2010-08-06T09:12:50Z" uid="325677" user="Vulpeculus" changeset="5414932" lat="48.2488052" lon="11.6475279">
    <tag k="name" v="Grundschule Garching West"/>
    <tag k="amenity" v="school"/>
  </node>
  <node id="846758860" version="5" timestamp="2011-10-31T17:52:54Z" uid="546949" user="Moroff" changeset="9705869" lat="48.2487122" lon="11.6484184">
    <tag k="name" v="Mittelschule Garching bei München"/>
    <tag k="amenity" v="school"/>
  </node>
  <node id="847581200" version="2" timestamp="2010-11-25T15:44:55Z" uid="301486" user="occam11" changeset="6455488" lat="48.1618883" lon="11.5920649">
    <tag k="name" v="Grundschule an der Haimhauserstraße"/>
    <tag k="amenity" v="school"/>
  </node>
  <node id="862997698" version="1" timestamp="2010-08-16T09:54:42Z" uid="334094" user="jhahn8" changeset="5507809" lat="48.1499086" lon="11.4586949">
    <tag k="website" v="http://www.comenius-muenchen.de/"/>
    <tag k="name" v="Jan-Amos-Comenius-Schule"/>
    <tag k="amenity" v="school"/>
  </node>
  <node id="880531113" version="6" timestamp="2011-10-12T20:16:01Z" uid="290680" user="wheelmap_visitor" changeset="9535427" lat="48.1314897" lon="11.5653151">
    <tag k="addr:postcode" v="80337"/>
    <tag k="contact:fax" v="+49 89 26 55 51"/>
    <tag k="website" v="http://www.pasold-weissauer.de/"/>
    <tag k="contact:phone" v="+49 89 23 08 753"/>
    <tag k="amenity" v="school"/>
    <tag k="addr:street" v="Augsburgerstraße"/>
    <tag k="addr:city" v="München"/>
    <tag k="opening_hours" v="Mo-Fr 08:00-16:00;"/>
    <tag k="addr:housenumber" v="7"/>
    <tag k="contact:email" v="muenchen@pasold-weissauer.de"/>
    <tag k="wheelchair" v="no"/>
    <tag k="addr:country" v="DE"/>
    <tag k="name" v="Pasold-Weissauer-Schule"/>
  </node>
  <node id="888547815" version="8" timestamp="2011-03-09T12:12:57Z" uid="290680" user="wheelmap_visitor" changeset="7502135" lat="48.1539238" lon="11.544504">
    <tag k="addr:postcode" v="80686"/>
    <tag k="contact:fax" v="+49 89 18975957"/>
    <tag k="contact:phone" v="+49 89 18975950"/>
    <tag k="amenity" v="school"/>
    <tag k="addr:street" v="Kapschstraße"/>
    <tag k="addr:city" v="München"/>
    <tag k="addr:housenumber" v="4"/>
    <tag k="school:de" v="Abendschule"/>
    <tag k="contact:email" v="sekretariat@fas.musin.de"/>
    <tag k="school" v="secondary"/>
    <tag k="wheelchair" v="yes"/>
    <tag k="addr:country" v="DE"/>
    <tag k="name" v="Städtische Franz-Auweck-Abendschule"/>
    <tag k="contact:website" v="http://www.fas-musin.de/"/>
  </node>
  <node id="888554199" version="9" timestamp="2011-10-09T15:13:13Z" uid="534662" user="Q12" changeset="9513107" lat="48.1535748" lon="11.543684">
    <tag k="addr:postcode" v="80636"/>
    <tag k="contact:fax" v="+49 89 18975933"/>
    <tag k="contact:phone" v="+49 89 18975911"/>
    <tag k="amenity" v="school"/>
    <tag k="addr:street" v="Kapschstraße"/>
    <tag k="addr:city" v="München"/>
    <tag k="addr:housenumber" v="4"/>
    <tag k="school:de" v="Gymnasium"/>
    <tag k="school" v="secondary"/>
    <tag k="wheelchair" v="yes"/>
    <tag k="addr:country" v="DE"/>
    <tag k="name" v="Städtisches Adolf-Weber-Gymnasium"/>
    <tag k="contact:website" v="http://www.awg.musin.de/"/>
  </node>
  <node id="957257306" version="3" timestamp="2011-02-05T16:40:15Z" uid="8748" user="ToniE" changeset="7194421" lat="48.0764205" lon="11.6082278">
    <tag k="name" v="Volksschule an der Fasanenstraße"/>
    <tag k="amenity" v="school"/>
  </node>
  <node id="963675994" version="2" timestamp="2010-10-24T21:14:10Z" uid="72719" user="metaroll" changeset="6162821" lat="48.0896392" lon="11.403278">
    <tag k="building" v="yes"/>
    <tag k="name" v="Grundschule an der Würm"/>
    <tag k="amenity" v="school"/>
  </node>
  <node id="963944030" version="1" timestamp="2010-10-24T21:14:02Z" uid="72719" user="metaroll" changeset="6162821" lat="48.0881199" lon="11.409254">
    <tag k="name" v="Bauindustriezentrum Stockdorf"/>
    <tag k="amenity" v="school"/>
  </node>
  <node id="973833096" version="1" timestamp="2010-11-01T16:55:11Z" uid="81983" user="Ogmios" changeset="6257081" lat="48.1620262" lon="11.5684828">
    <tag k="addr:postcode" v="80796"/>
    <tag k="school:de" v="Sprachenschule"/>
    <tag k="wheelchair" v="no"/>
    <tag k="addr:country" v="DE"/>
    <tag k="name" v="alingnar Sprachenschule München"/>
    <tag k="amenity" v="school"/>
    <tag k="addr:street" v="Hohenzollernplatz"/>
    <tag k="addr:city" v="München"/>
    <tag k="addr:housenumber" v="5"/>
  </node>
  <node id="983178154" version="4" timestamp="2011-01-02T15:01:27Z" uid="29061" user="KPG" changeset="6838566" lat="48.1595883" lon="11.5777893">
    <tag k="name" v="Senioren Volkshochschule Schwabing"/>
    <tag k="amenity" v="school"/>
  </node>
  <node id="998213633" version="2" timestamp="2011-02-01T20:34:38Z" uid="290680" user="wheelmap_visitor" changeset="7156704" lat="48.0999884" lon="11.5361192">
    <tag k="wheelchair" v="no"/>
    <tag k="name" v="Boschetsrieder Schule"/>
    <tag k="amenity" v="school"/>
  </node>
  <node id="998543506" version="1" timestamp="2010-11-21T20:26:26Z" uid="298225" user="Flo-h-rian" changeset="6426508" lat="48.1846757" lon="11.6125103">
    <tag k="name" v="Max Planck Institute für Physik"/>
    <tag k="amenity" v="school"/>
  </node>
  <node id="1039009513" version="2" timestamp="2010-12-15T11:13:39Z" uid="194538" user="Audio" changeset="6666603" lat="48.1447683" lon="11.5612188">
    <tag k="name" v="Tanzschule Sennebogen"/>
    <tag k="sport" v="dancing"/>
    <tag k="amenity" v="school"/>
  </node>
  <node id="1041089943" version="2" timestamp="2011-10-19T16:53:21Z" uid="29061" user="KPG" changeset="9601322" lat="48.2052148" lon="11.6004143">
    <tag k="name" v="Münchner Volkshochschule Stadtteilzentrum Freimann"/>
    <tag k="amenity" v="school"/>
  </node>
  <node id="1076953106" version="1" timestamp="2011-01-01T14:35:53Z" uid="287645" user="Don Kostino" changeset="6828240" lat="48.1785187" lon="11.5307532">
    <tag k="name" v="Berufsbildung- und Technologiezentrum | Kaminkehrer-Innung Oberbayern"/>
    <tag k="amenity" v="school"/>
    <tag k="note" v="01-JAN-11 14:26:11"/>
  </node>
  <node id="1078797624" version="1" timestamp="2011-01-02T15:01:03Z" uid="29061" user="KPG" changeset="6838566" lat="48.1584352" lon="11.5875721">
    <tag k="name" v="Münchner Volkshochschule"/>
    <tag k="amenity" v="school"/>
  </node>
  <node id="1096318121" version="2" timestamp="2011-01-10T13:49:06Z" uid="392778" user="zumo220" changeset="6926383" lat="48.136899" lon="11.5828271">
    <tag k="addr:postcode" v="80539"/>
    <tag k="phone" v="+49-89-233-37083"/>
    <tag k="fax" v="+49-89-233-37084"/>
    <tag k="website" v="http://www.otto-falckenberg-schule.de/"/>
    <tag k="addr:country" v="DE"/>
    <tag k="description" v="Schauspielschule"/>
    <tag k="name" v="Otto-Falckenberg-Schule"/>
    <tag k="amenity" v="school"/>
    <tag k="addr:street" v="Stollbergstraße"/>
    <tag k="addr:city" v="München"/>
    <tag k="addr:housenumber" v="7a"/>
  </node>
  <node id="1096318127" version="3" timestamp="2011-01-12T21:34:41Z" uid="392778" user="zumo220" changeset="6952068" lat="48.1376177" lon="11.5822517">
    <tag k="addr:postcode" v="80539"/>
    <tag k="phone" v="+49-89-233-37083"/>
    <tag k="fax" v="+49-89-233-37084"/>
    <tag k="website" v="http://www.otto-falckenberg-schule.de/"/>
    <tag k="addr:country" v="DE"/>
    <tag k="description" v="Schauspielschule"/>
    <tag k="name" v="Otto-Falckenberg-Schule"/>
    <tag k="amenity" v="school"/>
    <tag k="addr:street" v="Falckenbergstraße"/>
    <tag k="addr:city" v="München"/>
    <tag k="addr:housenumber" v="2"/>
  </node>
  <node id="1125047717" version="2" timestamp="2011-02-05T14:45:42Z" uid="381750" user="andreaslrchr" changeset="7193182" lat="48.1750786" lon="11.5148006">
    <tag k="name" v="Grundschule am Amphionpark"/>
    <tag k="amenity" v="school"/>
  </node>
  <node id="1137541315" version="1" timestamp="2011-02-05T14:07:47Z" uid="23724" user="colonia" changeset="7192759" lat="48.1859374" lon="11.5365954">
    <tag k="source" v="survey"/>
    <tag k="name" v="Grundschule an der Dieselstraße"/>
    <tag k="amenity" v="school"/>
  </node>
  <node id="1142514805" version="2" timestamp="2011-10-16T21:00:35Z" uid="290680" user="wheelmap_visitor" changeset="9569216" lat="48.1351521" lon="11.5667011">
    <tag k="wheelchair" v="limited"/>
    <tag k="name" v="Evangelisches Bildungszentrum"/>
    <tag k="amenity" v="school"/>
  </node>
  <node id="1204315934" version="1" timestamp="2011-03-16T15:20:43Z" uid="422963" user="Terencehill" changeset="7576685" lat="48.1052097" lon="11.4345998">
    <tag k="addr:postcode" v="82152"/>
    <tag k="wheelchair" v="yes"/>
    <tag k="website" v="http://flg-online.de"/>
    <tag k="name" v="Feodor-Lynen-Gymnasium Planegg (Hauptgebäude)"/>
    <tag k="amenity" v="school"/>
    <tag k="addr:street" v="Feodor-Lynen-Straße"/>
    <tag k="addr:city" v="Planegg"/>
    <tag k="addr:housenumber" v="2"/>
  </node>
  <node id="1210164373" version="5" timestamp="2011-06-18T17:29:24Z" uid="6998" user="saerdnaer" changeset="8475785" lat="48.1809385" lon="11.5376118">
    <tag k="addr:postcode" v="80992"/>
    <tag k="building" v="entrance"/>
    <tag k="source" v="survey"/>
    <tag k="addr:country" v="DE"/>
    <tag k="name" v="Städt. Berufsschule für Medienberufe"/>
    <tag k="amenity" v="school"/>
    <tag k="addr:street" v="Riesstraße"/>
    <tag k="addr:city" v="München"/>
    <tag k="addr:housenumber" v="40"/>
  </node>
  <node id="1210164376" version="5" timestamp="2011-06-18T17:29:27Z" uid="6998" user="saerdnaer" changeset="8475785" lat="48.1794092" lon="11.5375157">
    <tag k="addr:postcode" v="80992"/>
    <tag k="building" v="entrance"/>
    <tag k="source" v="survey"/>
    <tag k="addr:country" v="DE"/>
    <tag k="name" v="Städt. Berufsschule für Steuern"/>
    <tag k="amenity" v="school"/>
    <tag k="addr:street" v="Riesstraße"/>
    <tag k="addr:city" v="München"/>
    <tag k="addr:housenumber" v="32"/>
  </node>
  <node id="1255559552" version="1" timestamp="2011-04-22T16:42:22Z" uid="8748" user="ToniE" changeset="7936231" lat="48.1167388" lon="11.6045152">
    <tag k="website" v="http://www.montessori-muenchen.de"/>
    <tag k="name" v="Integrative Montessori Volksschule"/>
    <tag k="amenity" v="school"/>
  </node>
  <node id="1300424499" version="2" timestamp="2011-09-05T10:17:22Z" uid="109029" user="shorty_de" changeset="9216239" lat="48.1771716" lon="11.461917">
    <tag k="addr:postcode" v="80999"/>
    <tag k="phone" v="0) 89 12 70 08 09"/>
    <tag k="fax" v="not available"/>
    <tag k="source" v="landsat"/>
    <tag k="website" v="http://www.taiji-openthedoor.de/"/>
    <tag k="email" v="petra_schmalenbach(a)hotmail.com,info(a)taiji-openthedoor.de"/>
    <tag k="addr:country" v="DE"/>
    <tag k="name" v="Tai-Chi-Schule Petra Schmalenbach"/>
    <tag k="amenity" v="school"/>
    <tag k="addr:street" v="Eversbuschstraße"/>
    <tag k="addr:city" v="München"/>
    <tag k="addr:housenumber" v="1"/>
  </node>
  <node id="1302026638" version="2" timestamp="2011-05-28T10:59:43Z" uid="408273" user="Tiramon" changeset="8270488" lat="48.1367252" lon="11.4611949">
    <tag k="name" v="Private Wirtschaftsschule Kermess e. V."/>
    <tag k="amenity" v="school"/>
  </node>
  <node id="1302026639" version="2" timestamp="2011-05-27T21:09:57Z" uid="342705" user="KLMB" changeset="8266846" lat="48.1395422" lon="11.4615642">
    <tag k="name" v="Private Wirtschaftsschule begemann e. V."/>
    <tag k="contact:website" v="http://www.ws-begemann.de/"/>
    <tag k="amenity" v="school"/>
  </node>
  <node id="1329468313" version="4" timestamp="2011-06-18T17:29:26Z" uid="6998" user="saerdnaer" changeset="8475785" lat="48.1801964" lon="11.5375651">
    <tag k="addr:postcode" v="80992"/>
    <tag k="building" v="entrance"/>
    <tag k="source" v="survey"/>
    <tag k="addr:country" v="DE"/>
    <tag k="name" v="Städt. Berufsschule für Bürokommunikation und Industriekaufleute"/>
    <tag k="amenity" v="school"/>
    <tag k="addr:street" v="Riesstraße"/>
    <tag k="addr:city" v="München"/>
    <tag k="url" v="www.bkik.musin.de"/>
    <tag k="addr:housenumber" v="36"/>
  </node>
  <node id="1329468327" version="4" timestamp="2011-06-18T17:29:24Z" uid="6998" user="saerdnaer" changeset="8475785" lat="48.1805848" lon="11.5375895">
    <tag k="addr:postcode" v="80992"/>
    <tag k="building" v="entrance"/>
    <tag k="source" v="survey"/>
    <tag k="addr:country" v="DE"/>
    <tag k="name" v="Städt. Berufsschule für den Einzelhandel -Standort Nord-"/>
    <tag k="amenity" v="school"/>
    <tag k="addr:street" v="Riesstraße"/>
    <tag k="addr:city" v="München"/>
    <tag k="addr:housenumber" v="38"/>
  </node>
  <node id="1329468329" version="4" timestamp="2011-06-18T17:29:25Z" uid="6998" user="saerdnaer" changeset="8475785" lat="48.1797854" lon="11.5375393">
    <tag k="addr:postcode" v="80992"/>
    <tag k="building" v="entrance"/>
    <tag k="source" v="survey"/>
    <tag k="addr:country" v="DE"/>
    <tag k="name" v="Städt. Berufsschule für Informationstechnik"/>
    <tag k="amenity" v="school"/>
    <tag k="addr:street" v="Riesstraße"/>
    <tag k="addr:city" v="München"/>
    <tag k="url" v="www.bsinfo.musin.de"/>
    <tag k="addr:housenumber" v="34"/>
  </node>
  <node id="1334636648" version="1" timestamp="2011-06-22T16:31:49Z" uid="80117" user="kartenleser" changeset="8515702" lat="48.0825437" lon="11.4845873">
    <tag k="addr:postcode" v="81475"/>
    <tag k="addr:country" v="DE"/>
    <tag k="name" v="Tanzschule Armin Siebenhüner"/>
    <tag k="amenity" v="school"/>
    <tag k="addr:street" v="Königswieser Straße"/>
    <tag k="addr:city" v="München"/>
    <tag k="addr:housenumber" v="5"/>
  </node>
  <node id="1351105248" version="2" timestamp="2011-07-07T14:03:55Z" uid="290680" user="wheelmap_visitor" changeset="8656080" lat="48.1048255" lon="11.5686163">
    <tag k="addr:postcode" v="81547"/>
    <tag k="wheelchair" v="yes"/>
    <tag k="name" v="Bayerische Landesschule für Körperbehinderte"/>
    <tag k="amenity" v="school"/>
    <tag k="addr:housename" v="Bayerische Landesschule für Körperbehinderte"/>
    <tag k="addr:street" v="Kurzstraße"/>
    <tag k="addr:housenumber" v="2"/>
  </node>
  <node id="1353394468" version="3" timestamp="2011-07-08T04:28:41Z" uid="64164" user="osmkurt" changeset="8662846" lat="48.1390424" lon="11.5990007">
    <tag k="website" v="http://www.freies-musikzentrum.de/"/>
    <tag k="name" v="Freies Musikzentrum"/>
    <tag k="amenity" v="school"/>
  </node>
  <node id="1374115310" version="3" timestamp="2011-07-25T19:53:20Z" uid="64164" user="osmkurt" changeset="8828858" lat="48.1246074" lon="11.5846151">
    <tag k="name" v="Kirchl. Fachakademie + Berufsfachschle für Hauswirtschaft"/>
    <tag k="amenity" v="school"/>
    <tag k="operator" v="Arme Schulschwestern von Unserer Lieben Frau"/>
  </node>
  <node id="1374119356" version="1" timestamp="2011-07-25T19:17:38Z" uid="64164" user="osmkurt" changeset="8828858" lat="48.1247578" lon="11.5841457">
    <tag k="name" v="Kirchl. Fachakademie für Sozialpädagogik"/>
    <tag k="amenity" v="school"/>
    <tag k="operator" v="Arme Schulschwestern von Unserer Lieben Frau"/>
  </node>
  <node id="1374155601" version="3" timestamp="2011-07-25T23:35:44Z" uid="64164" user="osmkurt" changeset="8831301" lat="48.1251678" lon="11.5845909">
    <tag k="name" v="Theresia-Gerhardinger- Mädchenrealschule"/>
    <tag k="amenity" v="school"/>
    <tag k="operator" v="Erzdiözese München und Freising"/>
  </node>
  <node id="1375373861" version="1" timestamp="2011-07-27T02:27:11Z" uid="64164" user="osmkurt" changeset="8841378" lat="48.1290501" lon="11.5890669">
    <tag k="website" v="www.schulverbund.de"/>
    <tag k="name" v="Privat-Schulverband München"/>
    <tag k="amenity" v="school"/>
  </node>
  <node id="1393352250" version="1" timestamp="2011-08-10T06:42:28Z" uid="503836" user="MKEMKE" changeset="8973442" lat="48.1495041" lon="11.7298456">
    <tag k="name" v="Grundschule Feldkirchen"/>
    <tag k="amenity" v="school"/>
  </node>
  <node id="1398770465" version="3" timestamp="2012-01-06T23:15:00Z" uid="13354" user="ivl1705" changeset="10316936" lat="48.1590643" lon="11.5856239">
    <tag k="addr:postcode" v="80802"/>
    <tag k="wheelchair" v="no"/>
    <tag k="wheelchair:description" v="Stufe"/>
    <tag k="addr:country" v="DE"/>
    <tag k="name" v="Sprachschule Belitz"/>
    <tag k="amenity" v="school"/>
    <tag k="addr:street" v="Nikolaistraße"/>
    <tag k="addr:state" v="Bayern"/>
    <tag k="addr:city" v="München"/>
    <tag k="addr:housenumber" v="56a"/>
  </node>
  <node id="1404237396" version="2" timestamp="2011-08-19T04:23:54Z" uid="64164" user="osmkurt" changeset="9062213" lat="48.1479164" lon="11.6023497">
    <tag k="name" v="Städtische Sing- und Musikschule (Festsaal)"/>
    <tag k="amenity" v="school"/>
  </node>
  <node id="1404255268" version="3" timestamp="2011-08-19T04:49:26Z" uid="64164" user="osmkurt" changeset="9062213" lat="48.1484604" lon="11.6022263">
    <tag k="name" v="Städtische Berufsschule zur Berufsvorbereitung"/>
    <tag k="amenity" v="school"/>
  </node>
  <node id="1405087466" version="1" timestamp="2011-08-20T00:21:44Z" uid="64164" user="osmkurt" changeset="9069895" lat="48.1473872" lon="11.6012103">
    <tag k="name" v="Bilinguale Grundschule Phorms"/>
    <tag k="amenity" v="school"/>
    <tag k="operator" v="Phorms Bavaria gGmbH"/>
  </node>
  <node id="1405087468" version="1" timestamp="2011-08-20T00:21:45Z" uid="64164" user="osmkurt" changeset="9069895" lat="48.1470168" lon="11.6013766">
    <tag k="name" v="Bilinguales Gymnasium Phorms"/>
    <tag k="amenity" v="school"/>
    <tag k="operator" v="Phorms Bavaria gGmbH"/>
  </node>
  <node id="1436456091" version="1" timestamp="2011-09-18T13:43:54Z" uid="495268" user="WLG" changeset="9332826" lat="48.15373" lon="11.585">
    <tag k="wheelchair" v="limited"/>
    <tag k="wheelchair:description" v="Grenzwertig: Eingangsschwelle mit Aktiv-Rolli problemlos, mit E-Rolli  kaum möglich. Kein Rolli-WC"/>
    <tag k="name" v="Fremdsprachenschule Cosmopolitan"/>
    <tag k="amenity" v="school"/>
    <tag k="addr:street" v="Kaulbachstraße"/>
    <tag k="addr:city" v="München"/>
  </node>
  <node id="1472190781" version="1" timestamp="2011-10-18T17:45:29Z" uid="18015" user="chan" changeset="9593234" lat="48.1346515" lon="11.579301">
    <tag k="name" v="Riemerschmid Wirtschaftsschule"/>
    <tag k="amenity" v="school"/>
    <tag k="addr:housenumber" v="19"/>
  </node>
  <node id="1505207965" version="2" timestamp="2012-01-06T23:14:30Z" uid="13354" user="ivl1705" changeset="10316936" lat="48.1167503" lon="11.5333909">
    <tag k="addr:postcode" v="81369"/>
    <tag k="addr:country" v="DE"/>
    <tag k="name" v="Fahrschule Schechinger"/>
    <tag k="amenity" v="school"/>
    <tag k="addr:street" v="Albert-Roßhaupter-Straße"/>
    <tag k="addr:state" v="Bayern"/>
    <tag k="addr:city" v="München"/>
    <tag k="addr:housenumber" v="2"/>
  </node>
  <node id="1523655119" version="1" timestamp="2011-11-29T20:15:09Z" uid="8748" user="ToniE" changeset="9991900" lat="48.0720274" lon="11.6674061">
    <tag k="name" v="Montessori-Schule"/>
    <tag k="amenity" v="school"/>
  </node>
  <node id="1538010336" version="1" timestamp="2011-12-09T11:23:26Z" uid="107899" user="Ossi58" changeset="10072265" lat="48.1577399" lon="11.5099371">
    <tag k="source" v="Local_Knowledge"/>
    <tag k="name" v="Sudliche Aussfahrtallee Grundschule"/>
    <tag k="amenity" v="school"/>
  </node>
  <node id="1576527684" version="5" timestamp="2012-01-04T14:56:06Z" uid="64164" user="osmkurt" changeset="10291456" lat="48.1336093" lon="11.5728245">
    <tag k="website" v="http://www.gs-am-anger.de"/>
    <tag k="name" v="Theresia-Gerhardinger-Grundschule am Anger"/>
    <tag k="amenity" v="school"/>
    <tag k="operator" v="Arme Schulschwestern von Unserer Lieben Frau"/>
  </node>
  <node id="1576528339" version="3" timestamp="2012-01-04T10:17:35Z" uid="64164" user="osmkurt" changeset="10289318" lat="48.1333479" lon="11.5721671">
    <tag k="website" v="http://www.tggaa.de/"/>
    <tag k="name" v="Theresia-Gerhardinger-Gymnasium am Anger"/>
    <tag k="amenity" v="school"/>
    <tag k="operator" v="Arme Schulschwestern von Unserer Lieben Frau"/>
  </node>
  <node id="1576878481" version="1" timestamp="2012-01-04T15:17:31Z" uid="64164" user="osmkurt" changeset="10291456" lat="48.132046" lon="11.5770107">
    <tag k="name" v="Schule der Phantasie"/>
    <tag k="amenity" v="school"/>
  </node>
  <node id="1578127780" version="1" timestamp="2012-01-05T13:25:38Z" uid="111287" user="evmuc" changeset="10300808" lat="48.156631" lon="11.5625116">
    <tag k="name" v="Sprachschule"/>
    <tag k="amenity" v="school"/>
  </node>
  <node id="1580719014" version="1" timestamp="2012-01-07T10:21:00Z" uid="51782" user="maxbe" changeset="10319599" lat="48.1738517" lon="11.7124593">
    <tag k="addr:postcode" v="85609"/>
    <tag k="addr:country" v="DE"/>
    <tag k="name" v="Kelten-Grundschule Aschheim"/>
    <tag k="amenity" v="school"/>
    <tag k="addr:street" v="Herdweg"/>
    <tag k="addr:city" v="Aschheim"/>
    <tag k="addr:housenumber" v="16"/>
  </node>
</osm>
