<?xml version='1.0' encoding='UTF-8'?>
<osm version="0.6" generator="Osmosis SNAPSHOT-r26564">
  <node id="26603835" version="4" timestamp="2011-09-29T12:55:33Z" uid="290680" user="wheelmap_visitor" changeset="9424500" lat="48.1271689" lon="11.6548092">
    <tag k="shop" v="supermarket"/>
    <tag k="wheelchair" v="yes"/>
    <tag k="name" v="Lidl"/>
  </node>
  <node id="26603836" version="8" timestamp="2009-08-07T09:46:39Z" uid="31231" user="Andre68" changeset="2063492" lat="48.12495" lon="11.6548507">
    <tag k="addr:postcode" v="81825"/>
    <tag k="shop" v="supermarket"/>
    <tag k="addr:country" v="DE"/>
    <tag k="name" v="Tengelmann"/>
    <tag k="addr:street" v="Kreillerstraße"/>
    <tag k="addr:city" v="München"/>
    <tag k="addr:housenumber" v="151"/>
    <tag k="opening_hours" v="Mo-Fr 08:00-20:00; Sa 07:30-20:00"/>
  </node>
  <node id="27212498" version="3" timestamp="2008-10-31T20:34:23Z" uid="75379" user="jpf" changeset="645102" lat="48.1109756" lon="11.6277222">
    <tag k="created_by" v="Potlatch 0.10f"/>
    <tag k="shop" v="supermarket"/>
    <tag k="name" v="Tengelmann"/>
  </node>
  <node id="34508736" version="4" timestamp="2011-10-02T22:57:10Z" uid="290680" user="wheelmap_visitor" changeset="9447804" lat="48.1203559" lon="11.4824918">
    <tag k="shop" v="supermarket"/>
    <tag k="wheelchair" v="yes"/>
    <tag k="name" v="Aldi"/>
  </node>
  <node id="40999232" version="12" timestamp="2011-11-11T13:37:55Z" uid="290680" user="wheelmap_visitor" changeset="9794046" lat="48.123259" lon="11.6695112">
    <tag k="addr:postcode" v="81825"/>
    <tag k="shop" v="supermarket"/>
    <tag k="wheelchair" v="yes"/>
    <tag k="addr:country" v="DE"/>
    <tag k="name" v="Aldi (Süd)"/>
    <tag k="addr:street" v="Bognerhofweg"/>
    <tag k="addr:city" v="München"/>
    <tag k="addr:housenumber" v="5"/>
    <tag k="opening_hours" v="Mo-Fr 08:00-20:00;Sa 08:00-20:00"/>
  </node>
  <node id="42448606" version="10" timestamp="2009-07-07T13:37:47Z" uid="59819" user="Fuss-im-Ohr" changeset="1761905" lat="48.1752208" lon="11.7185836">
    <tag k="shop" v="supermarket"/>
    <tag k="name" v="Rewe"/>
  </node>
  <node id="70917868" version="6" timestamp="2010-11-06T19:09:16Z" uid="290680" user="wheelmap_visitor" changeset="6300162" lat="48.1819693" lon="11.4758265">
    <tag k="shop" v="supermarket"/>
    <tag k="wheelchair" v="limited"/>
    <tag k="name" v="Tengelmann"/>
  </node>
  <node id="71412887" version="13" timestamp="2011-09-28T17:55:34Z" uid="8748" user="ToniE" changeset="9421465" lat="48.0651825" lon="11.6645696">
    <tag k="shoes" v="supermarket"/>
    <tag k="shop" v="supermarket"/>
    <tag k="source" v="survey"/>
    <tag k="wheelchair" v="yes"/>
    <tag k="wheelchair:description" v="Aufzug zum Parkenhaus im Untergeschoss, Laufband in den 1. Stock"/>
    <tag k="name" v="Tengelmann"/>
    <tag k="wheelchair:description:de" v="Aufzug zum Parkenhaus im Untergeschoss, Laufband in den 1. Stock"/>
    <tag k="opening_hours" v="Mo-Sa 07:00-20:00"/>
  </node>
  <node id="71412898" version="8" timestamp="2011-10-20T10:03:21Z" uid="290680" user="wheelmap_visitor" changeset="9604904" lat="48.064573" lon="11.6529285">
    <tag k="shop" v="supermarket"/>
    <tag k="source" v="survey"/>
    <tag k="wheelchair" v="yes"/>
    <tag k="name" v="Lidl"/>
  </node>
  <node id="82504547" version="5" timestamp="2011-05-16T13:32:24Z" uid="290680" user="wheelmap_visitor" changeset="8160663" lat="48.2183924" lon="11.6649981">
    <tag k="shop" v="supermarket"/>
    <tag k="wheelchair" v="yes"/>
    <tag k="name" v="Tengelmann"/>
  </node>
  <node id="82504550" version="8" timestamp="2011-06-21T20:43:41Z" uid="56526" user="JJ Rammerl" changeset="8508571" lat="48.2252898" lon="11.6715021">
    <tag k="shop" v="supermarket"/>
    <tag k="wheelchair" v="yes"/>
    <tag k="name" v="Netto"/>
    <tag k="opening_hours" v="Mo-Sa 07:00-20:00"/>
  </node>
  <node id="92646611" version="7" timestamp="2011-09-27T20:00:05Z" uid="8748" user="ToniE" changeset="9414174" lat="48.0630641" lon="11.6770758">
    <tag k="shop" v="supermarket"/>
    <tag k="source" v="survey"/>
    <tag k="wheelchair" v="yes"/>
    <tag k="name" v="Tengelmann"/>
  </node>
  <node id="94081306" version="5" timestamp="2011-11-23T15:57:22Z" uid="290680" user="wheelmap_visitor" changeset="9918189" lat="48.189484" lon="11.6432533">
    <tag k="addr:postcode" v="85774"/>
    <tag k="shop" v="supermarket"/>
    <tag k="wheelchair" v="yes"/>
    <tag k="addr:country" v="DE"/>
    <tag k="name" v="Tengelmann"/>
    <tag k="addr:street" v="Firkenweg"/>
    <tag k="addr:city" v="Unterföhring"/>
    <tag k="addr:housenumber" v="1"/>
  </node>
  <node id="148067329" version="8" timestamp="2011-02-27T12:54:13Z" uid="323389" user="Michael_H" changeset="7410270" lat="48.1283002" lon="11.376466">
    <tag k="addr:postcode" v="82110"/>
    <tag k="shop" v="supermarket"/>
    <tag k="name" v="Netto"/>
    <tag k="addr:street" v="Hartstraße"/>
    <tag k="addr:city" v="Germering"/>
    <tag k="operator" v="Netto"/>
    <tag k="addr:housenumber" v="52"/>
  </node>
  <node id="148652615" version="3" timestamp="2011-10-20T09:49:06Z" uid="290680" user="wheelmap_visitor" changeset="9604904" lat="48.1296217" lon="11.3667165">
    <tag k="shop" v="supermarket"/>
    <tag k="wheelchair" v="yes"/>
    <tag k="name" v="Edeka"/>
  </node>
  <node id="148661016" version="7" timestamp="2011-10-02T22:04:50Z" uid="290680" user="wheelmap_visitor" changeset="9447804" lat="48.1377606" lon="11.3745809">
    <tag k="addr:postcode" v="82110"/>
    <tag k="shop" v="supermarket"/>
    <tag k="phone" v="+49-89-8943900"/>
    <tag k="wheelchair" v="yes"/>
    <tag k="addr:country" v="DE"/>
    <tag k="name" v="AEZ"/>
    <tag k="addr:street" v="Münchener Straße"/>
    <tag k="addr:city" v="Germering"/>
    <tag k="addr:housenumber" v="1"/>
  </node>
  <node id="157413313" version="10" timestamp="2011-10-31T16:46:22Z" uid="290680" user="wheelmap_visitor" changeset="9700443" lat="48.0671025" lon="11.3804045">
    <tag k="shop" v="supermarket"/>
    <tag k="wheelchair" v="no"/>
    <tag k="name" v="Tengelmann"/>
  </node>
  <node id="178428448" version="7" timestamp="2011-11-03T10:05:45Z" uid="482628" user="gumul" changeset="9728728" lat="48.0656497" lon="11.3815159">
    <tag k="shop" v="supermarket"/>
    <tag k="wheelchair" v="yes"/>
    <tag k="name" v="Netto"/>
  </node>
  <node id="192301221" version="6" timestamp="2011-10-14T15:50:35Z" uid="290680" user="wheelmap_visitor" changeset="9552229" lat="48.1656323" lon="11.7286985">
    <tag k="addr:postcode" v="85609"/>
    <tag k="shop" v="supermarket"/>
    <tag k="wheelchair" v="yes"/>
    <tag k="addr:country" v="DE"/>
    <tag k="name" v="Aldi (Süd)"/>
    <tag k="addr:housename" v="Aldi (Süd)"/>
    <tag k="addr:street" v="Ludwig-Thoma-Straße"/>
    <tag k="addr:city" v="Aschheim"/>
    <tag k="addr:housenumber" v="2"/>
    <tag k="opening_hours" v="Mo-Sa 08:00-20:00"/>
  </node>
  <node id="192304081" version="4" timestamp="2010-09-11T20:50:59Z" uid="149706" user="Garmin765T" changeset="5753675" lat="48.1760565" lon="11.7191587">
    <tag k="shop" v="supermarket"/>
    <tag k="name" v="Rewe Getränkemarkt"/>
  </node>
  <node id="197097837" version="7" timestamp="2009-09-02T14:18:25Z" uid="85761" user="klausis" changeset="2348704" lat="48.1077093" lon="11.6369237">
    <tag k="shop" v="supermarket"/>
    <tag k="name" v="Mix Markt"/>
  </node>
  <node id="198191872" version="3" timestamp="2011-10-11T14:29:00Z" uid="290680" user="wheelmap_visitor" changeset="9527581" lat="48.1881614" lon="11.5029817">
    <tag k="shop" v="supermarket"/>
    <tag k="wheelchair" v="yes"/>
    <tag k="name" v="Aldi"/>
  </node>
  <node id="198207658" version="2" timestamp="2009-09-04T13:39:31Z" uid="85761" user="klausis" changeset="2369376" lat="48.1816377" lon="11.5345765">
    <tag k="shop" v="supermarket"/>
    <tag k="name" v="Lidl"/>
  </node>
  <node id="199335016" version="7" timestamp="2011-08-03T14:32:53Z" uid="13219" user="Pyrokrat" changeset="8910583" lat="48.0759932" lon="11.6584544">
    <tag k="shop" v="supermarket"/>
    <tag k="addr:postcode" v="85579"/>
    <tag k="phone" v="+49 89 66002219"/>
    <tag k="website" v="http://rewe.de"/>
    <tag k="addr:street" v="Äußere Hauptstraße"/>
    <tag k="operator" v="REWE Markt GmbH"/>
    <tag k="addr:city" v="Neubiberg"/>
    <tag k="opening_hours" v="Mo-Sa 07:00-20:00"/>
    <tag k="addr:housenumber" v="3"/>
    <tag k="email" v="rewe-neubiberg@rewe-maerkte.de"/>
    <tag k="wheelchair" v="yes"/>
    <tag k="addr:country" v="DE"/>
    <tag k="name" v="REWE"/>
  </node>
  <node id="224263518" version="6" timestamp="2011-08-01T20:55:47Z" uid="16398" user="Linux" changeset="8895298" lat="48.1974908" lon="11.6262211">
    <tag k="addr:postcode" v="80939"/>
    <tag k="shop" v="supermarket"/>
    <tag k="website" v="http://www.aldi-sued.de/"/>
    <tag k="addr:country" v="DE"/>
    <tag k="name" v="Aldi (Süd)"/>
    <tag k="addr:street" v="Freisinger Landstraße"/>
    <tag k="addr:city" v="München"/>
    <tag k="addr:housenumber" v="64"/>
    <tag k="opening_hours" v="Mo-Fr 08:00-20:00;Sa 08:00-20:00"/>
  </node>
  <node id="238410512" version="4" timestamp="2011-06-04T09:16:09Z" uid="290680" user="wheelmap_visitor" changeset="8336814" lat="48.1829348" lon="11.5732321">
    <tag k="shop" v="supermarket"/>
    <tag k="wheelchair" v="yes"/>
    <tag k="name" v="Feneberg"/>
  </node>
  <node id="238410516" version="4" timestamp="2011-10-07T11:46:28Z" uid="290680" user="wheelmap_visitor" changeset="9490517" lat="48.1839477" lon="11.5722107">
    <tag k="shop" v="supermarket"/>
    <tag k="wheelchair" v="yes"/>
    <tag k="name" v="Lidl"/>
  </node>
  <node id="241779303" version="4" timestamp="2011-04-13T14:21:57Z" uid="342705" user="KLMB" changeset="7852343" lat="48.1544336" lon="11.4698608">
    <tag k="shop" v="supermarket"/>
    <tag k="name" v="Tengelmann"/>
  </node>
  <node id="243502107" version="4" timestamp="2011-06-11T12:13:47Z" uid="48130" user="joerg_s" changeset="8405374" lat="48.0991405" lon="11.654099">
    <tag k="shop" v="supermarket"/>
    <tag k="source" v="survey"/>
    <tag k="name" v="REWE (geschlossen)"/>
    <tag k="note" v="Seit  11.6.11 12:00 geschlossen"/>
  </node>
  <node id="243877009" version="4" timestamp="2010-11-15T22:00:01Z" uid="42875" user="burnus" changeset="6381228" lat="48.076121" lon="11.6637037">
    <tag k="shop" v="supermarket"/>
    <tag k="source" v="survey"/>
    <tag k="wheelchair" v="yes"/>
    <tag k="name" v="Tengelmann"/>
  </node>
  <node id="244038430" version="3" timestamp="2011-06-02T15:58:25Z" uid="64008" user="E-Malte" changeset="8321282" lat="48.1503542" lon="11.5638994">
    <tag k="shop" v="supermarket"/>
    <tag k="name" v="Spar"/>
  </node>
  <node id="244191630" version="5" timestamp="2011-04-24T10:02:35Z" uid="8748" user="ToniE" changeset="7951150" lat="48.0693831" lon="11.6771902">
    <tag k="shop" v="supermarket"/>
    <tag k="source" v="survey"/>
    <tag k="name" v="Norma"/>
  </node>
  <node id="246782551" version="8" timestamp="2011-07-09T17:04:58Z" uid="290680" user="wheelmap_visitor" changeset="8675484" lat="48.1319047" lon="11.3800229">
    <tag k="addr:postcode" v="82110"/>
    <tag k="shop" v="supermarket"/>
    <tag k="source" v="survey"/>
    <tag k="wheelchair" v="yes"/>
    <tag k="addr:country" v="DE"/>
    <tag k="name" v="Aldi"/>
    <tag k="addr:street" v="Industriestraße"/>
    <tag k="addr:city" v="Germering"/>
    <tag k="operator" v="ALDI Süd"/>
    <tag k="addr:housenumber" v="24"/>
  </node>
  <node id="247246823" version="3" timestamp="2011-10-02T21:05:20Z" uid="290680" user="wheelmap_visitor" changeset="9447804" lat="48.0699966" lon="11.6827513">
    <tag k="created_by" v="JOSM"/>
    <tag k="shop" v="supermarket"/>
    <tag k="source" v="survey"/>
    <tag k="wheelchair" v="yes"/>
    <tag k="name" v="REWE"/>
  </node>
  <node id="247676305" version="9" timestamp="2011-10-16T11:33:43Z" uid="336643" user="BigBen2003" changeset="9571359" lat="48.1615718" lon="11.5688475">
    <tag k="addr:postcode" v="80796"/>
    <tag k="shop" v="supermarket"/>
    <tag k="payment:debit_cards" v="yes"/>
    <tag k="source" v="survey"/>
    <tag k="wheelchair" v="no"/>
    <tag k="addr:country" v="DE"/>
    <tag k="name" v="Netto City"/>
    <tag k="addr:street" v="Hohenzollernplatz"/>
    <tag k="addr:city" v="München"/>
    <tag k="addr:housenumber" v="7"/>
    <tag k="opening_hours" v="Mo-Sa 07:00-20:00"/>
  </node>
  <node id="256487540" version="8" timestamp="2011-10-11T14:05:54Z" uid="290680" user="wheelmap_visitor" changeset="9527581" lat="48.1948081" lon="11.5973784">
    <tag k="shop" v="supermarket"/>
    <tag k="phone" v="089 318810"/>
    <tag k="wheelchair" v="yes"/>
    <tag k="name" v="real,-"/>
  </node>
  <node id="256488118" version="4" timestamp="2010-10-22T10:57:13Z" uid="290680" user="wheelmap_visitor" changeset="6133243" lat="48.2019688" lon="11.5880249">
    <tag k="shop" v="supermarket"/>
    <tag k="wheelchair" v="yes"/>
    <tag k="name" v="ALDI"/>
  </node>
  <node id="256488148" version="7" timestamp="2011-10-16T11:33:49Z" uid="336643" user="BigBen2003" changeset="9571359" lat="48.2019798" lon="11.5889112">
    <tag k="addr:postcode" v="80939"/>
    <tag k="shop" v="supermarket"/>
    <tag k="addr:country" v="DE"/>
    <tag k="name" v="netto"/>
    <tag k="addr:street" v="Heidemannstraße"/>
    <tag k="addr:city" v="München"/>
    <tag k="addr:housenumber" v="17"/>
    <tag k="opening_hours" v="Mo-Sa 07:00-20:00"/>
  </node>
  <node id="258170375" version="3" timestamp="2009-03-06T21:40:04Z" uid="64159" user="Quelbs" changeset="746037" lat="48.2116497" lon="11.580475">
    <tag k="shop" v="supermarket"/>
    <tag k="name" v="Tengelmann"/>
  </node>
  <node id="258170405" version="6" timestamp="2011-10-16T11:33:48Z" uid="336643" user="BigBen2003" changeset="9571359" lat="48.2094691" lon="11.5669552">
    <tag k="addr:postcode" v="80937"/>
    <tag k="shop" v="supermarket"/>
    <tag k="wheelchair" v="yes"/>
    <tag k="addr:country" v="DE"/>
    <tag k="name" v="Netto"/>
    <tag k="addr:street" v="Schneeheideanger"/>
    <tag k="addr:city" v="München"/>
    <tag k="addr:housenumber" v="4"/>
    <tag k="opening_hours" v="Mo-Sa 07:00-20:00"/>
  </node>
  <node id="258189045" version="3" timestamp="2011-10-07T23:11:00Z" uid="290680" user="wheelmap_visitor" changeset="9490517" lat="48.2040353" lon="11.5634022">
    <tag k="shop" v="supermarket"/>
    <tag k="wheelchair" v="limited"/>
    <tag k="name" v="Tengelmann"/>
  </node>
  <node id="258189048" version="3" timestamp="2011-06-13T22:34:04Z" uid="469939" user="fredero" changeset="8432455" lat="48.207334" lon="11.5639276">
    <tag k="shop" v="supermarket"/>
    <tag k="wheelchair" v="yes"/>
    <tag k="name" v="Aldi"/>
  </node>
  <node id="260432959" version="4" timestamp="2011-05-09T19:44:04Z" uid="8748" user="ToniE" changeset="8096166" lat="48.1052349" lon="11.6017074">
    <tag k="addr:postcode" v="81549"/>
    <tag k="shop" v="supermarket"/>
    <tag k="phone" v="+49 89 68002496"/>
    <tag k="wheelchair" v="yes"/>
    <tag k="website" v="http://www.netto-online.de"/>
    <tag k="addr:country" v="DE"/>
    <tag k="name" v="Netto"/>
    <tag k="addr:street" v="Aschauer Straße"/>
    <tag k="addr:city" v="München"/>
    <tag k="addr:housenumber" v="19"/>
    <tag k="opening_hours" v="Mo-Sa 07:00-20:00"/>
  </node>
  <node id="260481544" version="4" timestamp="2009-04-22T17:35:20Z" uid="113364" user="BR0SI" changeset="901805" lat="48.0928006" lon="11.4137861">
    <tag k="created_by" v="Potlatch 0.8b"/>
    <tag k="shop" v="supermarket"/>
    <tag k="name" v="NORMA"/>
  </node>
  <node id="260796537" version="5" timestamp="2010-02-16T12:29:37Z" uid="70696" user="xybot" changeset="3891719" lat="48.120714" lon="11.6122492">
    <tag k="poi" v="shop.supermarket"/>
    <tag k="shop" v="supermarket"/>
    <tag k="name" v="Nahkauf"/>
    <tag k="addr:street" v="Melusinenstraße"/>
    <tag k="addr:housenumber" v="2"/>
    <tag k="opening_hours" v="mo-sa 08:00-20:00"/>
  </node>
  <node id="261681612" version="4" timestamp="2011-07-07T17:15:56Z" uid="56526" user="JJ Rammerl" changeset="8656395" lat="48.1785659" lon="11.6357754">
    <tag k="addr:postcode" v="85774"/>
    <tag k="shop" v="supermarket"/>
    <tag k="addr:country" v="DE"/>
    <tag k="name" v="Aldi (Süd)"/>
    <tag k="addr:street" v="Feringastraße"/>
    <tag k="addr:city" v="München"/>
    <tag k="addr:housenumber" v="15"/>
    <tag k="opening_hours" v="Mo-Fr 08:00-20:00;Sa 08:00-20:00"/>
  </node>
  <node id="261681613" version="3" timestamp="2011-08-10T05:32:15Z" uid="336643" user="BigBen2003" changeset="8973134" lat="48.1776781" lon="11.6364808">
    <tag k="addr:postcode" v="85774"/>
    <tag k="shop" v="supermarket"/>
    <tag k="phone" v="+49 (0) 89 95 72 73"/>
    <tag k="addr:country" v="DE"/>
    <tag k="name" v="Marktkauf"/>
    <tag k="addr:housename" v="Marktkauf"/>
    <tag k="addr:street" v="Feringastraße"/>
    <tag k="addr:city" v="Unterföhring"/>
    <tag k="addr:housenumber" v="16"/>
    <tag k="opening_hours" v="Mo-Sa 07:00-20:00"/>
  </node>
  <node id="261818350" version="7" timestamp="2010-10-22T10:56:11Z" uid="290680" user="wheelmap_visitor" changeset="6133243" lat="48.2041186" lon="11.599605">
    <tag k="shop" v="supermarket"/>
    <tag k="wheelchair" v="yes"/>
    <tag k="name" v="REWE"/>
  </node>
  <node id="261822683" version="8" timestamp="2010-10-21T16:21:55Z" uid="290680" user="wheelmap_visitor" changeset="6121669" lat="48.2018232" lon="11.6065478">
    <tag k="shop" v="supermarket"/>
    <tag k="wheelchair" v="yes"/>
    <tag k="name" v="Tengelmann"/>
  </node>
  <node id="262099815" version="12" timestamp="2011-07-02T18:45:39Z" uid="64164" user="osmkurt" changeset="8610172" lat="48.1302522" lon="11.5903218">
    <tag k="addr:postcode" v="81669"/>
    <tag k="shop" v="supermarket"/>
    <tag k="source" v="http://www.mux.de/ALDI-Rosenheimer-Str"/>
    <tag k="wheelchair" v="no"/>
    <tag k="addr:country" v="DE"/>
    <tag k="name" v="Aldi (Süd)"/>
    <tag k="layer" v="-1"/>
    <tag k="addr:street" v="Rosenheimer Straße"/>
    <tag k="addr:city" v="München"/>
    <tag k="addr:housenumber" v="30"/>
    <tag k="opening_hours" v="Mo-Fr 08:00-20:00;Sa 08:00-20:00"/>
  </node>
  <node id="263831639" version="9" timestamp="2011-09-27T17:43:33Z" uid="290680" user="wheelmap_visitor" changeset="9408304" lat="48.1279107" lon="11.6025045">
    <tag k="addr:postcode" v="81667"/>
    <tag k="shop" v="supermarket"/>
    <tag k="wheelchair" v="yes"/>
    <tag k="addr:country" v="DE"/>
    <tag k="name" v="Aldi (Süd)"/>
    <tag k="addr:street" v="Orleansplatz"/>
    <tag k="addr:city" v="München"/>
    <tag k="addr:housenumber" v="2"/>
    <tag k="opening_hours" v="Mo-Fr 08:00-20:00;Sa 08:00-20:00"/>
  </node>
  <node id="263882439" version="12" timestamp="2011-08-31T17:21:24Z" uid="64164" user="osmkurt" changeset="9178022" lat="48.1283751" lon="11.5978309">
    <tag k="shop" v="supermarket"/>
    <tag k="wheelchair" v="yes"/>
    <tag k="name" v="Alnatura"/>
    <tag k="note" v="organic supermarket"/>
  </node>
  <node id="263885440" version="9" timestamp="2011-05-29T22:29:44Z" uid="64164" user="osmkurt" changeset="8286864" lat="48.1285231" lon="11.5987247">
    <tag k="shop" v="supermarket"/>
    <tag k="wheelchair" v="limited"/>
    <tag k="name" v="Tengelmann"/>
  </node>
  <node id="264635767" version="5" timestamp="2011-09-11T07:50:16Z" uid="125687" user="tubeli" changeset="9268338" lat="48.1269904" lon="11.5915423">
    <tag k="addr:postcode" v="81669"/>
    <tag k="shop" v="supermarket"/>
    <tag k="wheelchair" v="yes"/>
    <tag k="addr:country" v="DE"/>
    <tag k="name" v="Penny"/>
    <tag k="addr:street" v="Franziskanerstraße"/>
    <tag k="addr:city" v="München"/>
  </node>
  <node id="266621894" version="12" timestamp="2011-08-11T10:42:05Z" uid="290680" user="wheelmap_visitor" changeset="8984227" lat="48.1092322" lon="11.5372333">
    <tag k="shop" v="supermarket"/>
    <tag k="wheelchair" v="yes"/>
    <tag k="name" v="nah &amp; gut / BackFit"/>
  </node>
  <node id="266661973" version="3" timestamp="2009-09-02T14:18:10Z" uid="85761" user="klausis" changeset="2348704" lat="48.1205958" lon="11.6664435">
    <tag k="shop" v="supermarket"/>
    <tag k="name" v="Tengelmann, Plus"/>
  </node>
  <node id="266683497" version="3" timestamp="2011-10-23T09:33:36Z" uid="290680" user="wheelmap_visitor" changeset="9629390" lat="48.0806721" lon="11.6920809">
    <tag k="created_by" v="JOSM"/>
    <tag k="shop" v="supermarket"/>
    <tag k="source" v="survey"/>
    <tag k="wheelchair" v="yes"/>
    <tag k="name" v="ALDI"/>
  </node>
  <node id="266683498" version="4" timestamp="2011-10-23T09:33:36Z" uid="290680" user="wheelmap_visitor" changeset="9629390" lat="48.0807295" lon="11.6928975">
    <tag k="shop" v="supermarket"/>
    <tag k="source" v="survey"/>
    <tag k="wheelchair" v="yes"/>
    <tag k="name" v="Lidl"/>
  </node>
  <node id="266683499" version="4" timestamp="2011-10-23T09:33:37Z" uid="290680" user="wheelmap_visitor" changeset="9629390" lat="48.080783" lon="11.6936138">
    <tag k="created_by" v="JOSM"/>
    <tag k="shop" v="supermarket"/>
    <tag k="source" v="survey"/>
    <tag k="wheelchair" v="yes"/>
    <tag k="name" v="Tengelmann"/>
  </node>
  <node id="266698132" version="7" timestamp="2012-01-07T18:44:48Z" uid="290680" user="wheelmap_visitor" changeset="10318920" lat="48.1342594" lon="11.5971612">
    <tag k="addr:postcode" v="81667"/>
    <tag k="shop" v="supermarket"/>
    <tag k="wheelchair" v="limited"/>
    <tag k="addr:country" v="DE"/>
    <tag k="name" v="Grüner Markt"/>
    <tag k="addr:street" v="Innere Wiener Straße"/>
    <tag k="type" v="organic"/>
    <tag k="old_name" v="Reformhaus Vitalia"/>
    <tag k="addr:city" v="München"/>
    <tag k="addr:housenumber" v="52"/>
  </node>
  <node id="267206457" version="6" timestamp="2011-02-01T21:46:09Z" uid="290680" user="wheelmap_visitor" changeset="7156704" lat="48.1031439" lon="11.5327024">
    <tag k="shop" v="supermarket"/>
    <tag k="source" v="survey"/>
    <tag k="wheelchair" v="yes"/>
    <tag k="name" v="tengelmann"/>
  </node>
  <node id="268453107" version="18" timestamp="2011-10-22T06:58:31Z" uid="64486" user="Sebastian Schmidt" changeset="9621595" lat="48.0946714" lon="11.499169">
    <tag k="addr:postcode" v="81476"/>
    <tag k="shop" v="supermarket"/>
    <tag k="wheelchair" v="yes"/>
    <tag k="addr:country" v="DE"/>
    <tag k="name" v="Penny"/>
    <tag k="addr:street" v="Züricher Straße"/>
    <tag k="addr:city" v="München"/>
    <tag k="addr:housenumber" v="37"/>
  </node>
  <node id="268453307" version="19" timestamp="2011-12-25T16:39:30Z" uid="290680" user="wheelmap_visitor" changeset="10197936" lat="48.094408" lon="11.4990081">
    <tag k="addr:postcode" v="81476"/>
    <tag k="shop" v="supermarket"/>
    <tag k="wheelchair" v="yes"/>
    <tag k="addr:country" v="DE"/>
    <tag k="name" v="dm Drogeriemarkt"/>
    <tag k="addr:street" v="Züricher Straße"/>
    <tag k="addr:city" v="München"/>
    <tag k="addr:housenumber" v="37"/>
  </node>
  <node id="268616082" version="3" timestamp="2010-10-21T17:00:20Z" uid="290680" user="wheelmap_visitor" changeset="6121669" lat="48.130026" lon="11.6226241">
    <tag k="created_by" v="Potlatch 0.9c"/>
    <tag k="shop" v="supermarket"/>
    <tag k="wheelchair" v="no"/>
    <tag k="name" v="Edeka"/>
  </node>
  <node id="268616162" version="5" timestamp="2012-01-04T19:27:57Z" uid="64164" user="osmkurt" changeset="10294106" lat="48.1323388" lon="11.6273996">
    <tag k="addr:postcode" v="81673"/>
    <tag k="shop" v="supermarket"/>
    <tag k="wheelchair" v="yes"/>
    <tag k="addr:country" v="DE"/>
    <tag k="name" v="Aldi (Süd)"/>
    <tag k="addr:street" v="Neumarkter Straße"/>
    <tag k="addr:city" v="München"/>
    <tag k="addr:housenumber" v="81a"/>
    <tag k="opening_hours" v="Mo-Fr 08:00-20:00;Sa 08:00-20:00"/>
  </node>
  <node id="268835891" version="8" timestamp="2011-10-02T11:32:25Z" uid="290680" user="wheelmap_visitor" changeset="9447804" lat="48.1124541" lon="11.6764162">
    <tag k="shop" v="supermarket"/>
    <tag k="wheelchair" v="yes"/>
    <tag k="name" v="REWE City"/>
  </node>
  <node id="269386948" version="8" timestamp="2009-09-04T18:06:01Z" uid="85761" user="klausis" changeset="2371943" lat="48.1300152" lon="11.4309077">
    <tag k="shop" v="supermarket"/>
    <tag k="name" v="Tengelmann"/>
    <tag k="addr:street" v="Jahnplatz"/>
    <tag k="operator" v="Tengelmann"/>
    <tag k="addr:housenumber" v="1"/>
  </node>
  <node id="269592816" version="3" timestamp="2011-12-23T21:00:07Z" uid="290680" user="wheelmap_visitor" changeset="10185228" lat="48.1401693" lon="11.4564869">
    <tag k="shop" v="supermarket"/>
    <tag k="wheelchair" v="limited"/>
    <tag k="name" v="Tengelmann"/>
  </node>
  <node id="269698943" version="9" timestamp="2011-10-25T22:02:49Z" uid="290680" user="wheelmap_visitor" changeset="9650151" lat="48.1464694" lon="11.4609217">
    <tag k="shop" v="supermarket"/>
    <tag k="wheelchair" v="no"/>
    <tag k="name" v="Penny Markt"/>
  </node>
  <node id="269740069" version="5" timestamp="2011-09-01T08:03:56Z" uid="515152" user="uhattwig" changeset="9182299" lat="48.2271397" lon="11.4621493">
    <tag k="shop" v="supermarket"/>
    <tag k="name" v="Rewe"/>
  </node>
  <node id="270586993" version="2" timestamp="2010-02-22T07:15:18Z" uid="39803" user="Harti" changeset="3941201" lat="48.1176681" lon="11.6882911">
    <tag k="shop" v="supermarket"/>
    <tag k="name" v="Penny"/>
  </node>
  <node id="270806291" version="1" timestamp="2008-06-16T22:31:30Z" uid="31727" user="frolty" changeset="187844" lat="48.2493435" lon="11.3912717">
    <tag k="shop" v="supermarket"/>
    <tag k="name" v="Edeka"/>
  </node>
  <node id="271136058" version="3" timestamp="2011-06-23T14:27:15Z" uid="290680" user="wheelmap_visitor" changeset="8522154" lat="48.1126374" lon="11.6506388">
    <tag k="shop" v="supermarket"/>
    <tag k="wheelchair" v="yes"/>
    <tag k="name" v="Lidl"/>
  </node>
  <node id="271505645" version="11" timestamp="2011-04-09T13:00:47Z" uid="46472" user="sendelhorst" changeset="7813108" lat="48.1217871" lon="11.5405426">
    <tag k="addr:postcode" v="81369"/>
    <tag k="shop" v="supermarket"/>
    <tag k="addr:country" v="DE"/>
    <tag k="name" v="Biomarkt"/>
    <tag k="addr:housename" v="im Stemmerhof"/>
    <tag k="addr:street" v="Plinganserstraße"/>
    <tag k="type" v="organic"/>
    <tag k="addr:city" v="München"/>
    <tag k="addr:housenumber" v="6"/>
    <tag k="opening_hours" v="Mo-Fr 08:00-20:00; Sa 08:00-16:00"/>
  </node>
  <node id="272031960" version="6" timestamp="2010-10-01T14:35:29Z" uid="290680" user="wheelmap_visitor" changeset="5928478" lat="48.0657667" lon="11.6138683">
    <tag k="shoes" v="supermarket"/>
    <tag k="addr:postcode" v="82008"/>
    <tag k="shop" v="supermarket"/>
    <tag k="phone" v="+49.89.615 003 41"/>
    <tag k="source" v="survey"/>
    <tag k="wheelchair" v="limited"/>
    <tag k="name" v="Tengelmann"/>
    <tag k="addr:street" v="Hauptstraße"/>
    <tag k="addr:housenumber" v="2"/>
    <tag k="opening_hours" v="Mo-Sa 08:00-20:00"/>
  </node>
  <node id="272449067" version="6" timestamp="2011-10-12T13:35:51Z" uid="290680" user="wheelmap_visitor" changeset="9535427" lat="48.0869012" lon="11.4598083">
    <tag k="shop" v="supermarket"/>
    <tag k="wheelchair" v="yes"/>
    <tag k="name" v="Tengelmann"/>
  </node>
  <node id="272659099" version="4" timestamp="2010-10-22T12:42:20Z" uid="290680" user="wheelmap_visitor" changeset="6133243" lat="48.1257578" lon="11.5504514">
    <tag k="shop" v="supermarket"/>
    <tag k="wheelchair" v="yes"/>
    <tag k="name" v="Gruener Markt (Biomarkt)"/>
  </node>
  <node id="273094882" version="10" timestamp="2011-03-20T17:31:29Z" uid="290680" user="wheelmap_visitor" changeset="7618501" lat="48.0872769" lon="11.485353">
    <tag k="addr:postcode" v="81475"/>
    <tag k="shop" v="supermarket"/>
    <tag k="wheelchair" v="yes"/>
    <tag k="addr:country" v="DE"/>
    <tag k="name" v="Lidl"/>
    <tag k="addr:street" v="Neurieder Straße"/>
    <tag k="addr:city" v="München"/>
    <tag k="addr:housenumber" v="14"/>
  </node>
  <node id="273436169" version="5" timestamp="2011-10-07T09:39:08Z" uid="290680" user="wheelmap_visitor" changeset="9490517" lat="48.1360308" lon="11.5036518">
    <tag k="created_by" v="Potlatch 0.10f"/>
    <tag k="addr:postcode" v="80686"/>
    <tag k="shop" v="supermarket"/>
    <tag k="wheelchair" v="limited"/>
    <tag k="addr:country" v="DE"/>
    <tag k="name" v="REWE"/>
    <tag k="addr:street" v="Fürstenrieder Straße"/>
    <tag k="addr:city" v="München"/>
    <tag k="addr:housenumber" v="57"/>
  </node>
  <node id="274617188" version="4" timestamp="2010-10-21T17:00:23Z" uid="290680" user="wheelmap_visitor" changeset="6121669" lat="48.1327521" lon="11.6080769">
    <tag k="shop" v="supermarket"/>
    <tag k="wheelchair" v="yes"/>
    <tag k="name" v="Lidl"/>
  </node>
  <node id="274997990" version="3" timestamp="2011-10-25T22:54:38Z" uid="290680" user="wheelmap_visitor" changeset="9650151" lat="48.1155438" lon="11.5928791">
    <tag k="shop" v="supermarket"/>
    <tag k="wheelchair" v="yes"/>
    <tag k="name" v="Tengelmann"/>
  </node>
  <node id="275064980" version="7" timestamp="2011-05-28T21:52:34Z" uid="64164" user="osmkurt" changeset="8273816" lat="48.1287056" lon="11.5949938">
    <tag k="shop" v="supermarket"/>
    <tag k="wheelchair" v="yes"/>
    <tag k="name" v="Grüner Markt"/>
    <tag k="type" v="organic"/>
  </node>
  <node id="275671640" version="3" timestamp="2009-06-09T12:32:46Z" uid="85761" user="klausis" changeset="1467504" lat="48.1894652" lon="11.503676">
    <tag k="shop" v="supermarket"/>
    <tag k="name" v="Netto"/>
  </node>
  <node id="277718766" version="5" timestamp="2011-10-16T21:05:45Z" uid="290680" user="wheelmap_visitor" changeset="9569216" lat="48.1196227" lon="11.4281464">
    <tag k="shop" v="supermarket"/>
    <tag k="wheelchair" v="yes"/>
    <tag k="name" v="Tengelmann"/>
    <tag k="operator" v="Tengelmann"/>
  </node>
  <node id="278829362" version="3" timestamp="2009-09-04T13:39:23Z" uid="85761" user="klausis" changeset="2369376" lat="48.1797513" lon="11.4900808">
    <tag k="shop" v="supermarket"/>
    <tag k="name" v="Tengelmann"/>
  </node>
  <node id="279213474" version="3" timestamp="2011-10-25T14:58:13Z" uid="290680" user="wheelmap_visitor" changeset="9650151" lat="48.1124102" lon="11.502685">
    <tag k="shop" v="supermarket"/>
    <tag k="wheelchair" v="no"/>
    <tag k="name" v="Tengelmann / Bäcker Müller"/>
  </node>
  <node id="279343777" version="4" timestamp="2010-11-18T22:03:53Z" uid="290680" user="wheelmap_visitor" changeset="6400629" lat="48.1207349" lon="11.5346196">
    <tag k="shop" v="supermarket"/>
    <tag k="wheelchair" v="yes"/>
    <tag k="name" v="Rewe"/>
  </node>
  <node id="279458706" version="6" timestamp="2011-09-28T20:38:49Z" uid="290680" user="wheelmap_visitor" changeset="9416290" lat="48.1094591" lon="11.5919606">
    <tag k="shop" v="supermarket"/>
    <tag k="wheelchair" v="limited"/>
    <tag k="name" v="Penny"/>
  </node>
  <node id="281215663" version="3" timestamp="2011-10-23T13:06:57Z" uid="290680" user="wheelmap_visitor" changeset="9629390" lat="48.0810286" lon="11.6717923">
    <tag k="shop" v="supermarket"/>
    <tag k="source" v="survey"/>
    <tag k="wheelchair" v="yes"/>
    <tag k="name" v="REWE"/>
  </node>
  <node id="281389436" version="3" timestamp="2011-03-28T09:04:34Z" uid="29061" user="KPG" changeset="7694613" lat="48.126568" lon="11.631638">
    <tag k="shop" v="supermarket"/>
    <tag k="name" v="REWE"/>
  </node>
  <node id="282719877" version="10" timestamp="2011-04-28T15:29:45Z" uid="42393" user="mawi42" changeset="7995584" lat="48.0949374" lon="11.5123254">
    <tag k="addr:postcode" v="81379"/>
    <tag k="shop" v="supermarket"/>
    <tag k="wheelchair" v="yes"/>
    <tag k="addr:country" v="DE"/>
    <tag k="name" v="Lidl"/>
    <tag k="addr:street" v="Kistlerhofstraße"/>
    <tag k="addr:city" v="München"/>
    <tag k="addr:housenumber" v="152"/>
  </node>
  <node id="283161401" version="6" timestamp="2011-12-14T04:31:09Z" uid="64164" user="osmkurt" changeset="10113023" lat="48.1523314" lon="11.620005">
    <tag k="shop" v="supermarket"/>
    <tag k="wheelchair" v="yes"/>
    <tag k="name" v="Rewe"/>
  </node>
  <node id="286436007" version="7" timestamp="2011-10-16T11:33:45Z" uid="336643" user="BigBen2003" changeset="9571359" lat="48.1276205" lon="11.6754778">
    <tag k="addr:postcode" v="81929"/>
    <tag k="shop" v="supermarket"/>
    <tag k="addr:country" v="DE"/>
    <tag k="name" v="Netto"/>
    <tag k="addr:street" v="Am Mitterfeld"/>
    <tag k="addr:city" v="München"/>
    <tag k="addr:housenumber" v="18"/>
  </node>
  <node id="286544687" version="7" timestamp="2011-10-13T08:07:43Z" uid="290680" user="wheelmap_visitor" changeset="9544161" lat="48.1179353" lon="11.6289827">
    <tag k="shop" v="supermarket"/>
    <tag k="wheelchair" v="yes"/>
    <tag k="addr:country" v="DE"/>
    <tag k="name" v="Penny"/>
    <tag k="addr:city" v="München"/>
    <tag k="addr:housenumber" v="62"/>
  </node>
  <node id="286750910" version="4" timestamp="2011-10-09T21:33:27Z" uid="290680" user="wheelmap_visitor" changeset="9508573" lat="48.1829707" lon="11.5938138">
    <tag k="shop" v="supermarket"/>
    <tag k="wheelchair" v="yes"/>
    <tag k="name" v="REWE"/>
  </node>
  <node id="286750912" version="4" timestamp="2011-10-09T21:33:26Z" uid="290680" user="wheelmap_visitor" changeset="9508573" lat="48.1827131" lon="11.5936851">
    <tag k="shop" v="supermarket"/>
    <tag k="wheelchair" v="yes"/>
    <tag k="name" v="Penny"/>
  </node>
  <node id="286841817" version="3" timestamp="2010-10-01T14:36:33Z" uid="290680" user="wheelmap_visitor" changeset="5928487" lat="48.061601" lon="11.6152629">
    <tag k="created_by" v="Potlatch 0.10b"/>
    <tag k="shoes" v="supermarket"/>
    <tag k="shop" v="supermarket"/>
    <tag k="source" v="survey"/>
    <tag k="wheelchair" v="limited"/>
    <tag k="name" v="REWE"/>
  </node>
  <node id="288692688" version="4" timestamp="2011-10-16T11:33:41Z" uid="336643" user="BigBen2003" changeset="9571359" lat="48.1276918" lon="11.6341012">
    <tag k="addr:postcode" v="81673"/>
    <tag k="shop" v="supermarket"/>
    <tag k="addr:country" v="DE"/>
    <tag k="name" v="Netto City"/>
    <tag k="addr:street" v="Kreillerstraße"/>
    <tag k="addr:city" v="München"/>
    <tag k="addr:housenumber" v="21"/>
    <tag k="opening_hours" v="Mo-Sa 07:00-20:00"/>
  </node>
  <node id="288697623" version="2" timestamp="2010-02-21T18:20:27Z" uid="107037" user="ulfm" changeset="3936843" lat="48.127322" lon="11.635876">
    <tag k="shop" v="supermarket"/>
    <tag k="name" v="REWE"/>
  </node>
  <node id="291103852" version="14" timestamp="2010-08-21T08:58:04Z" uid="59819" user="Fuss-im-Ohr" changeset="5549984" lat="48.1409133" lon="11.589126">
    <tag k="addr:postcode" v="80538"/>
    <tag k="shop" v="supermarket"/>
    <tag k="phone" v="+49 89 21939000"/>
    <tag k="wheelchair" v="yes"/>
    <tag k="website" v="http://www.kaisers.de"/>
    <tag k="addr:country" v="DE"/>
    <tag k="name" v="Tengelmann"/>
    <tag k="addr:street" v="Triftstraße"/>
    <tag k="addr:city" v="München"/>
    <tag k="addr:housenumber" v="10"/>
  </node>
  <node id="291103859" version="12" timestamp="2009-08-07T11:46:12Z" uid="31231" user="Andre68" changeset="2064435" lat="48.1415485" lon="11.5852793">
    <tag k="addr:postcode" v="80538"/>
    <tag k="shop" v="supermarket"/>
    <tag k="phone" v="+49 89 221813"/>
    <tag k="wheelchair" v="yes"/>
    <tag k="website" v="http://www.kaisers.de"/>
    <tag k="addr:country" v="DE"/>
    <tag k="name" v="Tengelmann"/>
    <tag k="addr:street" v="Christophstraße"/>
    <tag k="addr:city" v="München"/>
    <tag k="addr:housenumber" v="9"/>
    <tag k="opening_hours" v="Mo-Sa 08:00-20:00"/>
  </node>
  <node id="291204623" version="5" timestamp="2011-09-28T20:38:48Z" uid="290680" user="wheelmap_visitor" changeset="9416290" lat="48.1098681" lon="11.5963323">
    <tag k="shop" v="supermarket"/>
    <tag k="wheelchair" v="limited"/>
    <tag k="name" v="Hit"/>
  </node>
  <node id="291268678" version="3" timestamp="2011-09-28T20:38:48Z" uid="290680" user="wheelmap_visitor" changeset="9416290" lat="48.110018" lon="11.5946969">
    <tag k="shop" v="supermarket"/>
    <tag k="wheelchair" v="limited"/>
    <tag k="name" v="Tengelmann"/>
  </node>
  <node id="291268680" version="3" timestamp="2011-10-07T17:21:59Z" uid="290680" user="wheelmap_visitor" changeset="9490517" lat="48.1110953" lon="11.590817">
    <tag k="shop" v="supermarket"/>
    <tag k="wheelchair" v="yes"/>
    <tag k="name" v="Tengelmann"/>
  </node>
  <node id="291364440" version="9" timestamp="2009-01-26T11:14:44Z" uid="59819" user="Fuss-im-Ohr" changeset="841235" lat="48.1404243" lon="11.588852">
    <tag k="addr:postcode" v="80538"/>
    <tag k="shop" v="supermarket"/>
    <tag k="phone" v="+49 89 222353"/>
    <tag k="website" v="http://www.vitalia-reformhaus.de"/>
    <tag k="addr:country" v="DE"/>
    <tag k="name" v="Vitalia"/>
    <tag k="addr:street" v="Triftstraße"/>
    <tag k="addr:city" v="München"/>
    <tag k="addr:housenumber" v="4"/>
  </node>
  <node id="291898667" version="11" timestamp="2010-09-01T14:18:00Z" uid="84189" user="joglo" changeset="5654373" lat="48.146602" lon="11.5934571">
    <tag k="addr:postcode" v="80538"/>
    <tag k="shop" v="supermarket"/>
    <tag k="phone" v="+49 89 23547870"/>
    <tag k="website" v="http://www.bioparadies.net"/>
    <tag k="addr:country" v="DE"/>
    <tag k="name" v="Bioparadies Markt"/>
    <tag k="addr:street" v="Lerchenfeldstraße"/>
    <tag k="addr:city" v="München"/>
    <tag k="addr:housenumber" v="10"/>
  </node>
  <node id="297050260" version="5" timestamp="2011-10-16T11:33:46Z" uid="336643" user="BigBen2003" changeset="9571359" lat="48.1302377" lon="11.6508955">
    <tag k="addr:postcode" v="81925"/>
    <tag k="shop" v="supermarket"/>
    <tag k="addr:country" v="DE"/>
    <tag k="name" v="Netto"/>
    <tag k="addr:street" v="Truderinger Straße"/>
    <tag k="addr:city" v="München"/>
    <tag k="addr:housenumber" v="217"/>
    <tag k="opening_hours" v="Mo-Sa 07:00-20:00"/>
  </node>
  <node id="299215860" version="3" timestamp="2011-11-08T17:04:52Z" uid="290680" user="wheelmap_visitor" changeset="9770655" lat="48.0853948" lon="11.6615407">
    <tag k="created_by" v="Potlatch 0.10b"/>
    <tag k="shop" v="supermarket"/>
    <tag k="wheelchair" v="yes"/>
    <tag k="name" v="Penny Markt"/>
  </node>
  <node id="299238737" version="5" timestamp="2011-03-15T19:07:24Z" uid="5359" user="user_5359" changeset="7569211" lat="48.132521" lon="11.3791159">
    <tag k="addr:postcode" v="82110"/>
    <tag k="shop" v="supermarket"/>
    <tag k="source" v="survey"/>
    <tag k="addr:country" v="DE"/>
    <tag k="name" v="Lidl"/>
    <tag k="addr:street" v="Industriestraße"/>
    <tag k="addr:city" v="Germering"/>
    <tag k="operator" v="Lidl"/>
    <tag k="addr:housenumber" v="19"/>
  </node>
  <node id="300651565" version="3" timestamp="2011-08-04T08:19:57Z" uid="8748" user="ToniE" changeset="8917369" lat="48.1145349" lon="11.5811521">
    <tag k="addr:postcode" v="81539"/>
    <tag k="shop" v="supermarket"/>
    <tag k="addr:country" v="DE"/>
    <tag k="name" v="Penny"/>
    <tag k="addr:street" v="Deisenhofener Straße"/>
    <tag k="addr:city" v="München"/>
    <tag k="addr:housenumber" v="14-16"/>
  </node>
  <node id="300651568" version="3" timestamp="2011-04-15T13:02:26Z" uid="79933" user="zEEs" changeset="7869516" lat="48.1142544" lon="11.5834843">
    <tag k="shop" v="supermarket"/>
    <tag k="name" v="Penny"/>
  </node>
  <node id="300736290" version="5" timestamp="2011-12-20T07:13:10Z" uid="64164" user="osmkurt" changeset="10161123" lat="48.1133953" lon="11.5850238">
    <tag k="addr:postcode" v="81539"/>
    <tag k="shop" v="supermarket"/>
    <tag k="addr:country" v="DE"/>
    <tag k="name" v="Netto City"/>
    <tag k="addr:street" v="Deisenhofener Straße"/>
    <tag k="addr:city" v="München"/>
    <tag k="addr:housenumber" v="40"/>
    <tag k="opening_hours" v="Mo-Sa 07:00-20:00"/>
  </node>
  <node id="301136997" version="6" timestamp="2011-06-22T17:42:38Z" uid="11374" user="q_un_go" changeset="8516263" lat="48.0943544" lon="11.6421245">
    <tag k="addr:postcode" v="81739"/>
    <tag k="shop" v="supermarket"/>
    <tag k="phone" v="+49 89 67920168"/>
    <tag k="wheelchair" v="yes"/>
    <tag k="website" v="http://www.netto-online.de"/>
    <tag k="addr:country" v="DE"/>
    <tag k="name" v="Netto"/>
    <tag k="addr:street" v="Therese-Giehse-Allee"/>
    <tag k="addr:city" v="München"/>
    <tag k="operator" v="Netto Marken-Discount AG &amp; Co. KG"/>
    <tag k="addr:housenumber" v="26"/>
    <tag k="opening_hours" v="Mo-Sa 07:00-20:00"/>
  </node>
  <node id="301174219" version="7" timestamp="2011-07-02T18:43:28Z" uid="64164" user="osmkurt" changeset="8610172" lat="48.1307356" lon="11.5899168">
    <tag k="shop" v="supermarket"/>
    <tag k="source" v="http://www.mux.de/HIT-Haidhausen"/>
    <tag k="wheelchair" v="yes"/>
    <tag k="name" v="HIT"/>
    <tag k="layer" v="-1"/>
  </node>
  <node id="301741569" version="3" timestamp="2009-07-06T09:05:56Z" uid="68010" user="ms2000" changeset="1749174" lat="48.1737468" lon="11.3670015">
    <tag k="shop" v="supermarket"/>
    <tag k="name" v="Netto"/>
  </node>
  <node id="301741848" version="1" timestamp="2008-10-03T11:56:54Z" uid="37197" user="kernl" changeset="40530" lat="48.1724671" lon="11.3639967">
    <tag k="created_by" v="Potlatch 0.10c"/>
    <tag k="shop" v="supermarket"/>
    <tag k="name" v="Lidl"/>
  </node>
  <node id="302372430" version="4" timestamp="2011-12-30T11:43:36Z" uid="64164" user="osmkurt" changeset="10243360" lat="48.110665" lon="11.5921428">
    <tag k="shop" v="supermarket"/>
    <tag k="wheelchair" v="limited"/>
    <tag k="name" v="Murat Supermarkt"/>
  </node>
  <node id="302754731" version="11" timestamp="2011-10-07T23:25:12Z" uid="290680" user="wheelmap_visitor" changeset="9490517" lat="48.144062" lon="11.5357354">
    <tag k="addr:postcode" v="80636"/>
    <tag k="shop" v="supermarket"/>
    <tag k="wheelchair" v="yes"/>
    <tag k="addr:country" v="DE"/>
    <tag k="name" v="Tengelmann"/>
    <tag k="layer" v="1"/>
    <tag k="addr:state" v="Bayern"/>
    <tag k="addr:city" v="München"/>
  </node>
  <node id="303071631" version="4" timestamp="2011-08-26T19:02:41Z" uid="290680" user="wheelmap_visitor" changeset="9132111" lat="48.1211575" lon="11.5487838">
    <tag k="shop" v="supermarket"/>
    <tag k="wheelchair" v="limited"/>
    <tag k="name" v="Penny"/>
  </node>
  <node id="303072167" version="4" timestamp="2009-09-01T18:55:37Z" uid="85761" user="klausis" changeset="2340653" lat="48.1215414" lon="11.548758">
    <tag k="shop" v="supermarket"/>
    <tag k="description" v="asian"/>
    <tag k="name" v="Hongkong Market"/>
  </node>
  <node id="304009206" version="4" timestamp="2010-03-07T20:03:04Z" uid="72235" user="Basstoelpel" changeset="4065684" lat="48.197852" lon="11.5346763">
    <tag k="shop" v="supermarket"/>
    <tag k="name" v="Leerstehend"/>
  </node>
  <node id="304040237" version="6" timestamp="2010-12-20T11:21:57Z" uid="290680" user="wheelmap_visitor" changeset="6713848" lat="48.1459321" lon="11.5409442">
    <tag k="shop" v="supermarket"/>
    <tag k="wheelchair" v="limited"/>
    <tag k="name" v="Tengelmann"/>
  </node>
  <node id="305258388" version="3" timestamp="2009-01-21T23:26:42Z" uid="70696" user="xybot" changeset="822919" lat="48.1025918" lon="11.5958422">
    <tag k="created_by" v="xybot"/>
    <tag k="shop" v="supermarket"/>
    <tag k="phone" v="+49 89 69341904"/>
    <tag k="addr:country" v="DE"/>
    <tag k="name" v="Tengelmann"/>
    <tag k="addr:street" v="Stadelheimer Straße"/>
    <tag k="addr:city" v="München"/>
    <tag k="addr:housenumber" v="71"/>
  </node>
  <node id="305263397" version="2" timestamp="2010-09-24T18:08:10Z" uid="72235" user="Basstoelpel" changeset="5865121" lat="48.1972771" lon="11.5243489">
    <tag k="shop" v="supermarket"/>
    <tag k="name" v="Edeka"/>
    <tag k="addr:street" v="Feldmochinger Straße"/>
    <tag k="addr:housenumber" v="216"/>
  </node>
  <node id="305464102" version="3" timestamp="2011-10-07T23:08:48Z" uid="290680" user="wheelmap_visitor" changeset="9490517" lat="48.2146493" lon="11.5308785">
    <tag k="shop" v="supermarket"/>
    <tag k="wheelchair" v="yes"/>
    <tag k="name" v="Tengelmann"/>
  </node>
  <node id="305529637" version="4" timestamp="2011-04-29T21:20:45Z" uid="290680" user="wheelmap_visitor" changeset="8007024" lat="48.1320675" lon="11.5763235">
    <tag k="shop" v="supermarket"/>
    <tag k="wheelchair" v="limited"/>
    <tag k="name" v="Tengelmann"/>
  </node>
  <node id="306224360" version="3" timestamp="2011-10-07T11:56:57Z" uid="290680" user="wheelmap_visitor" changeset="9490517" lat="48.1688703" lon="11.5874437">
    <tag k="shop" v="supermarket"/>
    <tag k="wheelchair" v="yes"/>
    <tag k="name" v="Lidl"/>
  </node>
  <node id="307419909" version="4" timestamp="2011-10-16T21:06:53Z" uid="290680" user="wheelmap_visitor" changeset="9569216" lat="48.1183899" lon="11.4302016">
    <tag k="shop" v="supermarket"/>
    <tag k="wheelchair" v="yes"/>
    <tag k="name" v="Tengelmann"/>
    <tag k="operator" v="Tengelmann"/>
  </node>
  <node id="307463701" version="6" timestamp="2011-07-07T16:21:26Z" uid="56526" user="JJ Rammerl" changeset="8656395" lat="48.1577974" lon="11.6411932">
    <tag k="addr:postcode" v="81927"/>
    <tag k="shop" v="supermarket"/>
    <tag k="addr:country" v="DE"/>
    <tag k="name" v="REWE"/>
    <tag k="addr:street" v="Kundenparkplatz"/>
    <tag k="addr:state" v="Bayern"/>
    <tag k="addr:city" v="München"/>
    <tag k="addr:housenumber" v="13"/>
  </node>
  <node id="307463738" version="3" timestamp="2010-11-22T13:33:45Z" uid="290680" user="wheelmap_visitor" changeset="6429292" lat="48.1419283" lon="11.6180551">
    <tag k="shop" v="supermarket"/>
    <tag k="wheelchair" v="yes"/>
    <tag k="name" v="Tengelmann"/>
  </node>
  <node id="307532103" version="3" timestamp="2011-10-03T20:57:52Z" uid="290680" user="wheelmap_visitor" changeset="9456721" lat="48.120126" lon="11.5568018">
    <tag k="shop" v="supermarket"/>
    <tag k="wheelchair" v="yes"/>
    <tag k="name" v="Lidl"/>
  </node>
  <node id="307535900" version="4" timestamp="2012-01-01T21:09:27Z" uid="64164" user="osmkurt" changeset="10265422" lat="48.1126965" lon="11.5712293">
    <tag k="shop" v="supermarket"/>
    <tag k="wheelchair" v="limited"/>
    <tag k="name" v="Giesinger Frischemarkt"/>
  </node>
  <node id="307535916" version="4" timestamp="2011-11-11T21:25:24Z" uid="290680" user="wheelmap_visitor" changeset="9794046" lat="48.1355606" lon="11.60721">
    <tag k="shop" v="supermarket"/>
    <tag k="wheelchair" v="yes"/>
    <tag k="name" v="Tengelmann"/>
  </node>
  <node id="307656555" version="2" timestamp="2009-09-04T18:06:20Z" uid="85761" user="klausis" changeset="2371943" lat="48.1388374" lon="11.4452363">
    <tag k="shop" v="supermarket"/>
  </node>
  <node id="308013173" version="5" timestamp="2011-02-01T20:35:40Z" uid="290680" user="wheelmap_visitor" changeset="7156704" lat="48.1016189" lon="11.5459999">
    <tag k="shop" v="supermarket"/>
    <tag k="wheelchair" v="no"/>
    <tag k="name" v="Netto"/>
  </node>
  <node id="308055989" version="6" timestamp="2011-09-17T19:24:03Z" uid="290680" user="wheelmap_visitor" changeset="9324096" lat="48.1591961" lon="11.5751225">
    <tag k="shop" v="supermarket"/>
    <tag k="wheelchair" v="no"/>
    <tag k="name" v="Tengelmann"/>
  </node>
  <node id="308055998" version="2" timestamp="2011-10-10T09:25:21Z" uid="290680" user="wheelmap_visitor" changeset="9518514" lat="48.1601795" lon="11.5783801">
    <tag k="shop" v="supermarket"/>
    <tag k="wheelchair" v="yes"/>
    <tag k="name" v="Penny"/>
  </node>
  <node id="308413057" version="7" timestamp="2011-10-07T18:28:27Z" uid="290680" user="wheelmap_visitor" changeset="9490517" lat="48.1785364" lon="11.6021147">
    <tag k="addr:postcode" v="80805"/>
    <tag k="shop" v="supermarket"/>
    <tag k="wheelchair" v="yes"/>
    <tag k="addr:country" v="DE"/>
    <tag k="name" v="Aldi (Süd)"/>
    <tag k="addr:street" v="Ungererstraße"/>
    <tag k="addr:city" v="München"/>
    <tag k="addr:housenumber" v="175"/>
    <tag k="opening_hours" v="Mo-Fr 08:00-20:00;Sa 08:00-20:00"/>
  </node>
  <node id="308413058" version="5" timestamp="2011-10-07T18:28:28Z" uid="290680" user="wheelmap_visitor" changeset="9490517" lat="48.1787037" lon="11.6022665">
    <tag k="addr:postcode" v="80805"/>
    <tag k="shop" v="supermarket"/>
    <tag k="wheelchair" v="yes"/>
    <tag k="addr:country" v="DE"/>
    <tag k="name" v="Edeka"/>
    <tag k="addr:street" v="Ungererstraße"/>
    <tag k="addr:city" v="München"/>
    <tag k="addr:housenumber" v="175"/>
  </node>
  <node id="308481459" version="5" timestamp="2011-03-18T20:35:35Z" uid="290680" user="wheelmap_visitor" changeset="7598401" lat="48.0988899" lon="11.5232327">
    <tag k="shop" v="supermarket"/>
    <tag k="wheelchair" v="yes"/>
    <tag k="name" v="Rewe"/>
  </node>
  <node id="308960784" version="3" timestamp="2011-11-14T22:56:48Z" uid="290680" user="wheelmap_visitor" changeset="9827388" lat="48.1866252" lon="11.561752">
    <tag k="shop" v="supermarket"/>
    <tag k="wheelchair" v="limited"/>
    <tag k="name" v="Penny"/>
  </node>
  <node id="309191728" version="3" timestamp="2011-10-07T23:08:50Z" uid="290680" user="wheelmap_visitor" changeset="9490517" lat="48.2121107" lon="11.528686">
    <tag k="shop" v="supermarket"/>
    <tag k="wheelchair" v="yes"/>
    <tag k="name" v="Netto"/>
  </node>
  <node id="309254806" version="4" timestamp="2011-10-07T23:03:03Z" uid="290680" user="wheelmap_visitor" changeset="9490517" lat="48.2199976" lon="11.5578402">
    <tag k="shop" v="supermarket"/>
    <tag k="wheelchair" v="yes"/>
    <tag k="name" v="Tengelmann"/>
  </node>
  <node id="309712329" version="4" timestamp="2011-05-24T22:17:47Z" uid="56526" user="JJ Rammerl" changeset="8240351" lat="48.1204321" lon="11.6229525">
    <tag k="shop" v="supermarket"/>
    <tag k="name" v="Tengelmann"/>
  </node>
  <node id="310416426" version="3" timestamp="2011-10-16T21:09:18Z" uid="290680" user="wheelmap_visitor" changeset="9569216" lat="48.125166" lon="11.4489842">
    <tag k="shop" v="supermarket"/>
    <tag k="wheelchair" v="limited"/>
    <tag k="name" v="REWE"/>
    <tag k="operator" v="Rewe"/>
  </node>
  <node id="310635030" version="2" timestamp="2012-01-08T14:25:31Z" uid="64164" user="osmkurt" changeset="10330988" lat="48.209607" lon="11.5536978">
    <tag k="shop" v="supermarket"/>
    <tag k="name" v="Lidl"/>
  </node>
  <node id="310653590" version="2" timestamp="2010-11-01T01:11:19Z" uid="152074" user="beweta" changeset="6250003" lat="48.2181601" lon="11.4815627">
    <tag k="shop" v="supermarket"/>
    <tag k="name" v="WoMa"/>
  </node>
  <node id="311110811" version="2" timestamp="2011-10-07T17:18:53Z" uid="290680" user="wheelmap_visitor" changeset="9490517" lat="48.0797199" lon="11.6064211">
    <tag k="shop" v="supermarket"/>
    <tag k="wheelchair" v="yes"/>
    <tag k="name" v="Tengelmann"/>
  </node>
  <node id="311169387" version="2" timestamp="2011-12-28T23:15:11Z" uid="290680" user="wheelmap_visitor" changeset="10222046" lat="48.1102113" lon="11.594467">
    <tag k="created_by" v="JOSM"/>
    <tag k="shop" v="supermarket"/>
    <tag k="wheelchair" v="limited"/>
    <tag k="name" v="Mekong Market"/>
  </node>
  <node id="312384657" version="2" timestamp="2009-09-05T19:04:44Z" uid="118209" user="delphin1965" changeset="2383584" lat="48.1654293" lon="11.5884101">
    <tag k="shop" v="supermarket"/>
    <tag k="name" v="Vitalia / BB Bio"/>
  </node>
  <node id="312391021" version="8" timestamp="2011-10-06T16:54:28Z" uid="290680" user="wheelmap_visitor" changeset="9482892" lat="48.133557" lon="11.5838793">
    <tag k="addr:postcode" v="80331"/>
    <tag k="shop" v="supermarket"/>
    <tag k="wheelchair" v="limited"/>
    <tag k="website" v="http://www.edeka.de"/>
    <tag k="addr:country" v="DE"/>
    <tag k="name" v="Edeka"/>
    <tag k="addr:street" v="Zweibrückenstraße"/>
    <tag k="addr:city" v="München"/>
    <tag k="addr:housenumber" v="5"/>
  </node>
  <node id="312771782" version="8" timestamp="2011-10-02T22:58:19Z" uid="290680" user="wheelmap_visitor" changeset="9447804" lat="48.1167097" lon="11.5258364">
    <tag k="addr:postcode" v="81369"/>
    <tag k="shop" v="supermarket"/>
    <tag k="wheelchair" v="yes"/>
    <tag k="addr:country" v="DE"/>
    <tag k="name" v="REWE city"/>
    <tag k="addr:street" v="Partnachplatz"/>
    <tag k="addr:city" v="München"/>
    <tag k="addr:housenumber" v="1"/>
  </node>
  <node id="313171325" version="2" timestamp="2011-03-19T13:12:31Z" uid="290680" user="wheelmap_visitor" changeset="7604550" lat="48.1266399" lon="11.5530287">
    <tag k="created_by" v="JOSM"/>
    <tag k="shop" v="supermarket"/>
    <tag k="wheelchair" v="yes"/>
    <tag k="name" v="Penny"/>
  </node>
  <node id="313621934" version="1" timestamp="2008-11-22T00:21:46Z" uid="61891" user="stephankn" changeset="782006" lat="48.1722651" lon="11.6378689">
    <tag k="shop" v="supermarket"/>
    <tag k="name" v="Penny"/>
  </node>
  <node id="313621951" version="4" timestamp="2010-07-19T12:44:01Z" uid="309944" user="StefanST" changeset="5260724" lat="48.1731012" lon="11.6356865">
    <tag k="shop" v="supermarket"/>
    <tag k="name" v="Edeka"/>
  </node>
  <node id="313671281" version="6" timestamp="2011-10-16T11:33:42Z" uid="336643" user="BigBen2003" changeset="9571359" lat="48.1426672" lon="11.648853">
    <tag k="addr:postcode" v="81929"/>
    <tag k="shop" v="supermarket"/>
    <tag k="wheelchair" v="yes"/>
    <tag k="addr:country" v="DE"/>
    <tag k="name" v="Netto City"/>
    <tag k="addr:street" v="Stefan-George-Ring"/>
    <tag k="addr:city" v="München"/>
    <tag k="addr:housenumber" v="24"/>
    <tag k="opening_hours" v="Mo-Sa 07:00-20:00"/>
  </node>
  <node id="313938162" version="2" timestamp="2008-11-29T13:46:17Z" uid="78442" user="jjKlaus" changeset="810865" lat="48.1193306" lon="11.5330001">
    <tag k="shop" v="supermarket"/>
    <tag k="source" v="survey"/>
    <tag k="name" v="Edeka"/>
  </node>
  <node id="315271007" version="6" timestamp="2011-06-04T10:53:01Z" uid="336643" user="BigBen2003" changeset="8337965" lat="48.1342746" lon="11.545242">
    <tag k="shop" v="supermarket"/>
    <tag k="wheelchair" v="yes"/>
    <tag k="name" v="Aldi (Süd)"/>
  </node>
  <node id="315271010" version="5" timestamp="2010-12-09T20:28:51Z" uid="125136" user="olisi" changeset="6599161" lat="48.1335905" lon="11.5449198">
    <tag k="shop" v="supermarket"/>
    <tag k="wheelchair" v="limited"/>
    <tag k="name" v="Edeka"/>
  </node>
  <node id="315271011" version="7" timestamp="2011-10-25T22:58:49Z" uid="290680" user="wheelmap_visitor" changeset="9650151" lat="48.1335616" lon="11.545512">
    <tag k="shop" v="supermarket"/>
    <tag k="wheelchair" v="yes"/>
    <tag k="name" v="Rossmann"/>
  </node>
  <node id="315935161" version="5" timestamp="2011-08-11T10:42:19Z" uid="290680" user="wheelmap_visitor" changeset="8984227" lat="48.1432132" lon="11.5558095">
    <tag k="addr:postcode" v="80335"/>
    <tag k="shop" v="supermarket"/>
    <tag k="wheelchair" v="yes"/>
    <tag k="addr:country" v="DE"/>
    <tag k="name" v="Aldi (Süd)"/>
    <tag k="addr:street" v="Rundfunkplatz"/>
    <tag k="addr:city" v="München"/>
    <tag k="note" v="Parkhaus für eine Stunde kostenlos, wenn der Parkschein an der Kasse abgestempelt wird"/>
    <tag k="addr:housenumber" v="4"/>
    <tag k="opening_hours" v="Mo-Fr 08:00-20:00; Sa 08:00-20:00"/>
  </node>
  <node id="315935166" version="4" timestamp="2011-08-11T10:42:19Z" uid="290680" user="wheelmap_visitor" changeset="8984227" lat="48.1429592" lon="11.555849">
    <tag k="shop" v="supermarket"/>
    <tag k="wheelchair" v="yes"/>
    <tag k="name" v="REWE"/>
  </node>
  <node id="315953240" version="3" timestamp="2011-09-27T13:45:49Z" uid="290680" user="wheelmap_visitor" changeset="9408304" lat="48.1498749" lon="11.5459296">
    <tag k="shop" v="supermarket"/>
    <tag k="wheelchair" v="yes"/>
    <tag k="name" v="REWE"/>
  </node>
  <node id="315953347" version="2" timestamp="2011-09-27T13:45:49Z" uid="290680" user="wheelmap_visitor" changeset="9408304" lat="48.1489873" lon="11.544925">
    <tag k="shop" v="supermarket"/>
    <tag k="wheelchair" v="yes"/>
    <tag k="name" v="Cesar Markt"/>
  </node>
  <node id="315969675" version="2" timestamp="2010-03-02T11:02:15Z" uid="213556" user="britschler" changeset="4015802" lat="48.1448362" lon="11.5610733">
    <tag k="shop" v="supermarket"/>
    <tag k="name" v="Tengelmann"/>
  </node>
  <node id="317457675" version="4" timestamp="2012-01-07T17:52:41Z" uid="290680" user="wheelmap_visitor" changeset="10318920" lat="48.1410499" lon="11.5761081">
    <tag k="shop" v="supermarket"/>
    <tag k="wheelchair" v="limited"/>
    <tag k="name" v="Rewe"/>
  </node>
  <node id="318581339" version="7" timestamp="2011-10-02T22:53:51Z" uid="290680" user="wheelmap_visitor" changeset="9447804" lat="48.1660223" lon="11.573892">
    <tag k="shop" v="supermarket"/>
    <tag k="wheelchair" v="yes"/>
    <tag k="addr:country" v="DE"/>
    <tag k="name" v="Lidl"/>
    <tag k="addr:street" v="Belgradstraße"/>
    <tag k="addr:city" v="München"/>
    <tag k="addr:housenumber" v="59"/>
  </node>
  <node id="319137903" version="5" timestamp="2011-10-21T11:50:36Z" uid="13219" user="Pyrokrat" changeset="9615699" lat="48.1181841" lon="11.5466474">
    <tag k="addr:postcode" v="81371"/>
    <tag k="shop" v="supermarket"/>
    <tag k="wheelchair" v="yes"/>
    <tag k="addr:country" v="DE"/>
    <tag k="name" v="Netto City"/>
    <tag k="addr:street" v="Lindenschmitstraße"/>
    <tag k="addr:city" v="München"/>
    <tag k="addr:housenumber" v="5"/>
    <tag k="opening_hours" v="Mo-Sa 07:00-20:00"/>
  </node>
  <node id="319378547" version="5" timestamp="2011-10-17T15:32:01Z" uid="290680" user="wheelmap_visitor" changeset="9578325" lat="48.1164719" lon="11.6130487">
    <tag k="shop" v="supermarket"/>
    <tag k="wheelchair" v="limited"/>
    <tag k="name" v="Tengelmann"/>
  </node>
  <node id="319439038" version="5" timestamp="2011-01-17T15:50:12Z" uid="290680" user="wheelmap_visitor" changeset="7000730" lat="48.168424" lon="11.5740739">
    <tag k="addr:postcode" v="80804"/>
    <tag k="shop" v="supermarket"/>
    <tag k="wheelchair" v="yes"/>
    <tag k="addr:country" v="DE"/>
    <tag k="name" v="Penny Markt"/>
    <tag k="addr:street" v="Belgradstraße"/>
    <tag k="addr:city" v="München"/>
    <tag k="addr:housenumber" v="72"/>
    <tag k="opening_hours" v="Mo-Sa 07:00-20:00"/>
  </node>
  <node id="322653157" version="3" timestamp="2011-02-25T06:05:59Z" uid="290680" user="wheelmap_visitor" changeset="7387545" lat="48.1123671" lon="11.5808989">
    <tag k="shop" v="supermarket"/>
    <tag k="wheelchair" v="yes"/>
    <tag k="name" v="Tengelmann"/>
  </node>
  <node id="325795376" version="6" timestamp="2011-11-13T10:54:31Z" uid="8703" user="rolandg" changeset="9812291" lat="48.113087" lon="11.5311254">
    <tag k="shop" v="supermarket"/>
    <tag k="name" v="Netto City"/>
  </node>
  <node id="325928458" version="3" timestamp="2011-07-19T00:26:58Z" uid="64164" user="osmkurt" changeset="8763354" lat="48.1407818" lon="11.6068343">
    <tag k="shop" v="supermarket"/>
    <tag k="wheelchair" v="yes"/>
    <tag k="name" v="Tengelmann"/>
  </node>
  <node id="329092744" version="8" timestamp="2012-01-02T08:08:12Z" uid="287306" user="Matthias Frank" changeset="10268228" lat="48.1510887" lon="11.5736053">
    <tag k="shop" v="supermarket"/>
    <tag k="wheelchair" v="yes"/>
    <tag k="name" v="Tengelmann"/>
  </node>
  <node id="329118143" version="3" timestamp="2009-03-23T19:50:52Z" uid="109569" user="Werner Schultheiß" changeset="848420" lat="48.136386" lon="11.5623183">
    <tag k="addr:postcode" v="80336"/>
    <tag k="shop" v="supermarket"/>
    <tag k="addr:country" v="DE"/>
    <tag k="name" v="NORMA"/>
    <tag k="addr:city" v="München"/>
  </node>
  <node id="330056678" version="4" timestamp="2010-10-20T19:31:58Z" uid="290680" user="wheelmap_visitor" changeset="6111797" lat="48.1614987" lon="11.5407943">
    <tag k="shop" v="supermarket"/>
    <tag k="wheelchair" v="yes"/>
    <tag k="name" v="Tengelmann"/>
  </node>
  <node id="330430134" version="4" timestamp="2010-10-13T09:59:48Z" uid="109029" user="shorty_de" changeset="6027726" lat="48.1547599" lon="11.5383244">
    <tag k="addr:postcode" v="80636"/>
    <tag k="shop" v="supermarket"/>
    <tag k="addr:country" v="DE"/>
    <tag k="name" v="Penny"/>
    <tag k="addr:street" v="Leonrodstraße"/>
    <tag k="addr:city" v="München"/>
    <tag k="addr:housenumber" v="35"/>
    <tag k="opening_hours" v="Mo-Sa 07:00-20:00"/>
  </node>
  <node id="331148968" version="2" timestamp="2010-07-25T13:03:21Z" uid="8748" user="ToniE" changeset="5311681" lat="48.0983854" lon="11.6605703">
    <tag k="shop" v="supermarket"/>
    <tag k="name" v="Lidl"/>
  </node>
  <node id="331149060" version="4" timestamp="2009-04-25T14:54:39Z" uid="8748" user="ToniE" changeset="950807" lat="48.0983251" lon="11.6589357">
    <tag k="created_by" v="Potlatch 0.10f"/>
    <tag k="shop" v="supermarket"/>
    <tag k="name" v="Aldi"/>
  </node>
  <node id="332422125" version="2" timestamp="2011-02-16T11:23:53Z" uid="290680" user="wheelmap_visitor" changeset="7301040" lat="48.1375719" lon="11.5239171">
    <tag k="shop" v="supermarket"/>
    <tag k="wheelchair" v="yes"/>
    <tag k="name" v="HIT"/>
  </node>
  <node id="332544442" version="3" timestamp="2011-02-01T21:54:22Z" uid="290680" user="wheelmap_visitor" changeset="7156704" lat="48.1418798" lon="11.5604135">
    <tag k="shop" v="supermarket"/>
    <tag k="wheelchair" v="no"/>
    <tag k="name" v="Schnäppchenmarkt"/>
  </node>
  <node id="332544446" version="3" timestamp="2011-02-17T19:58:57Z" uid="367380" user="Mloni" changeset="7316750" lat="48.1422239" lon="11.5602666">
    <tag k="shop" v="supermarket"/>
    <tag k="name" v="Parfümerie City"/>
  </node>
  <node id="332631039" version="6" timestamp="2011-10-06T19:20:37Z" uid="9402" user="ludwich" changeset="9488418" lat="48.1549634" lon="11.6306844">
    <tag k="shop" v="supermarket"/>
    <tag k="name" v="Tengelmann"/>
    <tag k="opening_hours" v="Mo-Sa 07:00-20:00"/>
  </node>
  <node id="332790676" version="6" timestamp="2011-10-05T21:37:27Z" uid="290680" user="wheelmap_visitor" changeset="9474855" lat="48.1362423" lon="11.5791216">
    <tag k="shop" v="supermarket"/>
    <tag k="wheelchair" v="limited"/>
    <tag k="name" v="REWE"/>
  </node>
  <node id="332790698" version="3" timestamp="2012-01-02T08:08:18Z" uid="287306" user="Matthias Frank" changeset="10268228" lat="48.1527636" lon="11.5678747">
    <tag k="shop" v="supermarket"/>
    <tag k="wheelchair" v="yes"/>
    <tag k="name" v="Tengelmann"/>
  </node>
  <node id="332791982" version="4" timestamp="2011-10-03T07:30:07Z" uid="290680" user="wheelmap_visitor" changeset="9456721" lat="48.1555434" lon="11.5634202">
    <tag k="shop" v="supermarket"/>
    <tag k="wheelchair" v="no"/>
    <tag k="name" v="Tengelmann"/>
    <tag k="addr:street" v="Görresstraße"/>
    <tag k="addr:housenumber" v="29"/>
  </node>
  <node id="333947529" version="3" timestamp="2011-04-26T09:22:39Z" uid="74983" user="Wolfram Sobotta" changeset="7972010" lat="48.1625878" lon="11.5785545">
    <tag k="shop" v="supermarket"/>
    <tag k="name" v="Penny"/>
  </node>
  <node id="334250933" version="3" timestamp="2011-02-01T19:54:32Z" uid="46962" user="unique2" changeset="7158456" lat="48.1303396" lon="11.6040215">
    <tag k="addr:postcode" v="81667"/>
    <tag k="shop" v="supermarket"/>
    <tag k="addr:country" v="DE"/>
    <tag k="name" v="Lebascha Naturkost"/>
    <tag k="addr:street" v="Breisacher Straße"/>
    <tag k="type" v="organic"/>
    <tag k="addr:city" v="München"/>
    <tag k="addr:housenumber" v="12"/>
    <tag k="opening_hours" v="Mo-Fr 09:00-19:00;Sa 09:00-14:00"/>
  </node>
  <node id="335168190" version="2" timestamp="2011-10-25T21:08:15Z" uid="290680" user="wheelmap_visitor" changeset="9650151" lat="48.1373868" lon="11.5404594">
    <tag k="shop" v="supermarket"/>
    <tag k="wheelchair" v="yes"/>
    <tag k="name" v="Feneberg"/>
  </node>
  <node id="335427473" version="3" timestamp="2011-10-25T21:08:16Z" uid="290680" user="wheelmap_visitor" changeset="9650151" lat="48.1358651" lon="11.5425982">
    <tag k="addr:postcode" v="80339"/>
    <tag k="shop" v="supermarket"/>
    <tag k="wheelchair" v="yes"/>
    <tag k="addr:country" v="DE"/>
    <tag k="name" v="Tengelmann"/>
    <tag k="addr:street" v="Gollierstraße"/>
    <tag k="addr:city" v="München"/>
  </node>
  <node id="335741157" version="4" timestamp="2011-01-27T18:27:46Z" uid="367380" user="Mloni" changeset="7106110" lat="48.1585072" lon="11.5476703">
    <tag k="shop" v="supermarket"/>
    <tag k="wheelchair" v="yes"/>
    <tag k="name" v="Tengelmann"/>
  </node>
  <node id="335741190" version="1" timestamp="2009-01-23T18:49:33Z" uid="80809" user="muenchner" changeset="828965" lat="48.1568982" lon="11.5463947">
    <tag k="shop" v="supermarket"/>
    <tag k="name" v="Drogerie Schlecker"/>
  </node>
  <node id="336026354" version="3" timestamp="2011-10-08T19:38:44Z" uid="290680" user="wheelmap_visitor" changeset="9499106" lat="48.1550069" lon="11.5119054">
    <tag k="shop" v="supermarket"/>
    <tag k="wheelchair" v="yes"/>
    <tag k="name" v="Tengelmann"/>
  </node>
  <node id="336026356" version="3" timestamp="2011-10-08T19:37:41Z" uid="290680" user="wheelmap_visitor" changeset="9499106" lat="48.1548323" lon="11.5119059">
    <tag k="shop" v="supermarket"/>
    <tag k="wheelchair" v="yes"/>
    <tag k="name" v="Rewe"/>
  </node>
  <node id="336278545" version="2" timestamp="2011-02-15T07:30:36Z" uid="381750" user="andreaslrchr" changeset="7292281" lat="48.1772697" lon="11.5212702">
    <tag k="shop" v="supermarket"/>
    <tag k="name" v="Tengelmann"/>
  </node>
  <node id="338306638" version="2" timestamp="2011-03-12T18:14:00Z" uid="59819" user="Fuss-im-Ohr" changeset="7536387" lat="48.1073418" lon="11.5780706">
    <tag k="addr:postcode" v="81547"/>
    <tag k="shop" v="supermarket"/>
    <tag k="website" v="http://norma-online.de"/>
    <tag k="addr:country" v="DE"/>
    <tag k="name" v="Norma"/>
    <tag k="addr:street" v="Fromundstraße"/>
    <tag k="addr:city" v="München"/>
    <tag k="operator" v="NORMA Lebensmittelfilialbetrieb GmbH &amp; Co. KG"/>
    <tag k="addr:housenumber" v="31-33"/>
    <tag k="opening_hours" v="Mo-Sa 08:00-20:00"/>
  </node>
  <node id="338307327" version="3" timestamp="2011-10-05T11:59:20Z" uid="8748" user="ToniE" changeset="9477444" lat="48.1134193" lon="11.5924201">
    <tag k="shop" v="supermarket"/>
    <tag k="wheelchair" v="no"/>
    <tag k="wheelchair:description" v="Eine hohe Stufe am Eingang"/>
    <tag k="name" v="Norma"/>
    <tag k="wheelchair:description:de" v="Eine hohe Stufe am Eingang"/>
  </node>
  <node id="338944633" version="2" timestamp="2011-07-09T11:08:19Z" uid="473206" user="Naumburger" changeset="8673475" lat="48.1968803" lon="11.6492077">
    <tag k="shop" v="supermarket"/>
    <tag k="name" v="Tengelmann"/>
    <tag k="fixme" v="opening_hours"/>
  </node>
  <node id="339227116" version="3" timestamp="2011-06-30T18:30:41Z" uid="479667" user="Metrax84" changeset="8592979" lat="48.1392523" lon="11.5104141">
    <tag k="addr:postcode" v="80687"/>
    <tag k="shop" v="supermarket"/>
    <tag k="name" v="Tengelmann"/>
    <tag k="addr:street" v="Agnes-Bernauer-Straße"/>
    <tag k="addr:housenumber" v="51"/>
  </node>
  <node id="340381005" version="6" timestamp="2009-03-16T21:05:12Z" uid="59819" user="Fuss-im-Ohr" changeset="820621" lat="48.1194826" lon="11.546513">
    <tag k="created_by" v="Potlatch 0.10f"/>
    <tag k="addr:postcode" v="81371"/>
    <tag k="shop" v="supermarket"/>
    <tag k="addr:country" v="DE"/>
    <tag k="name" v="Penny"/>
    <tag k="addr:street" v="Oberländerstraße"/>
    <tag k="addr:city" v="München"/>
    <tag k="operator" v="Penny"/>
    <tag k="addr:housenumber" v="20A"/>
  </node>
  <node id="342211069" version="1" timestamp="2009-02-06T18:38:24Z" uid="80809" user="muenchner" changeset="191765" lat="48.1407407" lon="11.5182812">
    <tag k="shop" v="supermarket"/>
    <tag k="name" v="Afsa`s Afro Shop"/>
  </node>
  <node id="343069729" version="2" timestamp="2009-02-07T15:32:08Z" uid="80809" user="muenchner" changeset="252028" lat="48.1726483" lon="11.6413567">
    <tag k="shop" v="supermarket"/>
    <tag k="name" v="Ägäismarkt"/>
  </node>
  <node id="343089803" version="4" timestamp="2011-09-23T13:04:35Z" uid="290680" user="wheelmap_visitor" changeset="9373820" lat="48.1752953" lon="11.5820349">
    <tag k="addr:postcode" v="80804"/>
    <tag k="shop" v="supermarket"/>
    <tag k="wheelchair" v="yes"/>
    <tag k="addr:country" v="DE"/>
    <tag k="name" v="Tengelmann"/>
    <tag k="addr:street" v="Isoldenstraße"/>
    <tag k="addr:city" v="München"/>
    <tag k="addr:housenumber" v="60"/>
  </node>
  <node id="343261968" version="2" timestamp="2011-08-31T17:20:12Z" uid="64164" user="osmkurt" changeset="9178022" lat="48.1282977" lon="11.5985191">
    <tag k="shop" v="supermarket"/>
    <tag k="name" v="NORMA"/>
  </node>
  <node id="343752340" version="6" timestamp="2011-07-28T06:08:05Z" uid="13219" user="Pyrokrat" changeset="8851241" lat="48.1285486" lon="11.604779">
    <tag k="addr:postcode" v="81667"/>
    <tag k="shop" v="supermarket"/>
    <tag k="source" v="survey"/>
    <tag k="wheelchair" v="yes"/>
    <tag k="website" v="http://www.lidl.de"/>
    <tag k="addr:country" v="DE"/>
    <tag k="name" v="Lidl"/>
    <tag k="addr:street" v="Orleansplatz"/>
    <tag k="addr:city" v="München"/>
    <tag k="operator" v="Lidl Vertriebs-GmbH &amp; Co. KG"/>
    <tag k="addr:housenumber" v="7"/>
    <tag k="opening_hours" v="Mo-Sa 07:00-20:00"/>
  </node>
  <node id="344498798" version="1" timestamp="2009-02-11T19:25:38Z" uid="80809" user="muenchner" changeset="360231" lat="48.1506071" lon="11.6081919">
    <tag k="shop" v="supermarket"/>
    <tag k="name" v="Penny"/>
  </node>
  <node id="344720640" version="7" timestamp="2011-10-07T07:59:46Z" uid="290680" user="wheelmap_visitor" changeset="9490517" lat="48.1309954" lon="11.5109255">
    <tag k="shop" v="supermarket"/>
    <tag k="wheelchair" v="limited"/>
    <tag k="name" v="Netto"/>
  </node>
  <node id="345056594" version="5" timestamp="2011-12-25T09:33:03Z" uid="290680" user="wheelmap_visitor" changeset="10197936" lat="48.1375152" lon="11.5624309">
    <tag k="addr:postcode" v="80336"/>
    <tag k="shop" v="supermarket"/>
    <tag k="wheelchair" v="no"/>
    <tag k="addr:country" v="DE"/>
    <tag k="name" v="Aldi (Süd)"/>
    <tag k="addr:street" v="Schwanthalerstraße"/>
    <tag k="addr:city" v="München"/>
    <tag k="addr:housenumber" v="14"/>
    <tag k="opening_hours" v="Mo-Fr 08:30-20:00;Sa 08:00-20:00"/>
  </node>
  <node id="345526838" version="2" timestamp="2009-07-07T13:40:14Z" uid="59819" user="Fuss-im-Ohr" changeset="1761905" lat="48.1540277" lon="11.7242032">
    <tag k="shop" v="supermarket"/>
    <tag k="name" v="Penny Markt"/>
  </node>
  <node id="345843646" version="3" timestamp="2011-10-12T05:42:59Z" uid="290680" user="wheelmap_visitor" changeset="9535427" lat="48.1727996" lon="11.5943101">
    <tag k="shop" v="supermarket"/>
    <tag k="wheelchair" v="yes"/>
    <tag k="name" v="Tengelmann"/>
  </node>
  <node id="353916509" version="5" timestamp="2010-10-31T20:45:16Z" uid="70696" user="xybot" changeset="6246105" lat="48.1805598" lon="11.5118948">
    <tag k="shop" v="supermarket"/>
    <tag k="wheelchair" v="no"/>
    <tag k="operator" v="Tengelmann"/>
  </node>
  <node id="353920611" version="4" timestamp="2011-02-14T16:09:56Z" uid="381750" user="andreaslrchr" changeset="7286951" lat="48.1832026" lon="11.5074227">
    <tag k="shop" v="supermarket"/>
    <tag k="operator" v="Tengelmann"/>
  </node>
  <node id="364356861" version="1" timestamp="2009-03-21T13:27:21Z" uid="78924" user="Alexander Fischer" changeset="838712" lat="48.2454595" lon="11.3711687">
    <tag k="created_by" v="Potlatch 0.10f"/>
    <tag k="shop" v="supermarket"/>
    <tag k="operator" v="Getränkemarkt"/>
  </node>
  <node id="365949576" version="2" timestamp="2010-11-25T09:50:34Z" uid="290680" user="wheelmap_visitor" changeset="6452840" lat="48.1779951" lon="11.5647426">
    <tag k="shop" v="supermarket"/>
    <tag k="wheelchair" v="yes"/>
    <tag k="name" v="Norma"/>
  </node>
  <node id="366121235" version="8" timestamp="2011-07-05T20:05:13Z" uid="64164" user="osmkurt" changeset="8642417" lat="48.1579721" lon="11.5622926">
    <tag k="shop" v="supermarket"/>
    <tag k="wheelchair" v="no"/>
    <tag k="addr:country" v="DE"/>
    <tag k="name" v="Lidl"/>
    <tag k="addr:street" v="Schleißheimer Straße"/>
    <tag k="addr:city" v="München"/>
    <tag k="addr:housenumber" v="85-87"/>
  </node>
  <node id="367787550" version="9" timestamp="2011-08-10T14:39:58Z" uid="264500" user="Silanea" changeset="8977156" lat="48.1618635" lon="11.4130928">
    <tag k="addr:postcode" v="81245"/>
    <tag k="shop" v="supermarket"/>
    <tag k="wheelchair" v="yes"/>
    <tag k="addr:country" v="DE"/>
    <tag k="name" v="REWE"/>
    <tag k="addr:street" v="Ubostraße"/>
    <tag k="addr:city" v="München"/>
    <tag k="addr:housenumber" v="61"/>
    <tag k="opening_hours" v="Mo-Sa 07:00-20:00"/>
  </node>
  <node id="370068106" version="4" timestamp="2011-10-25T19:23:46Z" uid="290680" user="wheelmap_visitor" changeset="9650151" lat="48.2275906" lon="11.4624751">
    <tag k="shop" v="supermarket"/>
    <tag k="wheelchair" v="yes"/>
    <tag k="name" v="Penny"/>
  </node>
  <node id="370221341" version="8" timestamp="2010-06-15T19:29:56Z" uid="293774" user="Oli-Wan" changeset="4994636" lat="48.076721" lon="11.524715">
    <tag k="shop" v="supermarket"/>
    <tag k="name" v="Plus"/>
    <tag k="FIXME" v="Plus wurde zum 1.1.2009 durch Netto übernommen. Die bisherigen Plus-Filialen werden entweder in Netto umbenannt oder (wenige) an andere Handelsketten verkauft. Bitte überprüfen, unter welchem Namen diese Filiale jetzt läuft."/>
    <tag k="note" v="Plus"/>
  </node>
  <node id="371240834" version="2" timestamp="2011-10-22T07:06:01Z" uid="290680" user="wheelmap_visitor" changeset="9621211" lat="48.1864263" lon="11.5208753">
    <tag k="shop" v="supermarket"/>
    <tag k="wheelchair" v="yes"/>
    <tag k="name" v="Rewe"/>
  </node>
  <node id="371328023" version="4" timestamp="2011-05-30T06:48:57Z" uid="290680" user="wheelmap_visitor" changeset="8289030" lat="48.159934" lon="11.581837">
    <tag k="shop" v="supermarket"/>
    <tag k="wheelchair" v="yes"/>
    <tag k="name" v="REWE"/>
    <tag k="operator" v="REWE"/>
  </node>
  <node id="372848716" version="4" timestamp="2011-10-16T11:33:44Z" uid="336643" user="BigBen2003" changeset="9571359" lat="48.1813275" lon="11.5526516">
    <tag k="addr:postcode" v="80809"/>
    <tag k="shop" v="supermarket"/>
    <tag k="wheelchair" v="yes"/>
    <tag k="addr:country" v="DE"/>
    <tag k="name" v="Netto City"/>
    <tag k="addr:street" v="Helene-Mayer-Ring"/>
    <tag k="addr:city" v="München"/>
    <tag k="addr:housenumber" v="15"/>
    <tag k="opening_hours" v="Mo-Sa 07:00-20:00"/>
  </node>
  <node id="372848717" version="2" timestamp="2010-10-20T13:17:31Z" uid="290680" user="wheelmap_visitor" changeset="6111797" lat="48.1813163" lon="11.5530362">
    <tag k="shop" v="supermarket"/>
    <tag k="wheelchair" v="yes"/>
    <tag k="name" v="Tengelmann"/>
  </node>
  <node id="374196700" version="6" timestamp="2011-10-16T19:18:51Z" uid="290680" user="wheelmap_visitor" changeset="9569216" lat="48.148758" lon="11.441689">
    <tag k="addr:postcode" v="81243"/>
    <tag k="shop" v="supermarket"/>
    <tag k="wheelchair" v="limited"/>
    <tag k="addr:country" v="DE"/>
    <tag k="name" v="Ay"/>
    <tag k="addr:street" v="Aubinger Straße"/>
    <tag k="addr:city" v="München"/>
    <tag k="addr:housenumber" v="49"/>
    <tag k="opening_hours" v="Mo-Sa 07:00-20:00"/>
  </node>
  <node id="384329670" version="3" timestamp="2011-10-09T17:06:50Z" uid="290680" user="wheelmap_visitor" changeset="9508573" lat="48.1268048" lon="11.6455486">
    <tag k="shop" v="supermarket"/>
    <tag k="wheelchair" v="no"/>
    <tag k="name" v="Nah &amp; Gut"/>
  </node>
  <node id="387471214" version="3" timestamp="2010-09-12T19:22:33Z" uid="13029" user="ham" changeset="5763372" lat="48.1060578" lon="11.574636">
    <tag k="addr:postcode" v="81547"/>
    <tag k="shop" v="supermarket"/>
    <tag k="phone" v="+49 89 69373570"/>
    <tag k="addr:country" v="DE"/>
    <tag k="name" v="EDEKA"/>
    <tag k="addr:street" v="Säbener Straße"/>
    <tag k="addr:city" v="München"/>
    <tag k="addr:housenumber" v="21"/>
  </node>
  <node id="387735858" version="2" timestamp="2011-07-11T19:10:41Z" uid="290680" user="wheelmap_visitor" changeset="8696541" lat="48.1098662" lon="11.7179711">
    <tag k="shop" v="supermarket"/>
    <tag k="wheelchair" v="yes"/>
    <tag k="name" v="Aldi"/>
  </node>
  <node id="388182851" version="9" timestamp="2011-12-26T01:34:45Z" uid="290680" user="wheelmap_visitor" changeset="10197936" lat="48.159684" lon="11.5852977">
    <tag k="shop" v="supermarket"/>
    <tag k="wheelchair" v="yes"/>
    <tag k="wheelchair:description" v="Split level: Erdgeschoss ( Obst, Gemüse,Brot,Getränke )  stufenfrei zugänglich, Verkaufsraum etwas eng. Verkaufsraum im UG nur über stufenlose Rolltreppe ( wer sich das zutraut )."/>
    <tag k="name" v="Tengelmann"/>
    <tag k="addr:street" v="Leopoldstraße"/>
    <tag k="addr:city" v="München"/>
    <tag k="operator" v="Tengelmann"/>
  </node>
  <node id="389926808" version="4" timestamp="2011-10-25T14:57:12Z" uid="290680" user="wheelmap_visitor" changeset="9650151" lat="48.1140725" lon="11.4763113">
    <tag k="shop" v="supermarket"/>
    <tag k="wheelchair" v="yes"/>
    <tag k="name" v="Tengelmann"/>
  </node>
  <node id="389926818" version="1" timestamp="2009-05-03T19:15:21Z" uid="113364" user="BR0SI" changeset="1065657" lat="48.1083847" lon="11.4754603">
    <tag k="shop" v="supermarket"/>
    <tag k="name" v="Penny"/>
  </node>
  <node id="390080077" version="8" timestamp="2011-08-24T17:41:38Z" uid="70696" user="xybot" changeset="9114413" lat="48.1488999" lon="11.5753033">
    <tag k="shop" v="supermarket"/>
    <tag k="wheelchair" v="limited"/>
    <tag k="wheelchair:description" v="Für größere Rollstühle Kassenbereich zu eng ( Stand 9/2011 )"/>
    <tag k="name" v="Tengelmann"/>
    <tag k="operator" v="Tengelmann"/>
  </node>
  <node id="390082266" version="7" timestamp="2011-08-24T12:54:00Z" uid="495268" user="WLG" changeset="9112229" lat="48.1521449" lon="11.5769722">
    <tag k="addr:postcode" v="80799"/>
    <tag k="shop" v="supermarket"/>
    <tag k="wheelchair" v="yes"/>
    <tag k="website" v="http://www.tengelmann.de"/>
    <tag k="wheelchair:description" v="Für große Rollstühle zu eng"/>
    <tag k="addr:country" v="DE"/>
    <tag k="name" v="Tengelmann"/>
    <tag k="addr:street" v="Türkenstraße"/>
    <tag k="addr:city" v="München"/>
    <tag k="operator" v="Kaiser&apos;s Tengelmann AG"/>
    <tag k="addr:housenumber" v="77"/>
  </node>
  <node id="392551865" version="2" timestamp="2010-09-29T18:24:20Z" uid="290680" user="wheelmap_visitor" changeset="5914167" lat="48.1505786" lon="11.5040548">
    <tag k="shoes" v="supermarket"/>
    <tag k="shop" v="supermarket"/>
    <tag k="wheelchair" v="yes"/>
    <tag k="name" v="Tengelmann"/>
  </node>
  <node id="392854555" version="2" timestamp="2010-11-15T13:56:28Z" uid="65148" user="tixuwuoz" changeset="6377564" lat="48.1017398" lon="11.6281629">
    <tag k="addr:postcode" v="81737"/>
    <tag k="shop" v="supermarket"/>
    <tag k="phone" v="+49 89 6300 5732"/>
    <tag k="addr:country" v="DE"/>
    <tag k="name" v="Grüner Markt"/>
    <tag k="addr:street" v="Ottobrunner Straße"/>
    <tag k="addr:city" v="München"/>
    <tag k="note" v="Naturkost GmbH;Bio-Supermarkt"/>
    <tag k="addr:housenumber" v="133"/>
  </node>
  <node id="393437184" version="1" timestamp="2009-05-10T20:42:24Z" uid="72235" user="Basstoelpel" changeset="1144616" lat="48.1649871" lon="11.4904167">
    <tag k="shop" v="supermarket"/>
    <tag k="name" v="basic"/>
  </node>
  <node id="401565356" version="3" timestamp="2011-10-06T19:07:03Z" uid="290680" user="wheelmap_visitor" changeset="9482892" lat="48.1465171" lon="11.4642509">
    <tag k="addr:postcode" v="81241"/>
    <tag k="shop" v="supermarket"/>
    <tag k="wheelchair" v="yes"/>
    <tag k="addr:country" v="DE"/>
    <tag k="name" v="Alnatura"/>
    <tag k="addr:street" v="Landsberger Straße"/>
    <tag k="addr:city" v="München"/>
    <tag k="addr:housenumber" v="480-482"/>
    <tag k="opening_hours" v="Mo-Sa 08:00-20:00"/>
  </node>
  <node id="401570953" version="5" timestamp="2011-03-11T02:57:44Z" uid="68010" user="ms2000" changeset="7520090" lat="48.148937" lon="11.4609719">
    <tag k="shop" v="supermarket"/>
    <tag k="wheelchair" v="yes"/>
    <tag k="name" v="yormas"/>
  </node>
  <node id="402709129" version="4" timestamp="2012-01-02T22:37:56Z" uid="64164" user="osmkurt" changeset="10276839" lat="48.1164039" lon="11.5729238">
    <tag k="addr:postcode" v="81543"/>
    <tag k="shop" v="supermarket"/>
    <tag k="wheelchair" v="yes"/>
    <tag k="website" v="http://www.aldi-sued.de"/>
    <tag k="addr:country" v="DE"/>
    <tag k="name" v="Aldi (Süd)"/>
    <tag k="addr:street" v="Pilgersheimer Straße"/>
    <tag k="addr:city" v="München"/>
    <tag k="addr:housenumber" v="38"/>
    <tag k="opening_hours" v="Mo-Fr 08:00-20:00; Sa 08:00-20:00"/>
  </node>
  <node id="409039795" version="2" timestamp="2011-10-03T06:49:25Z" uid="290680" user="wheelmap_visitor" changeset="9456721" lat="48.1259834" lon="11.6615706">
    <tag k="shop" v="supermarket"/>
    <tag k="wheelchair" v="no"/>
    <tag k="name" v="Asia Markt"/>
  </node>
  <node id="409497580" version="4" timestamp="2011-10-12T20:16:06Z" uid="290680" user="wheelmap_visitor" changeset="9535427" lat="48.1293464" lon="11.5682812">
    <tag k="addr:postcode" v="80469"/>
    <tag k="shop" v="supermarket"/>
    <tag k="phone" v="+49 89 26022660"/>
    <tag k="wheelchair" v="yes"/>
    <tag k="addr:country" v="DE"/>
    <tag k="name" v="Tengelmann"/>
    <tag k="addr:street" v="Holzstraße"/>
    <tag k="addr:city" v="München"/>
    <tag k="addr:housenumber" v="25"/>
  </node>
  <node id="409497588" version="5" timestamp="2011-05-17T12:48:16Z" uid="290680" user="wheelmap_visitor" changeset="8169529" lat="48.1229374" lon="11.5650066">
    <tag k="addr:postcode" v="80469"/>
    <tag k="shop" v="supermarket"/>
    <tag k="wheelchair" v="yes"/>
    <tag k="website" v="http://www.rewe.de/"/>
    <tag k="addr:country" v="DE"/>
    <tag k="name" v="Rewe"/>
    <tag k="addr:street" v="Geyerstraße"/>
    <tag k="addr:city" v="München"/>
    <tag k="addr:housenumber" v="34"/>
  </node>
  <node id="409497595" version="4" timestamp="2011-10-16T11:33:41Z" uid="336643" user="BigBen2003" changeset="9571359" lat="48.1290419" lon="11.5715057">
    <tag k="addr:postcode" v="80469"/>
    <tag k="shop" v="supermarket"/>
    <tag k="addr:country" v="DE"/>
    <tag k="name" v="Netto City"/>
    <tag k="addr:street" v="Klenzestraße"/>
    <tag k="addr:city" v="München"/>
    <tag k="addr:housenumber" v="50"/>
    <tag k="opening_hours" v="Mo-Sa 07:00-20:00"/>
  </node>
  <node id="409497607" version="3" timestamp="2011-11-18T15:03:21Z" uid="534662" user="Q12" changeset="9864661" lat="48.1311182" lon="11.5708627">
    <tag k="addr:postcode" v="80469"/>
    <tag k="shop" v="supermarket"/>
    <tag k="phone" v="+49 89 26011738"/>
    <tag k="addr:country" v="DE"/>
    <tag k="name" v="Mekong Markt"/>
    <tag k="addr:street" v="Angertorstraße"/>
    <tag k="addr:city" v="München"/>
    <tag k="addr:housenumber" v="7"/>
  </node>
  <node id="409497608" version="1" timestamp="2009-05-22T09:30:08Z" uid="4802" user="thk" changeset="1283508" lat="48.1298976" lon="11.5706666">
    <tag k="shop" v="supermarket"/>
    <tag k="name" v="Tengelmann"/>
  </node>
  <node id="409497614" version="2" timestamp="2011-11-05T17:51:56Z" uid="290680" user="wheelmap_visitor" changeset="9744488" lat="48.1287801" lon="11.5711054">
    <tag k="shop" v="supermarket"/>
    <tag k="wheelchair" v="yes"/>
    <tag k="name" v="Tengelmann"/>
  </node>
  <node id="409497639" version="5" timestamp="2011-02-15T19:44:17Z" uid="29003" user="zarl" changeset="7298217" lat="48.1269442" lon="11.5672195">
    <tag k="addr:postcode" v="80469"/>
    <tag k="shop" v="supermarket"/>
    <tag k="phone" v="+49 89 5328063"/>
    <tag k="website" v="http://www.schmatz-naturkost.de/"/>
    <tag k="addr:country" v="DE"/>
    <tag k="name" v="Schmatz Biomarkt"/>
    <tag k="addr:street" v="Holzstraße"/>
    <tag k="addr:city" v="München"/>
    <tag k="addr:housenumber" v="49"/>
    <tag k="opening_hours" v="Mo-Sa 09:00-20:00"/>
  </node>
  <node id="410141496" version="4" timestamp="2012-01-02T23:24:12Z" uid="64164" user="osmkurt" changeset="10276839" lat="48.1139146" lon="11.5712715">
    <tag k="shop" v="supermarket"/>
    <tag k="wheelchair" v="limited"/>
    <tag k="name" v="Tengelmann"/>
  </node>
  <node id="411915842" version="6" timestamp="2011-10-05T20:58:41Z" uid="290680" user="wheelmap_visitor" changeset="9474855" lat="48.1471524" lon="11.4131301">
    <tag k="addr:postcode" v="81249"/>
    <tag k="shop" v="supermarket"/>
    <tag k="wheelchair" v="yes"/>
    <tag k="addr:country" v="DE"/>
    <tag k="name" v="Penny"/>
    <tag k="addr:street" v="Wiesentfelser Straße"/>
    <tag k="addr:city" v="München"/>
    <tag k="addr:housenumber" v="68"/>
    <tag k="opening_hours" v="07:00-20:00"/>
  </node>
  <node id="413731155" version="2" timestamp="2011-10-27T19:25:58Z" uid="290680" user="wheelmap_visitor" changeset="9665470" lat="48.1424192" lon="11.5493539">
    <tag k="shop" v="supermarket"/>
    <tag k="wheelchair" v="yes"/>
    <tag k="name" v="Lidl"/>
    <tag k="operator" v="Lidl Dienstleistung GmbH &amp; Co. KG"/>
  </node>
  <node id="415003258" version="3" timestamp="2009-06-26T08:40:21Z" uid="68974" user="Broky" changeset="1636494" lat="48.1649912" lon="11.4649995">
    <tag k="addr:postcode" v="81247"/>
    <tag k="shop" v="supermarket"/>
    <tag k="addr:country" v="DE"/>
    <tag k="name" v="Penny"/>
    <tag k="addr:street" v="Verdistraße"/>
    <tag k="addr:city" v="München"/>
    <tag k="addr:housenumber" v="106-108"/>
  </node>
  <node id="415229719" version="2" timestamp="2010-05-31T21:55:39Z" uid="68974" user="Broky" changeset="4868966" lat="48.1684122" lon="11.4647745">
    <tag k="shop" v="supermarket"/>
    <tag k="name" v="Netto"/>
  </node>
  <node id="415801930" version="4" timestamp="2011-06-11T18:57:13Z" uid="440072" user="Steffilein" changeset="8408862" lat="48.1342468" lon="11.5351253">
    <tag k="shop" v="supermarket"/>
    <tag k="wheelchair" v="yes"/>
    <tag k="name" v="Tengelmann"/>
  </node>
  <node id="416821856" version="8" timestamp="2011-07-30T12:17:32Z" uid="81983" user="Ogmios" changeset="8871654" lat="48.1612533" lon="11.567544">
    <tag k="addr:postcode" v="80796"/>
    <tag k="shop" v="supermarket"/>
    <tag k="contact:fax" v="+49 89 30768006"/>
    <tag k="wheelchair" v="yes"/>
    <tag k="addr:country" v="DE"/>
    <tag k="name" v="Asia Feinkost"/>
    <tag k="contact:phone" v="+49 89 30768005"/>
    <tag k="addr:street" v="Hohenzollernstraße"/>
    <tag k="addr:city" v="München"/>
    <tag k="addr:housenumber" v="128"/>
    <tag k="opening_hours" v="Mo-Fr 10:00-20:00; Sa 09:00-18:00"/>
  </node>
  <node id="416821860" version="4" timestamp="2011-08-20T17:11:59Z" uid="42875" user="burnus" changeset="9076030" lat="48.15895" lon="11.563">
    <tag k="shop" v="supermarket"/>
    <tag k="wheelchair" v="yes"/>
    <tag k="name" v="Rewe"/>
    <tag k="opening_hours" v="Mo-Sa 07:00-20:00"/>
  </node>
  <node id="416871727" version="2" timestamp="2011-09-23T17:38:40Z" uid="290680" user="wheelmap_visitor" changeset="9373820" lat="48.1299126" lon="11.3634126">
    <tag k="shop" v="supermarket"/>
    <tag k="wheelchair" v="yes"/>
    <tag k="name" v="Norma"/>
  </node>
  <node id="418673254" version="6" timestamp="2011-10-14T08:07:28Z" uid="290680" user="wheelmap_visitor" changeset="9552229" lat="48.1798203" lon="11.5701148">
    <tag k="shop" v="supermarket"/>
    <tag k="wheelchair" v="no"/>
    <tag k="name" v="Schlecker Drogerie"/>
    <tag k="operator" v="Schlecker"/>
  </node>
  <node id="419051621" version="3" timestamp="2010-10-21T19:10:27Z" uid="290680" user="wheelmap_visitor" changeset="6121669" lat="48.112255" lon="11.548127">
    <tag k="shop" v="supermarket"/>
    <tag k="wheelchair" v="limited"/>
    <tag k="name" v="Tengelmann"/>
  </node>
  <node id="420371429" version="6" timestamp="2011-10-21T17:05:34Z" uid="290680" user="wheelmap_visitor" changeset="9613553" lat="48.1185593" lon="11.6585701">
    <tag k="addr:postcode" v="81825"/>
    <tag k="shop" v="supermarket"/>
    <tag k="phone" v="+49 89 4203 6721"/>
    <tag k="wheelchair" v="yes"/>
    <tag k="addr:country" v="DE"/>
    <tag k="name" v="Edeka Braun"/>
    <tag k="addr:street" v="Bajuwarenstraße"/>
    <tag k="addr:city" v="München"/>
    <tag k="addr:housenumber" v="71"/>
    <tag k="opening_hours" v="Mo-Sa 08:00-20:00"/>
  </node>
  <node id="427540546" version="6" timestamp="2011-11-04T00:39:24Z" uid="94240" user="zichwi" changeset="9735334" lat="48.1637141" lon="11.5639561">
    <tag k="addr:postcode" v="80797"/>
    <tag k="shop" v="supermarket"/>
    <tag k="wheelchair" v="yes"/>
    <tag k="name" v="REWE"/>
    <tag k="addr:street" v="Schleißheimer Straße"/>
    <tag k="addr:housenumber" v="124"/>
  </node>
  <node id="427540592" version="2" timestamp="2009-06-21T11:52:53Z" uid="116151" user="cruz" changeset="1581712" lat="48.170595" lon="11.5636042">
    <tag k="shop" v="supermarket"/>
    <tag k="name" v="Tengelmann"/>
  </node>
  <node id="429432230" version="4" timestamp="2011-01-21T10:34:50Z" uid="319840" user="octo" changeset="7038889" lat="48.1645137" lon="11.4720395">
    <tag k="shop" v="supermarket"/>
    <tag k="name" v="Tengelmann"/>
  </node>
  <node id="430262652" version="3" timestamp="2010-03-22T22:08:35Z" uid="209303" user="RedStripe" changeset="4207576" lat="48.1246869" lon="11.5416486">
    <tag k="shop" v="supermarket"/>
    <tag k="name" v="Penny"/>
  </node>
  <node id="433909615" version="3" timestamp="2011-09-30T21:23:44Z" uid="107037" user="ulfm" changeset="9439010" lat="48.1623383" lon="11.5635851">
    <tag k="shop" v="supermarket"/>
    <tag k="wheelchair" v="limited"/>
    <tag k="name" v="Norma"/>
  </node>
  <node id="434139503" version="3" timestamp="2011-03-13T14:39:04Z" uid="59819" user="Fuss-im-Ohr" changeset="7545582" lat="48.1097349" lon="11.5747946">
    <tag k="addr:postcode" v="81547"/>
    <tag k="shop" v="supermarket"/>
    <tag k="phone" v="+49 89 69372707"/>
    <tag k="website" v="http://rewe.de"/>
    <tag k="addr:country" v="DE"/>
    <tag k="name" v="REWE"/>
    <tag k="addr:street" v="Grünwalder Straße"/>
    <tag k="addr:city" v="München"/>
    <tag k="operator" v="REWE Markt GmbH"/>
    <tag k="addr:housenumber" v="10"/>
    <tag k="opening_hours" v="Mo-Sa 07:00-20:00"/>
  </node>
  <node id="441511827" version="3" timestamp="2011-10-30T15:02:12Z" uid="64164" user="osmkurt" changeset="9694585" lat="48.136613" lon="11.6144963">
    <tag k="shop" v="supermarket"/>
    <tag k="wheelchair" v="yes"/>
    <tag k="name" v="dm"/>
  </node>
  <node id="442006818" version="4" timestamp="2011-10-02T11:24:42Z" uid="290680" user="wheelmap_visitor" changeset="9447804" lat="48.1542394" lon="11.5534496">
    <tag k="shop" v="supermarket"/>
    <tag k="wheelchair" v="limited"/>
    <tag k="name" v="Tengelmann"/>
  </node>
  <node id="444380190" version="4" timestamp="2011-03-29T18:11:07Z" uid="342705" user="KLMB" changeset="7709150" lat="48.1538451" lon="11.4640123">
    <tag k="addr:postcode" v="81245"/>
    <tag k="shop" v="supermarket"/>
    <tag k="addr:country" v="DE"/>
    <tag k="name" v="Feinkost Ettinger"/>
    <tag k="addr:street" v="Orthstraße"/>
    <tag k="addr:city" v="München"/>
    <tag k="addr:housenumber" v="14"/>
  </node>
  <node id="445639043" version="3" timestamp="2011-10-07T11:48:32Z" uid="290680" user="wheelmap_visitor" changeset="9490517" lat="48.1863109" lon="11.5723466">
    <tag k="shop" v="supermarket"/>
    <tag k="wheelchair" v="limited"/>
    <tag k="name" v="Tengelmann"/>
  </node>
  <node id="446294690" version="1" timestamp="2009-07-23T20:12:02Z" uid="149131" user="cruemel" changeset="1918904" lat="48.1813075" lon="11.535167">
    <tag k="shop" v="supermarket"/>
    <tag k="name" v="Netto"/>
  </node>
  <node id="446296461" version="2" timestamp="2010-09-14T09:31:59Z" uid="346622" user="MRons" changeset="5776722" lat="48.1792929" lon="11.5267642">
    <tag k="shop" v="supermarket"/>
    <tag k="name" v="Norma"/>
  </node>
  <node id="447082846" version="5" timestamp="2011-03-27T09:31:09Z" uid="323389" user="Michael_H" changeset="7683802" lat="48.1351065" lon="11.374965">
    <tag k="addr:postcode" v="82110"/>
    <tag k="shop" v="supermarket"/>
    <tag k="wheelchair" v="yes"/>
    <tag k="name" v="Edeka"/>
    <tag k="addr:street" v="Wittelsbacherstraße"/>
    <tag k="addr:city" v="Germering"/>
    <tag k="addr:housenumber" v="23"/>
  </node>
  <node id="448950020" version="1" timestamp="2009-07-27T13:33:18Z" uid="52819" user="afiesselmann" changeset="1955061" lat="48.1089438" lon="11.4498327">
    <tag k="shop" v="supermarket"/>
    <tag k="name" v="Rewe"/>
  </node>
  <node id="448950025" version="1" timestamp="2009-07-27T13:33:18Z" uid="52819" user="afiesselmann" changeset="1955061" lat="48.1089094" lon="11.4506224">
    <tag k="shop" v="supermarket"/>
    <tag k="name" v="Penny"/>
  </node>
  <node id="449587261" version="4" timestamp="2011-12-31T16:24:58Z" uid="64164" user="osmkurt" changeset="10255860" lat="48.1056031" lon="11.5926355">
    <tag k="shop" v="supermarket"/>
    <tag k="wheelchair" v="limited"/>
    <tag k="name" v="Penny"/>
  </node>
  <node id="452068323" version="5" timestamp="2011-08-20T17:47:35Z" uid="70696" user="xybot" changeset="9076184" lat="48.1562536" lon="11.5718287">
    <tag k="shop" v="supermarket"/>
    <tag k="wheelchair" v="yes"/>
    <tag k="wheelchair:description" v="Innen z.T. recht eng !"/>
    <tag k="name" v="Rewe"/>
    <tag k="addr:street" v="Georgenstraße"/>
    <tag k="addr:city" v="München"/>
    <tag k="addr:housenumber" v="78"/>
  </node>
  <node id="454379138" version="1" timestamp="2009-08-02T15:06:56Z" uid="107037" user="ulfm" changeset="2014822" lat="48.1441802" lon="11.6216941">
    <tag k="shop" v="supermarket"/>
    <tag k="name" v="Netto"/>
  </node>
  <node id="454417045" version="2" timestamp="2011-02-08T23:34:35Z" uid="342705" user="KLMB" changeset="7232063" lat="48.1621814" lon="11.5850467">
    <tag k="shop" v="supermarket"/>
    <tag k="name" v="Shanghai Markt"/>
  </node>
  <node id="455537321" version="3" timestamp="2011-10-11T20:19:18Z" uid="290680" user="wheelmap_visitor" changeset="9527581" lat="48.1657816" lon="11.5882003">
    <tag k="shop" v="supermarket"/>
    <tag k="wheelchair" v="limited"/>
    <tag k="name" v="REWE"/>
  </node>
  <node id="458228438" version="2" timestamp="2010-12-08T19:31:13Z" uid="61646" user="PatrickK" changeset="6588191" lat="48.1357965" lon="11.5584576">
    <tag k="shop" v="supermarket"/>
    <tag k="source" v="sightwalk.de"/>
    <tag k="name" v="Mevlâna Süpermarket"/>
  </node>
  <node id="458228439" version="2" timestamp="2010-12-08T19:31:14Z" uid="61646" user="PatrickK" changeset="6588191" lat="48.1359526" lon="11.5584626">
    <tag k="shop" v="supermarket"/>
    <tag k="source" v="sightwalk.de"/>
    <tag k="name" v="Can Supermarkt"/>
    <tag k="operator" v="Gazi"/>
  </node>
  <node id="458228441" version="1" timestamp="2009-08-07T16:30:17Z" uid="23030" user="AndreR" changeset="2067200" lat="48.136141" lon="11.5587084">
    <tag k="shop" v="supermarket"/>
    <tag k="source" v="sightwalk.de"/>
    <tag k="name" v="Anadolu Supermarket"/>
  </node>
  <node id="470708990" version="4" timestamp="2011-09-23T17:55:41Z" uid="290680" user="wheelmap_visitor" changeset="9373820" lat="48.1313687" lon="11.3649175">
    <tag k="addr:postcode" v="82110"/>
    <tag k="shop" v="supermarket"/>
    <tag k="wheelchair" v="yes"/>
    <tag k="addr:country" v="DE"/>
    <tag k="name" v="Tengelmann"/>
    <tag k="addr:street" v="Untere Bahnhofstraße"/>
    <tag k="addr:city" v="Germering"/>
    <tag k="addr:housenumber" v="31"/>
  </node>
  <node id="470763355" version="6" timestamp="2011-10-13T08:17:50Z" uid="290680" user="wheelmap_visitor" changeset="9544161" lat="48.0769187" lon="11.5184656">
    <tag k="shop" v="supermarket"/>
    <tag k="wheelchair" v="yes"/>
    <tag k="name" v="Tengelmann"/>
  </node>
  <node id="470929329" version="4" timestamp="2011-12-29T05:39:56Z" uid="20877" user="Torbig" changeset="10232276" lat="48.1283968" lon="11.3659759">
    <tag k="addr:postcode" v="82110"/>
    <tag k="shop" v="supermarket"/>
    <tag k="website" v="www.vitalia-reformhaus.de"/>
    <tag k="addr:country" v="DE"/>
    <tag k="name" v="Vitalia"/>
    <tag k="addr:street" v="Untere Bahnhofstraße"/>
    <tag k="addr:city" v="Germering"/>
    <tag k="addr:housenumber" v="51"/>
  </node>
  <node id="474806662" version="2" timestamp="2009-08-27T11:56:55Z" uid="163350" user="iceboy" changeset="2276559" lat="48.1193041" lon="11.4834765">
    <tag k="shop" v="supermarket"/>
    <tag k="name" v="Netto City"/>
  </node>
  <node id="477959969" version="3" timestamp="2011-11-08T12:10:07Z" uid="290680" user="wheelmap_visitor" changeset="9770655" lat="48.1118555" lon="11.7141335">
    <tag k="shop" v="supermarket"/>
    <tag k="wheelchair" v="yes"/>
    <tag k="name" v="Rewe"/>
  </node>
  <node id="479785237" version="2" timestamp="2010-12-26T16:50:44Z" uid="68010" user="ms2000" changeset="6769887" lat="48.1472951" lon="11.4213115">
    <tag k="addr:postcode" v="81243"/>
    <tag k="shop" v="supermarket"/>
    <tag k="addr:country" v="DE"/>
    <tag k="name" v="Ugur"/>
    <tag k="addr:street" v="Wiesentfelser Straße"/>
    <tag k="addr:city" v="München"/>
    <tag k="addr:housenumber" v="1"/>
  </node>
  <node id="479800328" version="3" timestamp="2011-12-06T21:02:55Z" uid="290680" user="wheelmap_visitor" changeset="10052083" lat="48.146711" lon="11.422004">
    <tag k="addr:postcode" v="81243"/>
    <tag k="shop" v="supermarket"/>
    <tag k="wheelchair" v="limited"/>
    <tag k="addr:country" v="DE"/>
    <tag k="name" v="Reformhaus Mayr"/>
    <tag k="addr:street" v="Limesstraße"/>
    <tag k="addr:city" v="München"/>
    <tag k="addr:housenumber" v="73"/>
  </node>
  <node id="480025433" version="4" timestamp="2011-10-16T11:33:40Z" uid="336643" user="BigBen2003" changeset="9571359" lat="48.1147298" lon="11.5717557">
    <tag k="addr:postcode" v="81543"/>
    <tag k="shop" v="supermarket"/>
    <tag k="wheelchair" v="yes"/>
    <tag k="addr:country" v="DE"/>
    <tag k="name" v="Netto City"/>
    <tag k="addr:street" v="Konradinstraße"/>
    <tag k="addr:city" v="München"/>
    <tag k="addr:housenumber" v="4"/>
    <tag k="opening_hours" v="Mo-Sa 07:00-20:00"/>
  </node>
  <node id="480025742" version="1" timestamp="2009-09-01T14:59:33Z" uid="32208" user="islandius" changeset="2337975" lat="48.1159103" lon="11.570906">
    <tag k="shop" v="supermarket"/>
    <tag k="name" v="Penny"/>
  </node>
  <node id="489450612" version="4" timestamp="2012-01-06T23:14:58Z" uid="13354" user="ivl1705" changeset="10316936" lat="48.1252909" lon="11.5617606">
    <tag k="addr:postcode" v="80337"/>
    <tag k="shop" v="supermarket"/>
    <tag k="wheelchair" v="yes"/>
    <tag k="addr:country" v="DE"/>
    <tag k="name" v="Penny Markt"/>
    <tag k="addr:street" v="Kapuzinerstraße"/>
    <tag k="addr:state" v="Bayern"/>
    <tag k="addr:city" v="München"/>
    <tag k="addr:housenumber" v="88"/>
  </node>
  <node id="500339709" version="3" timestamp="2011-10-16T11:33:44Z" uid="336643" user="BigBen2003" changeset="9571359" lat="48.1619567" lon="11.5400733">
    <tag k="addr:postcode" v="80637"/>
    <tag k="shop" v="supermarket"/>
    <tag k="wheelchair" v="no"/>
    <tag k="addr:country" v="DE"/>
    <tag k="name" v="Netto City"/>
    <tag k="addr:street" v="Trivastraße"/>
    <tag k="addr:city" v="München"/>
    <tag k="addr:housenumber" v="23"/>
    <tag k="opening_hours" v="Mo-Sa 07:00-20:00"/>
  </node>
  <node id="505114068" version="3" timestamp="2011-10-09T21:50:11Z" uid="290680" user="wheelmap_visitor" changeset="9508573" lat="48.1859052" lon="11.5766088">
    <tag k="shop" v="supermarket"/>
    <tag k="wheelchair" v="limited"/>
    <tag k="name" v="Norma"/>
  </node>
  <node id="518114605" version="6" timestamp="2010-10-11T14:38:02Z" uid="40397" user="Zartbitter" changeset="6012248" lat="48.0883645" lon="11.5198312">
    <tag k="addr:postcode" v="81479"/>
    <tag k="shop" v="supermarket"/>
    <tag k="source" v="survey"/>
    <tag k="addr:country" v="DE"/>
    <tag k="name" v="Netto"/>
    <tag k="addr:street" v="Aidenbachstraße"/>
    <tag k="addr:city" v="München"/>
    <tag k="addr:housenumber" v="142"/>
  </node>
  <node id="519403106" version="2" timestamp="2011-10-13T08:18:50Z" uid="290680" user="wheelmap_visitor" changeset="9544161" lat="48.0772282" lon="11.5189863">
    <tag k="shop" v="supermarket"/>
    <tag k="wheelchair" v="yes"/>
    <tag k="name" v="Tengelmann"/>
  </node>
  <node id="523690888" version="6" timestamp="2011-10-30T15:01:27Z" uid="64164" user="osmkurt" changeset="9694585" lat="48.1364698" lon="11.6137184">
    <tag k="addr:postcode" v="81675"/>
    <tag k="shop" v="supermarket"/>
    <tag k="wheelchair" v="yes"/>
    <tag k="addr:country" v="DE"/>
    <tag k="name" v="Edeka Simmel"/>
    <tag k="addr:street" v="Einsteinstraße"/>
    <tag k="addr:city" v="München"/>
    <tag k="operator" v="Edeka"/>
    <tag k="addr:housenumber" v="130"/>
  </node>
  <node id="527830925" version="3" timestamp="2012-01-04T06:36:21Z" uid="64164" user="osmkurt" changeset="10288123" lat="48.1334686" lon="11.5750978">
    <tag k="addr:postcode" v="80469"/>
    <tag k="shop" v="supermarket"/>
    <tag k="wheelchair" v="limited"/>
    <tag k="website" v="http://norma-online.de"/>
    <tag k="wheelchair:description" v="Zwei Stufen am Enigang mit (pemamenter?) Metallrampe"/>
    <tag k="addr:country" v="DE"/>
    <tag k="name" v="Norma"/>
    <tag k="addr:street" v="Am Einlaß"/>
    <tag k="addr:city" v="München"/>
    <tag k="operator" v="NORMA Lebensmittelfilialbetrieb GmbH &amp; Co.KG"/>
    <tag k="addr:housenumber" v="3a"/>
    <tag k="opening_hours" v="Mo-Su 08:00-20:00"/>
  </node>
  <node id="528998456" version="6" timestamp="2011-10-31T02:49:30Z" uid="64164" user="osmkurt" changeset="9699641" lat="48.1481066" lon="11.6177622">
    <tag k="shop" v="supermarket"/>
    <tag k="wheelchair" v="yes"/>
    <tag k="name" v="Tengelmann"/>
    <tag k="layer" v="-1"/>
  </node>
  <node id="528998462" version="7" timestamp="2011-10-31T02:14:57Z" uid="64164" user="osmkurt" changeset="9699641" lat="48.1484307" lon="11.6177074">
    <tag k="addr:postcode" v="81679"/>
    <tag k="shop" v="supermarket"/>
    <tag k="wheelchair" v="yes"/>
    <tag k="addr:country" v="DE"/>
    <tag k="name" v="Aldi (Süd)"/>
    <tag k="addr:street" v="Richard-Strauss-Straße"/>
    <tag k="addr:city" v="München"/>
    <tag k="addr:housenumber" v="80 + 82"/>
    <tag k="opening_hours" v="Mo-Fr 08:00-20:00;Sa 08:00-20:00"/>
  </node>
  <node id="529886547" version="4" timestamp="2011-10-04T23:17:52Z" uid="290680" user="wheelmap_visitor" changeset="9466302" lat="48.2495818" lon="11.6505227">
    <tag k="addr:postcode" v="85748"/>
    <tag k="shop" v="supermarket"/>
    <tag k="wheelchair" v="limited"/>
    <tag k="addr:country" v="DE"/>
    <tag k="name" v="Tengelmann"/>
    <tag k="addr:street" v="Schleißheimer Straße"/>
    <tag k="addr:city" v="Garching b. München"/>
    <tag k="addr:housenumber" v="10"/>
    <tag k="opening_hours" v="Mo-Fr 08:00-20:00; Sa 07:30-20:00"/>
  </node>
  <node id="534453958" version="3" timestamp="2011-12-04T18:28:41Z" uid="534662" user="Q12" changeset="10036127" lat="48.1379445" lon="11.5650773">
    <tag k="shop" v="supermarket"/>
    <tag k="wheelchair" v="yes"/>
    <tag k="name" v="Tengelmann"/>
    <tag k="layer" v="-1"/>
  </node>
  <node id="536627132" version="2" timestamp="2012-01-07T17:06:59Z" uid="290680" user="wheelmap_visitor" changeset="10318920" lat="48.181159" lon="11.5341178">
    <tag k="shop" v="supermarket"/>
    <tag k="wheelchair" v="yes"/>
    <tag k="name" v="Orterer"/>
    <tag k="opening_hours" v="Mo-Sa 08:00-20:00"/>
  </node>
  <node id="539450135" version="2" timestamp="2011-10-09T17:04:15Z" uid="290680" user="wheelmap_visitor" changeset="9508573" lat="48.0957638" lon="11.4979223">
    <tag k="shop" v="supermarket"/>
    <tag k="wheelchair" v="yes"/>
    <tag k="name" v="REWE"/>
    <tag k="layer" v="1"/>
  </node>
  <node id="540382883" version="4" timestamp="2011-06-25T15:20:16Z" uid="80117" user="kartenleser" changeset="8543495" lat="48.0823157" lon="11.4852282">
    <tag k="addr:postcode" v="81475"/>
    <tag k="shop" v="supermarket"/>
    <tag k="wheelchair" v="yes"/>
    <tag k="addr:country" v="DE"/>
    <tag k="name" v="AEZ"/>
    <tag k="addr:street" v="Königswieser Straße"/>
    <tag k="addr:city" v="München"/>
    <tag k="addr:housenumber" v="5"/>
  </node>
  <node id="540382897" version="3" timestamp="2011-06-22T16:31:53Z" uid="80117" user="kartenleser" changeset="8515702" lat="48.0824894" lon="11.4845941">
    <tag k="addr:postcode" v="81475"/>
    <tag k="shop" v="supermarket"/>
    <tag k="wheelchair" v="yes"/>
    <tag k="addr:country" v="DE"/>
    <tag k="name" v="Norma"/>
    <tag k="addr:street" v="Königswieser Straße"/>
    <tag k="addr:city" v="München"/>
    <tag k="addr:housenumber" v="5"/>
  </node>
  <node id="544395888" version="2" timestamp="2011-11-07T16:36:28Z" uid="111325" user="Winzler" changeset="9766307" lat="48.1499086" lon="11.5568337">
    <tag k="shop" v="supermarket"/>
    <tag k="name" v="Penny Markt"/>
  </node>
  <node id="559836189" version="3" timestamp="2011-10-12T13:27:39Z" uid="290680" user="wheelmap_visitor" changeset="9535427" lat="48.0876162" lon="11.4597304">
    <tag k="shop" v="supermarket"/>
    <tag k="wheelchair" v="yes"/>
    <tag k="name" v="Aldi"/>
  </node>
  <node id="560098184" version="9" timestamp="2011-10-16T11:33:48Z" uid="336643" user="BigBen2003" changeset="9571359" lat="48.184679" lon="11.568019">
    <tag k="addr:postcode" v="80807"/>
    <tag k="shop" v="supermarket"/>
    <tag k="wheelchair" v="yes"/>
    <tag k="addr:country" v="DE"/>
    <tag k="name" v="Netto"/>
    <tag k="addr:street" v="Milbertshofener Straße"/>
    <tag k="addr:city" v="München"/>
    <tag k="addr:housenumber" v="9"/>
    <tag k="opening_hours" v="Mo-Sa 07:00-20:00"/>
  </node>
  <node id="567834741" version="4" timestamp="2011-07-03T17:04:13Z" uid="81983" user="Ogmios" changeset="8621218" lat="48.1669254" lon="11.5779543">
    <tag k="shop" v="supermarket"/>
    <tag k="wheelchair" v="yes"/>
    <tag k="addr:country" v="DE"/>
    <tag k="name" v="REWE"/>
    <tag k="addr:street" v="Bonner Platz"/>
    <tag k="addr:city" v="München"/>
    <tag k="addr:housenumber" v="1"/>
  </node>
  <node id="582623382" version="2" timestamp="2011-10-10T10:55:14Z" uid="290680" user="wheelmap_visitor" changeset="9518514" lat="48.1835474" lon="11.532832">
    <tag k="shop" v="supermarket"/>
    <tag k="wheelchair" v="yes"/>
    <tag k="name" v="Edeka"/>
  </node>
  <node id="597822548" version="2" timestamp="2010-05-14T19:38:41Z" uid="46472" user="sendelhorst" changeset="4699307" lat="48.1256082" lon="11.5403272">
    <tag k="shop" v="supermarket"/>
  </node>
  <node id="600449161" version="6" timestamp="2011-10-16T11:33:44Z" uid="336643" user="BigBen2003" changeset="9571359" lat="48.1666326" lon="11.577467">
    <tag k="addr:postcode" v="80803"/>
    <tag k="shop" v="supermarket"/>
    <tag k="wheelchair" v="yes"/>
    <tag k="addr:country" v="DE"/>
    <tag k="name" v="Netto City"/>
    <tag k="addr:street" v="Karl-Theodor-Straße"/>
    <tag k="addr:city" v="München"/>
    <tag k="addr:housenumber" v="55"/>
    <tag k="opening_hours" v="Mo-Sa 07:00-20:00"/>
  </node>
  <node id="601497064" version="4" timestamp="2011-10-20T06:20:01Z" uid="290680" user="wheelmap_visitor" changeset="9604904" lat="48.1225483" lon="11.3686025">
    <tag k="shop" v="supermarket"/>
    <tag k="wheelchair" v="yes"/>
    <tag k="name" v="REWE"/>
  </node>
  <node id="603101652" version="2" timestamp="2011-05-17T11:20:45Z" uid="290680" user="wheelmap_visitor" changeset="8169529" lat="48.107136" lon="11.65667">
    <tag k="created_by" v="andnav.org"/>
    <tag k="shop" v="supermarket"/>
    <tag k="wheelchair" v="yes"/>
    <tag k="name" v="Penny"/>
  </node>
  <node id="603101954" version="2" timestamp="2011-05-17T11:20:46Z" uid="290680" user="wheelmap_visitor" changeset="8169529" lat="48.10738" lon="11.655962">
    <tag k="created_by" v="andnav.org"/>
    <tag k="shop" v="supermarket"/>
    <tag k="wheelchair" v="yes"/>
    <tag k="name" v="Rewe"/>
  </node>
  <node id="611278859" version="1" timestamp="2010-01-10T21:18:43Z" uid="88508" user="dino_h" changeset="3591682" lat="48.165098" lon="11.4895412">
    <tag k="shop" v="supermarket"/>
    <tag k="name" v="Lidl"/>
  </node>
  <node id="613616972" version="2" timestamp="2011-12-28T15:12:16Z" uid="290680" user="wheelmap_visitor" changeset="10222046" lat="48.1306374" lon="11.616281">
    <tag k="shop" v="supermarket"/>
    <tag k="wheelchair" v="limited"/>
    <tag k="name" v="Tengelmann"/>
  </node>
  <node id="616615329" version="3" timestamp="2011-10-21T22:26:20Z" uid="290680" user="wheelmap_visitor" changeset="9613553" lat="48.118071" lon="11.5168021">
    <tag k="shop" v="supermarket"/>
    <tag k="wheelchair" v="yes"/>
    <tag k="name" v="Netto"/>
  </node>
  <node id="617283009" version="2" timestamp="2011-03-20T17:33:00Z" uid="290680" user="wheelmap_visitor" changeset="7618501" lat="48.0891179" lon="11.4807351">
    <tag k="shop" v="supermarket"/>
    <tag k="wheelchair" v="yes"/>
    <tag k="name" v="REWE"/>
  </node>
  <node id="622134999" version="3" timestamp="2011-02-01T21:46:08Z" uid="290680" user="wheelmap_visitor" changeset="7156704" lat="48.1031152" lon="11.5320275">
    <tag k="addr:postcode" v="81379"/>
    <tag k="shop" v="supermarket"/>
    <tag k="wheelchair" v="yes"/>
    <tag k="addr:country" v="DE"/>
    <tag k="name" v="Penny"/>
    <tag k="addr:street" v="Zielstattstraße"/>
    <tag k="addr:city" v="München"/>
    <tag k="addr:housenumber" v="10"/>
  </node>
  <node id="624789521" version="4" timestamp="2011-10-16T11:33:46Z" uid="336643" user="BigBen2003" changeset="9571359" lat="48.1552005" lon="11.5375973">
    <tag k="addr:postcode" v="80636"/>
    <tag k="shop" v="supermarket"/>
    <tag k="addr:country" v="DE"/>
    <tag k="name" v="Netto"/>
    <tag k="addr:street" v="Leonrodstraße"/>
    <tag k="addr:city" v="München"/>
    <tag k="addr:housenumber" v="31"/>
    <tag k="opening_hours" v="Mo-Sa 07:00-20:00"/>
  </node>
  <node id="627850955" version="5" timestamp="2011-02-15T14:33:13Z" uid="290680" user="wheelmap_visitor" changeset="7293585" lat="48.1135703" lon="11.5335392">
    <tag k="shop" v="supermarket"/>
    <tag k="wheelchair" v="yes"/>
    <tag k="name" v="EDEKA"/>
  </node>
  <node id="628634987" version="9" timestamp="2012-01-09T10:54:52Z" uid="13219" user="Pyrokrat" changeset="10340588" lat="48.1561148" lon="11.5655139">
    <tag k="addr:postcode" v="80807"/>
    <tag k="shop" v="supermarket"/>
    <tag k="addr:country" v="DE"/>
    <tag k="name" v="Netto"/>
    <tag k="addr:street" v="Hiltenspergerstraße"/>
    <tag k="addr:city" v="München"/>
    <tag k="addr:housenumber" v="11"/>
    <tag k="opening_hours" v="Mo-Sa 07:00-20:00"/>
  </node>
  <node id="648540112" version="3" timestamp="2011-07-04T15:50:59Z" uid="81983" user="Ogmios" changeset="8630675" lat="48.1373935" lon="11.5600413">
    <tag k="shop" v="supermarket"/>
    <tag k="addr:country" v="DE"/>
    <tag k="name" v="Lidl"/>
    <tag k="addr:street" v="Schwanthalerstraße"/>
    <tag k="addr:city" v="München"/>
    <tag k="addr:housenumber" v="31"/>
  </node>
  <node id="652427486" version="5" timestamp="2011-12-26T15:48:05Z" uid="290680" user="wheelmap_visitor" changeset="10205620" lat="48.1397126" lon="11.6103591">
    <tag k="shop" v="supermarket"/>
    <tag k="wheelchair" v="yes"/>
    <tag k="name" v="Tengelmann"/>
  </node>
  <node id="655140938" version="3" timestamp="2011-10-07T17:15:31Z" uid="290680" user="wheelmap_visitor" changeset="9490517" lat="48.1496372" lon="11.4355583">
    <tag k="addr:postcode" v="81243"/>
    <tag k="shop" v="supermarket"/>
    <tag k="wheelchair" v="yes"/>
    <tag k="addr:country" v="DE"/>
    <tag k="name" v="Penny"/>
    <tag k="addr:street" v="Radolfzeller Straße"/>
    <tag k="addr:city" v="München"/>
    <tag k="addr:housenumber" v="5a"/>
  </node>
  <node id="657793861" version="3" timestamp="2011-06-13T22:34:04Z" uid="469939" user="fredero" changeset="8432455" lat="48.2092309" lon="11.5652292">
    <tag k="shop" v="supermarket"/>
    <tag k="wheelchair" v="yes"/>
    <tag k="name" v="Penny"/>
  </node>
  <node id="657806462" version="2" timestamp="2010-11-24T12:08:58Z" uid="290680" user="wheelmap_visitor" changeset="6446176" lat="48.2127564" lon="11.5639249">
    <tag k="shop" v="supermarket"/>
    <tag k="wheelchair" v="yes"/>
    <tag k="name" v="REWE"/>
  </node>
  <node id="657806674" version="2" timestamp="2010-11-24T12:09:00Z" uid="290680" user="wheelmap_visitor" changeset="6446176" lat="48.213264" lon="11.563485">
    <tag k="shop" v="supermarket"/>
    <tag k="wheelchair" v="yes"/>
    <tag k="name" v="ALDI"/>
  </node>
  <node id="657832881" version="2" timestamp="2011-07-04T01:03:16Z" uid="64164" user="osmkurt" changeset="8625180" lat="48.2045248" lon="11.5731124">
    <tag k="shop" v="supermarket"/>
    <tag k="name" v="Edeka"/>
  </node>
  <node id="659035581" version="6" timestamp="2011-10-16T11:33:42Z" uid="336643" user="BigBen2003" changeset="9571359" lat="48.1431034" lon="11.5599168">
    <tag k="addr:postcode" v="80335"/>
    <tag k="shop" v="supermarket"/>
    <tag k="wheelchair" v="yes"/>
    <tag k="addr:country" v="DE"/>
    <tag k="name" v="Netto City"/>
    <tag k="addr:street" v="Dachauer Straße"/>
    <tag k="addr:city" v="München"/>
    <tag k="addr:housenumber" v="9"/>
    <tag k="opening_hours" v="Mo-Sa 07:30-20:00"/>
  </node>
  <node id="659037305" version="4" timestamp="2011-10-06T16:58:06Z" uid="290680" user="wheelmap_visitor" changeset="9482892" lat="48.1351693" lon="11.5794055">
    <tag k="shop" v="supermarket"/>
    <tag k="wheelchair" v="limited"/>
    <tag k="name" v="basic - bio für alle"/>
  </node>
  <node id="661345377" version="3" timestamp="2011-10-22T07:05:00Z" uid="290680" user="wheelmap_visitor" changeset="9621211" lat="48.1984515" lon="11.5304647">
    <tag k="shop" v="supermarket"/>
    <tag k="wheelchair" v="yes"/>
    <tag k="name" v="Prima Markt"/>
    <tag k="addr:street" v="Gustav-Schiefer-Straße"/>
    <tag k="addr:housenumber" v="7"/>
  </node>
  <node id="663592567" version="2" timestamp="2010-03-28T23:02:52Z" uid="107037" user="ulfm" changeset="4263021" lat="48.1298631" lon="11.4900048">
    <tag k="shop" v="supermarket"/>
    <tag k="name" v="REWE City"/>
  </node>
  <node id="663592888" version="4" timestamp="2011-10-17T12:24:48Z" uid="290680" user="wheelmap_visitor" changeset="9578325" lat="48.1352693" lon="11.5022786">
    <tag k="shop" v="supermarket"/>
    <tag k="wheelchair" v="no"/>
    <tag k="description" v="organic grocery store"/>
    <tag k="name" v="Vitalia"/>
  </node>
  <node id="666138435" version="3" timestamp="2011-09-23T17:37:08Z" uid="290680" user="wheelmap_visitor" changeset="9373820" lat="48.1291446" lon="11.3626527">
    <tag k="addr:postcode" v="82110"/>
    <tag k="shop" v="supermarket"/>
    <tag k="wheelchair" v="limited"/>
    <tag k="addr:country" v="DE"/>
    <tag k="name" v="Asien Markt"/>
    <tag k="addr:street" v="Bahnhofplatz"/>
    <tag k="addr:city" v="Germering"/>
    <tag k="addr:housenumber" v="10"/>
  </node>
  <node id="666208930" version="4" timestamp="2011-10-23T11:40:15Z" uid="290680" user="wheelmap_visitor" changeset="9629390" lat="48.1312616" lon="11.6243468">
    <tag k="shop" v="supermarket"/>
    <tag k="wheelchair" v="yes"/>
    <tag k="name" v="Lidl"/>
  </node>
  <node id="672418182" version="5" timestamp="2011-02-23T00:28:05Z" uid="290680" user="wheelmap_visitor" changeset="7368151" lat="48.1152993" lon="11.4776391">
    <tag k="shop" v="supermarket"/>
    <tag k="wheelchair" v="yes"/>
    <tag k="name" v="REWE Supermarkt"/>
    <tag k="addr:street" v="Würmtalstraße"/>
    <tag k="addr:housenumber" v="117"/>
  </node>
  <node id="672432070" version="2" timestamp="2011-10-12T13:26:39Z" uid="290680" user="wheelmap_visitor" changeset="9535427" lat="48.0941092" lon="11.4773846">
    <tag k="shop" v="supermarket"/>
    <tag k="wheelchair" v="yes"/>
    <tag k="name" v="REWE"/>
  </node>
  <node id="676780092" version="4" timestamp="2011-10-08T14:09:38Z" uid="290680" user="wheelmap_visitor" changeset="9499106" lat="48.1651267" lon="11.533644">
    <tag k="shop" v="supermarket"/>
    <tag k="wheelchair" v="limited"/>
    <tag k="name" v="Tengelmann"/>
    <tag k="operator" v="Tengelmann"/>
  </node>
  <node id="676956541" version="1" timestamp="2010-03-28T19:42:43Z" uid="72235" user="Basstoelpel" changeset="4261241" lat="48.2160905" lon="11.5602907">
    <tag k="shop" v="supermarket"/>
    <tag k="name" v="Netto"/>
    <tag k="opening_hours" v="Mo-Sa 07:00-20:00"/>
  </node>
  <node id="677195667" version="1" timestamp="2010-03-28T23:02:51Z" uid="107037" user="ulfm" changeset="4263021" lat="48.1299474" lon="11.4865923">
    <tag k="shop" v="supermarket"/>
    <tag k="name" v="Netto"/>
  </node>
  <node id="677214306" version="1" timestamp="2010-03-28T23:24:48Z" uid="107037" user="ulfm" changeset="4263095" lat="48.1132268" lon="11.5112263">
    <tag k="shop" v="supermarket"/>
    <tag k="name" v="Netto"/>
  </node>
  <node id="677214312" version="3" timestamp="2011-03-18T22:48:47Z" uid="290680" user="wheelmap_visitor" changeset="7598401" lat="48.1146984" lon="11.4813196">
    <tag k="shop" v="supermarket"/>
    <tag k="wheelchair" v="yes"/>
    <tag k="name" v="Tengelmann"/>
  </node>
  <node id="677953277" version="2" timestamp="2011-10-06T19:05:41Z" uid="290680" user="wheelmap_visitor" changeset="9482892" lat="48.1482482" lon="11.461734">
    <tag k="addr:postcode" v="81241"/>
    <tag k="shop" v="supermarket"/>
    <tag k="wheelchair" v="limited"/>
    <tag k="addr:country" v="DE"/>
    <tag k="name" v="Tengelmann"/>
    <tag k="addr:street" v="Bäckerstraße"/>
    <tag k="addr:city" v="München"/>
    <tag k="addr:housenumber" v="1"/>
    <tag k="opening_hours" v="07:00-20:00"/>
  </node>
  <node id="678254814" version="2" timestamp="2011-07-30T22:21:03Z" uid="354821" user="joi" changeset="8876494" lat="48.1296507" lon="11.4988721">
    <tag k="shop" v="supermarket"/>
    <tag k="name" v="Rewe"/>
  </node>
  <node id="681454425" version="2" timestamp="2011-02-16T11:17:45Z" uid="290680" user="wheelmap_visitor" changeset="7301040" lat="48.1447659" lon="11.4887536">
    <tag k="addr:postcode" v="80687"/>
    <tag k="shop" v="supermarket"/>
    <tag k="wheelchair" v="yes"/>
    <tag k="addr:country" v="DE"/>
    <tag k="name" v="Lidl"/>
    <tag k="addr:street" v="Landsberger Straße"/>
    <tag k="addr:city" v="München"/>
    <tag k="addr:housenumber" v="380"/>
  </node>
  <node id="683888084" version="3" timestamp="2011-07-28T21:35:17Z" uid="64164" user="osmkurt" changeset="8858794" lat="48.1225759" lon="11.5774793">
    <tag k="addr:postcode" v="81541"/>
    <tag k="shop" v="supermarket"/>
    <tag k="phone" v="+49 89 62509007"/>
    <tag k="website" v="http://kaisers-tengelmann.de"/>
    <tag k="addr:country" v="DE"/>
    <tag k="name" v="Tengelmann"/>
    <tag k="addr:street" v="Entenbachstraße"/>
    <tag k="addr:city" v="München"/>
    <tag k="addr:housenumber" v="28-30"/>
    <tag k="opening_hours" v="Mo-Sa 07:00-20:00"/>
  </node>
  <node id="693584474" version="2" timestamp="2011-12-16T09:24:46Z" uid="290680" user="wheelmap_visitor" changeset="10129388" lat="48.152183" lon="11.5298393">
    <tag k="shop" v="supermarket"/>
    <tag k="wheelchair" v="yes"/>
    <tag k="name" v="Penny"/>
  </node>
  <node id="701139021" version="3" timestamp="2011-09-09T21:38:18Z" uid="336643" user="BigBen2003" changeset="9258256" lat="48.1684623" lon="11.6352136">
    <tag k="addr:postcode" v="81927"/>
    <tag k="shop" v="supermarket"/>
    <tag k="phone" v="+49 (0) 89/95720296"/>
    <tag k="wheelchair" v="yes"/>
    <tag k="website" v="http://www.kaiser-tengelmann.de"/>
    <tag k="addr:country" v="DE"/>
    <tag k="name" v="Tengelmann"/>
    <tag k="addr:street" v="Fürkhofstraße"/>
    <tag k="addr:city" v="München"/>
    <tag k="addr:housenumber" v="9"/>
  </node>
  <node id="701320344" version="2" timestamp="2010-10-20T18:13:08Z" uid="323389" user="Michael_H" changeset="6118478" lat="48.1218077" lon="11.3664498">
    <tag k="addr:postcode" v="82110"/>
    <tag k="shop" v="supermarket"/>
    <tag k="addr:country" v="DE"/>
    <tag k="name" v="Tengelmann"/>
    <tag k="addr:street" v="Otto-Wagner-Straße"/>
    <tag k="addr:city" v="Germering"/>
    <tag k="addr:housenumber" v="34a"/>
  </node>
  <node id="705038192" version="2" timestamp="2010-04-27T01:17:34Z" uid="30579" user="Tiramisu" changeset="4537565" lat="48.0823754" lon="11.5046661">
    <tag k="shop" v="supermarket"/>
    <tag k="name" v="Tengelmann"/>
  </node>
  <node id="705902217" version="5" timestamp="2011-10-27T14:48:17Z" uid="47544" user="SveLil" changeset="9668917" lat="48.117527" lon="11.5408445">
    <tag k="shop" v="supermarket"/>
    <tag k="wheelchair" v="yes"/>
    <tag k="name" v="Edeka"/>
    <tag k="opening_hours" v="Mo-Sa 08:00-20:00"/>
  </node>
  <node id="706157602" version="3" timestamp="2011-10-07T20:19:14Z" uid="290680" user="wheelmap_visitor" changeset="9490517" lat="48.0857912" lon="11.5050349">
    <tag k="shop" v="supermarket"/>
    <tag k="wheelchair" v="limited"/>
    <tag k="name" v="Penny Markt"/>
    <tag k="opening_hours" v="Mo-Sa 08:00-20:00"/>
  </node>
  <node id="746423002" version="2" timestamp="2011-10-25T19:56:41Z" uid="290680" user="wheelmap_visitor" changeset="9650151" lat="48.15359" lon="11.5335522">
    <tag k="shop" v="supermarket"/>
    <tag k="wheelchair" v="limited"/>
    <tag k="name" v="Edeka"/>
  </node>
  <node id="747018892" version="4" timestamp="2011-12-14T15:11:15Z" uid="290680" user="wheelmap_visitor" changeset="10114293" lat="48.1492532" lon="11.5337194">
    <tag k="addr:postcode" v="80634"/>
    <tag k="shop" v="supermarket"/>
    <tag k="wheelchair" v="limited"/>
    <tag k="addr:country" v="DE"/>
    <tag k="name" v="Norma"/>
    <tag k="addr:street" v="Donnersbergerstraße"/>
    <tag k="addr:city" v="München"/>
    <tag k="addr:housenumber" v="29"/>
    <tag k="opening_hours" v="Mo-Sa 08:00-20:00"/>
  </node>
  <node id="757471404" version="6" timestamp="2011-08-20T13:14:31Z" uid="64164" user="osmkurt" changeset="9073975" lat="48.1505927" lon="11.601493">
    <tag k="addr:postcode" v="81679"/>
    <tag k="shop" v="supermarket"/>
    <tag k="addr:country" v="DE"/>
    <tag k="name" v="Rewe"/>
    <tag k="addr:street" v="Pienzenauerstraße"/>
    <tag k="addr:city" v="München"/>
    <tag k="addr:housenumber" v="1"/>
  </node>
  <node id="762267903" version="4" timestamp="2011-02-15T14:24:35Z" uid="290680" user="wheelmap_visitor" changeset="7293585" lat="48.102836" lon="11.5305673">
    <tag k="addr:postcode" v="81379"/>
    <tag k="shop" v="supermarket"/>
    <tag k="phone" v="+4989783887"/>
    <tag k="wheelchair" v="limited"/>
    <tag k="website" v="http://www.auguste-cesar.de/"/>
    <tag k="addr:country" v="DE"/>
    <tag k="name" v="Auguste Cesar"/>
    <tag k="addr:street" v="Zielstattstraße"/>
    <tag k="addr:city" v="München"/>
    <tag k="addr:housenumber" v="12"/>
  </node>
  <node id="767482729" version="6" timestamp="2011-10-07T07:59:47Z" uid="290680" user="wheelmap_visitor" changeset="9490517" lat="48.1290206" lon="11.5110208">
    <tag k="shop" v="supermarket"/>
    <tag k="wheelchair" v="yes"/>
    <tag k="name" v="REWE City"/>
  </node>
  <node id="780194436" version="5" timestamp="2011-11-24T15:19:21Z" uid="290680" user="wheelmap_visitor" changeset="9931912" lat="48.1940528" lon="11.3726732">
    <tag k="addr:postcode" v="82194"/>
    <tag k="shop" v="supermarket"/>
    <tag k="wheelchair" v="yes"/>
    <tag k="addr:country" v="DE"/>
    <tag k="name" v="Rewe"/>
    <tag k="addr:street" v="Kirchenstraße"/>
    <tag k="addr:city" v="Gröbenzell"/>
    <tag k="addr:housenumber" v="13"/>
    <tag k="opening_hours" v="Mo-Sa 07:00-20:00"/>
  </node>
  <node id="793774683" version="4" timestamp="2011-11-11T12:26:43Z" uid="290680" user="wheelmap_visitor" changeset="9794046" lat="48.1495144" lon="11.4595227">
    <tag k="addr:postcode" v="81241"/>
    <tag k="shop" v="supermarket"/>
    <tag k="wheelchair" v="yes"/>
    <tag k="addr:country" v="DE"/>
    <tag k="name" v="Rewe City"/>
    <tag k="addr:street" v="Kaflerstraße"/>
    <tag k="addr:city" v="München"/>
    <tag k="note" v="Wsl. etwas ungenau... Standorte bitte verifizieren!"/>
    <tag k="addr:housenumber" v="2"/>
    <tag k="opening_hours" v="Mo-Sa 07:00-20:00"/>
  </node>
  <node id="798875451" version="1" timestamp="2010-07-03T12:08:20Z" uid="97829" user="matzf" changeset="5124220" lat="48.1130374" lon="11.450646">
    <tag k="shop" v="supermarket"/>
    <tag k="name" v="AEZ"/>
  </node>
  <node id="813835000" version="3" timestamp="2011-05-15T12:38:31Z" uid="68974" user="Broky" changeset="8151321" lat="48.1384451" lon="11.5362621">
    <tag k="shop" v="supermarket"/>
    <tag k="wheelchair" v="yes"/>
    <tag k="name" v="Lidl"/>
  </node>
  <node id="818944548" version="2" timestamp="2011-10-11T07:34:18Z" uid="290680" user="wheelmap_visitor" changeset="9527581" lat="48.1197924" lon="11.5015939">
    <tag k="shop" v="supermarket"/>
    <tag k="wheelchair" v="yes"/>
    <tag k="name" v="Lidl"/>
  </node>
  <node id="818944551" version="2" timestamp="2011-10-02T20:53:17Z" uid="290680" user="wheelmap_visitor" changeset="9447804" lat="48.1194433" lon="11.4911719">
    <tag k="shop" v="supermarket"/>
    <tag k="wheelchair" v="yes"/>
    <tag k="name" v="Edeka"/>
  </node>
  <node id="820675940" version="3" timestamp="2011-10-02T11:24:51Z" uid="290680" user="wheelmap_visitor" changeset="9447804" lat="48.1490441" lon="11.558208">
    <tag k="shop" v="supermarket"/>
    <tag k="wheelchair" v="limited"/>
    <tag k="name" v="Edeka"/>
  </node>
  <node id="830667838" version="2" timestamp="2011-02-16T11:16:43Z" uid="290680" user="wheelmap_visitor" changeset="7301040" lat="48.1409953" lon="11.4889114">
    <tag k="addr:postcode" v="80687"/>
    <tag k="shop" v="supermarket"/>
    <tag k="phone" v="+49 89 54614833"/>
    <tag k="wheelchair" v="yes"/>
    <tag k="addr:country" v="DE"/>
    <tag k="addr:street" v="Willibaldstraße"/>
    <tag k="addr:city" v="München"/>
    <tag k="operator" v="Tengelmann"/>
    <tag k="addr:housenumber" v="5"/>
    <tag k="opening_hours" v="Mo-Sa 07:00-20:00"/>
  </node>
  <node id="831420677" version="2" timestamp="2011-11-08T12:11:09Z" uid="290680" user="wheelmap_visitor" changeset="9770655" lat="48.1078534" lon="11.7224654">
    <tag k="shop" v="supermarket"/>
    <tag k="wheelchair" v="yes"/>
    <tag k="name" v="Lidl"/>
  </node>
  <node id="832409539" version="2" timestamp="2011-11-11T21:29:36Z" uid="290680" user="wheelmap_visitor" changeset="9794046" lat="48.1226981" lon="11.67047">
    <tag k="addr:postcode" v="81825"/>
    <tag k="shop" v="supermarket"/>
    <tag k="wheelchair" v="yes"/>
    <tag k="addr:country" v="DE"/>
    <tag k="name" v="Edeka"/>
    <tag k="addr:street" v="Schmuckerweg"/>
    <tag k="addr:city" v="München"/>
    <tag k="addr:housenumber" v="3"/>
  </node>
  <node id="836176460" version="3" timestamp="2011-04-25T20:29:15Z" uid="59819" user="Fuss-im-Ohr" changeset="7968529" lat="48.1063854" lon="11.6455313">
    <tag k="shop" v="supermarket"/>
    <tag k="addr:postcode" v="81735"/>
    <tag k="payment:notes" v="yes"/>
    <tag k="website" v="http://www.aldi-sued.de"/>
    <tag k="payment:electronic_purses" v="yes"/>
    <tag k="addr:street" v="Albert-Schweitzer-Straße"/>
    <tag k="addr:housename" v="Life Park &amp; Shop"/>
    <tag k="addr:city" v="Neuperlach"/>
    <tag k="payment:telephone_cards" v="no"/>
    <tag k="opening_hours" v="Mo-Sa 08:00-20:00"/>
    <tag k="addr:housenumber" v="78"/>
    <tag k="payment:debit_cards" v="fixme"/>
    <tag k="payment:account_cards" v="no"/>
    <tag k="payment:credit_cards" v="yes"/>
    <tag k="wheelchair" v="yes"/>
    <tag k="addr:country" v="DE"/>
    <tag k="name" v="Aldi"/>
    <tag k="payment:coins" v="yes"/>
  </node>
  <node id="836176461" version="3" timestamp="2011-04-25T20:29:14Z" uid="59819" user="Fuss-im-Ohr" changeset="7968529" lat="48.1063783" lon="11.6448875">
    <tag k="shop" v="supermarket"/>
    <tag k="addr:postcode" v="81735"/>
    <tag k="phone" v="+49 89 62737746"/>
    <tag k="payment:notes" v="yes"/>
    <tag k="website" v="http://www.rewe-berdnik.com"/>
    <tag k="payment:electronic_purses" v="yes"/>
    <tag k="addr:housename" v="Life Park &amp; Shop"/>
    <tag k="addr:street" v="Albert-Schweitzer-Straße"/>
    <tag k="operator" v="Rewe Berdnik oHG"/>
    <tag k="addr:city" v="Neuperlach"/>
    <tag k="payment:telephone_cards" v="no"/>
    <tag k="addr:housenumber" v="78"/>
    <tag k="opening_hours" v="Mo-Sa 07:00-20:00"/>
    <tag k="payment:debit_cards" v="fixme"/>
    <tag k="payment:account_cards" v="no"/>
    <tag k="payment:credit_cards" v="yes"/>
    <tag k="email" v="rewe-berdnik@rewe-maerkte.de"/>
    <tag k="wheelchair" v="yes"/>
    <tag k="addr:country" v="DE"/>
    <tag k="name" v="Rewe"/>
    <tag k="payment:coins" v="yes"/>
  </node>
  <node id="844994524" version="3" timestamp="2011-09-23T08:18:08Z" uid="290680" user="wheelmap_visitor" changeset="9373820" lat="48.1492857" lon="11.5294389">
    <tag k="shop" v="supermarket"/>
    <tag k="wheelchair" v="limited"/>
    <tag k="name" v="Edeka"/>
    <tag k="opening_hours" v="Mo-Fr 08:00-20:00; Sa 07:30-20:00"/>
  </node>
  <node id="864638184" version="2" timestamp="2011-04-25T20:28:10Z" uid="59819" user="Fuss-im-Ohr" changeset="7968518" lat="48.1365665" lon="11.6138372">
    <tag k="addr:postcode" v="81675"/>
    <tag k="shop" v="supermarket"/>
    <tag k="wheelchair" v="yes"/>
    <tag k="addr:country" v="DE"/>
    <tag k="name" v="Netto"/>
    <tag k="addr:street" v="Einsteinstraße"/>
    <tag k="addr:city" v="München"/>
    <tag k="addr:housenumber" v="130"/>
  </node>
  <node id="872623850" version="2" timestamp="2010-11-22T13:31:40Z" uid="290680" user="wheelmap_visitor" changeset="6429292" lat="48.1414129" lon="11.6155101">
    <tag k="shop" v="supermarket"/>
    <tag k="wheelchair" v="yes"/>
    <tag k="name" v="Basic"/>
  </node>
  <node id="872624799" version="3" timestamp="2011-10-31T01:57:18Z" uid="64164" user="osmkurt" changeset="9699641" lat="48.1399327" lon="11.6152956">
    <tag k="shop" v="supermarket"/>
    <tag k="wheelchair" v="yes"/>
    <tag k="name" v="Rewe"/>
  </node>
  <node id="879435739" version="2" timestamp="2010-11-07T01:08:15Z" uid="290680" user="wheelmap_visitor" changeset="6300162" lat="48.0885475" lon="11.5592784">
    <tag k="shop" v="supermarket"/>
    <tag k="wheelchair" v="yes"/>
    <tag k="name" v="Edeka"/>
  </node>
  <node id="890780484" version="4" timestamp="2011-07-25T16:08:33Z" uid="42613" user="MarcusLS" changeset="8827527" lat="48.1667007" lon="11.5767265">
    <tag k="shop" v="supermarket"/>
    <tag k="wheelchair" v="yes"/>
    <tag k="addr:country" v="DE"/>
    <tag k="name" v="DM-Drogerie"/>
    <tag k="addr:street" v="Karl-Theodor-Straße"/>
    <tag k="addr:city" v="München"/>
    <tag k="addr:housenumber" v="65"/>
  </node>
  <node id="907889095" version="1" timestamp="2010-09-12T08:27:45Z" uid="345634" user="robotreto" changeset="5756774" lat="48.1711592" lon="11.3635961">
    <tag k="shop" v="supermarket"/>
    <tag k="operator" v="REWE"/>
  </node>
  <node id="922831095" version="4" timestamp="2011-10-16T11:33:45Z" uid="336643" user="BigBen2003" changeset="9571359" lat="48.193154" lon="11.6185633">
    <tag k="addr:postcode" v="80939"/>
    <tag k="shop" v="supermarket"/>
    <tag k="addr:country" v="DE"/>
    <tag k="name" v="Netto City"/>
    <tag k="addr:street" v="Situlistraße"/>
    <tag k="addr:city" v="München"/>
    <tag k="addr:housenumber" v="58"/>
    <tag k="opening_hours" v="Mo-Sa 07:00-20:00"/>
  </node>
  <node id="932050086" version="3" timestamp="2010-10-01T15:54:58Z" uid="65019" user="Kaefer84" changeset="5929070" lat="48.0662924" lon="11.6224157">
    <tag k="shoes" v="supermarket"/>
    <tag k="shop" v="supermarket"/>
    <tag k="wheelchair" v="limited"/>
    <tag k="name" v="Tengelmann"/>
  </node>
  <node id="937080115" version="1" timestamp="2010-10-03T19:18:29Z" uid="20244" user="Jeffrey Ratcliffe" changeset="5947656" lat="48.0762526" lon="11.7222893">
    <tag k="addr:postcode" v="85640"/>
    <tag k="shop" v="supermarket"/>
    <tag k="name" v="Querfood"/>
    <tag k="addr:street" v="Wernher-von-Braun-Straße"/>
    <tag k="addr:city" v="Putzbrunn"/>
    <tag k="addr:housenumber" v="5"/>
  </node>
  <node id="941839616" version="6" timestamp="2011-08-08T19:30:32Z" uid="56526" user="JJ Rammerl" changeset="8960841" lat="48.1389304" lon="11.5152328">
    <tag k="addr:postcode" v="80687"/>
    <tag k="shop" v="supermarket"/>
    <tag k="addr:country" v="DE"/>
    <tag k="name" v="Penny Markt"/>
    <tag k="addr:street" v="Agnes-Bernauer-Straße"/>
    <tag k="addr:city" v="München"/>
    <tag k="addr:housenumber" v="21"/>
    <tag k="opening_hours" v="Mo-Sa 08:00-20:00"/>
  </node>
  <node id="941842522" version="3" timestamp="2011-12-26T23:42:24Z" uid="290680" user="wheelmap_visitor" changeset="10205620" lat="48.1326818" lon="11.5025809">
    <tag k="shop" v="supermarket"/>
    <tag k="wheelchair" v="yes"/>
    <tag k="name" v="Penny Markt"/>
  </node>
  <node id="944538125" version="3" timestamp="2011-10-02T20:53:17Z" uid="290680" user="wheelmap_visitor" changeset="9447804" lat="48.1189146" lon="11.4909094">
    <tag k="shop" v="supermarket"/>
    <tag k="wheelchair" v="yes"/>
    <tag k="name" v="Penny"/>
  </node>
  <node id="945156311" version="1" timestamp="2010-10-11T14:39:56Z" uid="40397" user="Zartbitter" changeset="6012248" lat="48.0939736" lon="11.5086416">
    <tag k="shop" v="supermarket"/>
    <tag k="name" v="Norma"/>
  </node>
  <node id="948208943" version="2" timestamp="2010-10-16T09:24:25Z" uid="70696" user="xybot" changeset="6055939" lat="48.136498" lon="11.557734">
    <tag k="shop" v="supermarket"/>
    <tag k="name" v="Verdi Supermarket"/>
    <tag k="addr:street" v="Landwehrstraße"/>
    <tag k="addr:housenumber" v="46"/>
  </node>
  <node id="951633657" version="4" timestamp="2011-04-15T20:08:32Z" uid="436573" user="timmerma" changeset="7873137" lat="48.1040137" lon="11.4190006">
    <tag k="shop" v="supermarket"/>
    <tag k="wheelchair" v="yes"/>
    <tag k="name" v="Tengelmann"/>
  </node>
  <node id="955089810" version="1" timestamp="2010-10-17T19:58:53Z" uid="65148" user="tixuwuoz" changeset="6071175" lat="48.1651316" lon="11.5120461">
    <tag k="addr:postcode" v="80638"/>
    <tag k="shop" v="supermarket"/>
    <tag k="addr:country" v="DE"/>
    <tag k="name" v="REWE"/>
    <tag k="contact:phone" v="089/17809466"/>
    <tag k="addr:street" v="Volpinistraße"/>
    <tag k="addr:city" v="München"/>
    <tag k="addr:housenumber" v="19"/>
  </node>
  <node id="976494440" version="4" timestamp="2011-10-15T05:02:42Z" uid="290680" user="wheelmap_visitor" changeset="9560388" lat="48.0933202" lon="11.5697298">
    <tag k="addr:postcode" v="81545"/>
    <tag k="shop" v="supermarket"/>
    <tag k="phone" v="+49 89 64249501"/>
    <tag k="wheelchair" v="yes"/>
    <tag k="website" v="http://www.edeka.de"/>
    <tag k="addr:country" v="DE"/>
    <tag k="name" v="EDEKA Niggel"/>
    <tag k="addr:street" v="Sankt-Magnus-Straße"/>
    <tag k="addr:city" v="München"/>
    <tag k="operator" v="EDEKA AG"/>
    <tag k="addr:housenumber" v="34"/>
    <tag k="opening_hours" v="Mo-Sa 07:00-20:00"/>
  </node>
  <node id="982082126" version="1" timestamp="2010-11-08T09:28:01Z" uid="355018" user="evil7" changeset="6318847" lat="48.0674551" lon="11.6194413">
    <tag k="shop" v="supermarket"/>
    <tag k="wheelchair" v="limited"/>
    <tag k="wheelchair:description" v="Voll Rolligeeignet; keine Toilette"/>
    <tag k="name" v="Lidl"/>
  </node>
  <node id="982082399" version="1" timestamp="2010-11-08T09:29:02Z" uid="355018" user="evil7" changeset="6318847" lat="48.0680156" lon="11.6196653">
    <tag k="shop" v="supermarket"/>
    <tag k="wheelchair" v="limited"/>
    <tag k="wheelchair:description" v="Voll Rolligeeignet; keine Toilette"/>
    <tag k="name" v="Aldi"/>
  </node>
  <node id="982100871" version="1" timestamp="2010-11-08T09:52:09Z" uid="355018" user="evil7" changeset="6318847" lat="48.0644415" lon="11.6253232">
    <tag k="shop" v="supermarket"/>
    <tag k="wheelchair" v="limited"/>
    <tag k="name" v="Penny"/>
  </node>
  <node id="985003267" version="4" timestamp="2011-02-01T21:13:17Z" uid="290680" user="wheelmap_visitor" changeset="7156704" lat="48.1272373" lon="11.5541679">
    <tag k="addr:postcode" v="80337"/>
    <tag k="shop" v="supermarket"/>
    <tag k="wheelchair" v="yes"/>
    <tag k="website" v="http://www.rewe.de/"/>
    <tag k="addr:country" v="DE"/>
    <tag k="name" v="REWE"/>
    <tag k="addr:street" v="Lindwurmstraße"/>
    <tag k="addr:city" v="München"/>
    <tag k="addr:housenumber" v="129"/>
    <tag k="opening_hours" v="Mo-Sa 07:00-20:00"/>
  </node>
  <node id="985003268" version="5" timestamp="2011-02-20T21:13:09Z" uid="336643" user="BigBen2003" changeset="7348049" lat="48.1276384" lon="11.5549189">
    <tag k="addr:postcode" v="80337"/>
    <tag k="shop" v="supermarket"/>
    <tag k="wheelchair" v="yes"/>
    <tag k="website" v="http://www.aldi-sued.de"/>
    <tag k="addr:country" v="DE"/>
    <tag k="name" v="Aldi (Süd)"/>
    <tag k="addr:street" v="Lindwurmstraße"/>
    <tag k="addr:city" v="München"/>
    <tag k="addr:housenumber" v="117"/>
    <tag k="opening_hours" v="Mo-Fr 08:30-20:00;Sa 08:00-20:00"/>
  </node>
  <node id="985008118" version="2" timestamp="2011-01-08T14:00:40Z" uid="135254" user="Tobi-rr" changeset="6903948" lat="48.1286964" lon="11.557071">
    <tag k="shop" v="supermarket"/>
    <tag k="name" v="Tengelmann"/>
  </node>
  <node id="1003060946" version="6" timestamp="2011-10-02T19:03:41Z" uid="290680" user="wheelmap_visitor" changeset="9447804" lat="48.1541824" lon="11.5333516">
    <tag k="shop" v="supermarket"/>
    <tag k="wheelchair" v="no"/>
    <tag k="name" v="Tengelmann"/>
    <tag k="operator" v="Tengelmann"/>
  </node>
  <node id="1005405947" version="7" timestamp="2012-01-02T08:26:18Z" uid="287306" user="Matthias Frank" changeset="10268228" lat="48.1506717" lon="11.574929">
    <tag k="shop" v="supermarket"/>
    <tag k="wheelchair" v="limited"/>
    <tag k="name" v="Netto City"/>
    <tag k="operator" v="Netto"/>
    <tag k="opening_hours" v="Mo-Sa 07:00-20:00"/>
  </node>
  <node id="1011371853" version="2" timestamp="2011-10-09T14:47:14Z" uid="290680" user="wheelmap_visitor" changeset="9508573" lat="48.1009468" lon="11.5593164">
    <tag k="shop" v="supermarket"/>
    <tag k="wheelchair" v="limited"/>
    <tag k="name" v="Penny"/>
    <tag k="opening_hours" v="Mo-Sa 07:00-20:00"/>
  </node>
  <node id="1013194127" version="4" timestamp="2011-12-16T18:36:05Z" uid="342705" user="KLMB" changeset="10133120" lat="48.1392501" lon="11.5036328">
    <tag k="shop" v="supermarket"/>
    <tag k="wheelchair" v="no"/>
    <tag k="name" v="Rewe"/>
  </node>
  <node id="1024122135" version="4" timestamp="2011-10-02T08:02:23Z" uid="290680" user="wheelmap_visitor" changeset="9447804" lat="48.0872612" lon="11.404969">
    <tag k="shop" v="supermarket"/>
    <tag k="phone" v="089/81029375"/>
    <tag k="wheelchair" v="yes"/>
    <tag k="name" v="Edeka"/>
    <tag k="addr:street" v="Gautinger Straße"/>
    <tag k="addr:city" v="Stockdorf"/>
    <tag k="addr:housenumber" v="23"/>
    <tag k="opening_hours" v="Mo-Sa 9:00-20:00; PH off"/>
  </node>
  <node id="1043601523" version="1" timestamp="2010-12-17T19:55:30Z" uid="191141" user="raiwal" changeset="6690082" lat="48.1188266" lon="11.5262693">
    <tag k="shop" v="supermarket"/>
    <tag k="name" v="nah - gut"/>
  </node>
  <node id="1055344469" version="1" timestamp="2010-12-21T20:02:17Z" uid="191141" user="raiwal" changeset="6729635" lat="48.115831" lon="11.5240749">
    <tag k="shop" v="supermarket"/>
    <tag k="name" v="Norma"/>
  </node>
  <node id="1056724756" version="1" timestamp="2010-12-22T12:48:17Z" uid="191141" user="raiwal" changeset="6735305" lat="48.1164061" lon="11.5021976">
    <tag k="shop" v="supermarket"/>
    <tag k="name" v="Penny"/>
  </node>
  <node id="1057063522" version="2" timestamp="2011-10-25T22:08:03Z" uid="290680" user="wheelmap_visitor" changeset="9650151" lat="48.1523337" lon="11.4772796">
    <tag k="shop" v="supermarket"/>
    <tag k="wheelchair" v="yes"/>
    <tag k="name" v="Lidl"/>
  </node>
  <node id="1057063524" version="1" timestamp="2010-12-22T16:31:23Z" uid="268988" user="Andreas Binder" changeset="6737219" lat="48.1519758" lon="11.4767593">
    <tag k="shop" v="supermarket"/>
    <tag k="name" v="Penny"/>
  </node>
  <node id="1097900216" version="6" timestamp="2011-11-23T07:22:34Z" uid="338611" user="marek kleciak" changeset="9917786" lat="48.2492884" lon="11.6527543">
    <tag k="shop" v="supermarket"/>
    <tag k="wheelchair" v="yes"/>
    <tag k="name" v="REWE"/>
  </node>
  <node id="1110070511" version="2" timestamp="2011-02-16T11:17:45Z" uid="290680" user="wheelmap_visitor" changeset="7301040" lat="48.1451396" lon="11.4849545">
    <tag k="addr:postcode" v="80687"/>
    <tag k="shop" v="supermarket"/>
    <tag k="wheelchair" v="yes"/>
    <tag k="addr:country" v="DE"/>
    <tag k="name" v="Aldi"/>
    <tag k="addr:street" v="Landsberger Straße"/>
    <tag k="addr:city" v="München"/>
    <tag k="addr:housenumber" v="388"/>
    <tag k="opening_hours" v="Mo-Sa 08:00-20:00"/>
  </node>
  <node id="1118959214" version="2" timestamp="2011-08-23T16:48:24Z" uid="488731" user="bakamu" changeset="9105285" lat="48.0816763" lon="11.5290729">
    <tag k="shop" v="supermarket"/>
    <tag k="name" v="VollCorner Bio"/>
  </node>
  <node id="1137574409" version="1" timestamp="2011-02-05T14:45:41Z" uid="381750" user="andreaslrchr" changeset="7193182" lat="48.1796213" lon="11.5068593">
    <tag k="shop" v="supermarket"/>
    <tag k="name" v="Food Box"/>
  </node>
  <node id="1138722196" version="2" timestamp="2011-03-22T21:51:39Z" uid="290680" user="wheelmap_visitor" changeset="7641328" lat="48.1327177" lon="11.5655135">
    <tag k="shop" v="supermarket"/>
    <tag k="wheelchair" v="yes"/>
    <tag k="name" v="Schlecker"/>
  </node>
  <node id="1148216562" version="2" timestamp="2011-09-23T13:05:39Z" uid="290680" user="wheelmap_visitor" changeset="9373820" lat="48.175872" lon="11.5746089">
    <tag k="shop" v="supermarket"/>
    <tag k="wheelchair" v="limited"/>
    <tag k="name" v="Edeka Nah&amp;Gut"/>
  </node>
  <node id="1157210127" version="2" timestamp="2011-12-16T08:33:24Z" uid="290680" user="wheelmap_visitor" changeset="10129388" lat="48.1608777" lon="11.4448766">
    <tag k="addr:postcode" v="81245"/>
    <tag k="shop" v="supermarket"/>
    <tag k="phone" v="+49 89 82071351"/>
    <tag k="wheelchair" v="yes"/>
    <tag k="addr:country" v="DE"/>
    <tag k="name" v="Edeka"/>
    <tag k="addr:street" v="An der Schäferwiese"/>
    <tag k="addr:city" v="München"/>
    <tag k="addr:housenumber" v="26"/>
    <tag k="opening_hours" v="Mo-Sa 08:00-20:00"/>
  </node>
  <node id="1166953324" version="2" timestamp="2011-06-07T16:19:45Z" uid="109427" user="heko2" changeset="8371559" lat="48.1399043" lon="11.5616175">
    <tag k="shop" v="supermarket"/>
    <tag k="name" v="Rewe City"/>
    <tag k="opening_hours" v="Mo-Sa 06:00-20:00"/>
  </node>
  <node id="1198681401" version="5" timestamp="2011-07-28T06:15:29Z" uid="13219" user="Pyrokrat" changeset="8851241" lat="48.1321513" lon="11.5974711">
    <tag k="addr:postcode" v="81667"/>
    <tag k="shop" v="supermarket"/>
    <tag k="wheelchair" v="limited"/>
    <tag k="wheelchair:description" v="Eingang barrierefrei, Gänge sehr schmal"/>
    <tag k="name" v="Penny"/>
    <tag k="addr:street" v="Preysingstraße"/>
    <tag k="addr:city" v="München"/>
    <tag k="addr:housenumber" v="42"/>
  </node>
  <node id="1218818588" version="1" timestamp="2011-03-26T11:01:22Z" uid="336643" user="BigBen2003" changeset="7674155" lat="48.1774658" lon="11.6349211">
    <tag k="shop" v="supermarket"/>
    <tag k="name" v="Asia Shop"/>
  </node>
  <node id="1234768347" version="3" timestamp="2011-10-05T21:06:06Z" uid="290680" user="wheelmap_visitor" changeset="9474855" lat="48.1480292" lon="11.4650818">
    <tag k="shop" v="supermarket"/>
    <tag k="level" v="-1"/>
    <tag k="wheelchair" v="yes"/>
    <tag k="name" v="Aldi"/>
    <tag k="opening_hours" v="Mo-Sa 08:00-20:00"/>
  </node>
  <node id="1245410814" version="2" timestamp="2011-10-06T16:50:26Z" uid="290680" user="wheelmap_visitor" changeset="9482892" lat="48.1314817" lon="11.5754187">
    <tag k="shop" v="supermarket"/>
    <tag k="wheelchair" v="no"/>
    <tag k="name" v="Penny-Markt"/>
  </node>
  <node id="1252613266" version="2" timestamp="2011-04-21T13:51:07Z" uid="70696" user="xybot" changeset="7925664" lat="48.1101965" lon="11.5779479">
    <tag k="shop" v="supermarket"/>
    <tag k="name" v="REWE"/>
    <tag k="addr:street" v="Tegernseer Landstraße"/>
    <tag k="addr:housenumber" v="146"/>
  </node>
  <node id="1255368767" version="1" timestamp="2011-04-22T12:49:51Z" uid="68010" user="ms2000" changeset="7934125" lat="48.1524159" lon="11.4797845">
    <tag k="shop" v="supermarket"/>
    <tag k="name" v="Hit"/>
  </node>
  <node id="1255588316" version="1" timestamp="2011-04-22T16:55:21Z" uid="42613" user="MarcusLS" changeset="7936354" lat="48.1661795" lon="11.5789757">
    <tag k="shop" v="supermarket"/>
    <tag k="source" v="Bing"/>
    <tag k="name" v="Schlecker"/>
    <tag k="opening_hours" v="Mo-Fr 08:30-20:00; Sa 08:00-19:00"/>
  </node>
  <node id="1270641181" version="1" timestamp="2011-05-02T21:02:06Z" uid="62743" user="thaetig" changeset="8034705" lat="48.1135561" lon="11.701322">
    <tag k="shop" v="supermarket"/>
    <tag k="source" v="survey"/>
    <tag k="name" v="Tengelmann"/>
  </node>
  <node id="1278474323" version="2" timestamp="2011-12-31T17:09:23Z" uid="64164" user="osmkurt" changeset="10256686" lat="48.1081096" lon="11.6037526">
    <tag k="addr:postcode" v="81549"/>
    <tag k="shop" v="supermarket"/>
    <tag k="website" v="http://penny.de"/>
    <tag k="addr:country" v="DE"/>
    <tag k="name" v="Penny Markt"/>
    <tag k="addr:street" v="Balanstraße"/>
    <tag k="addr:city" v="München"/>
    <tag k="operator" v="PENNY-Markt GmbH"/>
    <tag k="addr:housenumber" v="168"/>
    <tag k="opening_hours" v="Mo-Sa 07:00-20:00"/>
  </node>
  <node id="1279098727" version="5" timestamp="2011-09-06T22:08:08Z" uid="472814" user="paoso" changeset="9232230" lat="48.1455082" lon="11.4590869">
    <tag k="shop" v="supermarket"/>
    <tag k="organic" v="yes"/>
    <tag k="name" v="Erdgarten"/>
    <tag k="contact:website" v="http://www.erdgarten-biosupermarkt.de/"/>
    <tag k="contact:phone" v="+49 89 82075794"/>
    <tag k="opening_hours" v="Mo-Fr 08:30-19:00; Sa 08:30-14:00"/>
  </node>
  <node id="1296858568" version="1" timestamp="2011-05-23T00:25:54Z" uid="59819" user="Fuss-im-Ohr" changeset="8222360" lat="48.1218664" lon="11.5786244">
    <tag k="addr:postcode" v="81541"/>
    <tag k="shop" v="supermarket"/>
    <tag k="addr:country" v="DE"/>
    <tag k="name" v="Kaufnah"/>
    <tag k="addr:street" v="Falkenstraße"/>
    <tag k="addr:city" v="München"/>
    <tag k="addr:housenumber" v="32"/>
  </node>
  <node id="1296882501" version="4" timestamp="2011-08-14T15:21:37Z" uid="505600" user="Drea58" changeset="9017137" lat="48.2029838" lon="11.5878017">
    <tag k="addr:postcode" v="80939"/>
    <tag k="shop" v="supermarket"/>
    <tag k="addr:country" v="DE"/>
    <tag k="int_name" v="LIDL"/>
    <tag k="name" v="LIDL"/>
    <tag k="addr:street" v="Ingolstädter Straße"/>
    <tag k="addr:city" v="München"/>
    <tag k="addr:housenumber" v="170"/>
  </node>
  <node id="1299995565" version="1" timestamp="2011-05-25T18:49:54Z" uid="94008" user="selkashef" changeset="8247471" lat="48.1296699" lon="11.6973777">
    <tag k="shop" v="supermarket"/>
    <tag k="name" v="Kumar Getränkemarkt"/>
  </node>
  <node id="1300476419" version="4" timestamp="2011-10-03T16:06:48Z" uid="290680" user="wheelmap_visitor" changeset="9456721" lat="48.1283888" lon="11.6016734">
    <tag k="shop" v="supermarket"/>
    <tag k="wheelchair" v="yes"/>
    <tag k="name" v="Tengelmann"/>
  </node>
  <node id="1304189694" version="1" timestamp="2011-05-28T22:06:41Z" uid="459274" user="masdfkgjer" changeset="8276226" lat="48.088374" lon="11.4789819">
    <tag k="shop" v="supermarket"/>
    <tag k="name" v="Penny"/>
  </node>
  <node id="1324405334" version="1" timestamp="2011-06-13T22:33:48Z" uid="469939" user="fredero" changeset="8432455" lat="48.2091494" lon="11.5638423">
    <tag k="shop" v="supermarket"/>
  </node>
  <node id="1325352591" version="1" timestamp="2011-06-14T17:12:08Z" uid="346536" user="Spunsel" changeset="8439465" lat="48.2281025" lon="11.481472">
    <tag k="shop" v="supermarket"/>
    <tag k="name" v="NORMA"/>
  </node>
  <node id="1325799754" version="1" timestamp="2011-06-14T22:30:39Z" uid="64164" user="osmkurt" changeset="8442730" lat="48.1295284" lon="11.5921367">
    <tag k="shop" v="supermarket"/>
    <tag k="name" v="Thai Binh Duong"/>
    <tag k="type" v="asian_food"/>
  </node>
  <node id="1326879691" version="1" timestamp="2011-06-15T21:15:40Z" uid="469939" user="fredero" changeset="8451037" lat="48.1943777" lon="11.6003685">
    <tag k="shop" v="supermarket"/>
  </node>
  <node id="1329488556" version="2" timestamp="2011-10-05T21:12:18Z" uid="290680" user="wheelmap_visitor" changeset="9474855" lat="48.1500322" lon="11.4432123">
    <tag k="shop" v="supermarket"/>
    <tag k="wheelchair" v="yes"/>
    <tag k="name" v="Aldi"/>
  </node>
  <node id="1329488560" version="2" timestamp="2011-10-05T21:12:19Z" uid="290680" user="wheelmap_visitor" changeset="9474855" lat="48.1499105" lon="11.4437153">
    <tag k="shop" v="supermarket"/>
    <tag k="wheelchair" v="yes"/>
    <tag k="name" v="Rewe"/>
  </node>
  <node id="1341601215" version="2" timestamp="2011-10-02T07:04:43Z" uid="290680" user="wheelmap_visitor" changeset="9447804" lat="48.1391441" lon="11.525779">
    <tag k="shop" v="supermarket"/>
    <tag k="wheelchair" v="limited"/>
    <tag k="name" v="Staples"/>
  </node>
  <node id="1351018880" version="2" timestamp="2011-07-06T23:08:38Z" uid="56526" user="JJ Rammerl" changeset="8653204" lat="48.1629792" lon="11.7297499">
    <tag k="addr:postcode" v="85609"/>
    <tag k="shop" v="supermarket"/>
    <tag k="addr:country" v="DE"/>
    <tag k="name" v="dm Drogerie"/>
    <tag k="addr:street" v="Ludwig-Ganghofer-Straße"/>
    <tag k="addr:city" v="Aschheim"/>
    <tag k="addr:housenumber" v="14"/>
  </node>
  <node id="1365583219" version="2" timestamp="2011-07-29T07:20:50Z" uid="482628" user="gumul" changeset="8860899" lat="48.0719297" lon="11.375188">
    <tag k="shop" v="supermarket"/>
    <tag k="name" v="Gautinger Markthalle"/>
  </node>
  <node id="1373711485" version="2" timestamp="2011-08-10T14:39:55Z" uid="264500" user="Silanea" changeset="8977156" lat="48.1615043" lon="11.4140223">
    <tag k="shop" v="supermarket"/>
    <tag k="wheelchair" v="limited"/>
    <tag k="name" v="Alto Supermarket"/>
  </node>
  <node id="1382538130" version="1" timestamp="2011-08-02T03:38:29Z" uid="325837" user="traveler-hiker" changeset="8897104" lat="48.0720965" lon="11.519899">
    <tag k="addr:postcode" v="81479"/>
    <tag k="shop" v="supermarket"/>
    <tag k="name" v="Tengelmann"/>
    <tag k="addr:street" v="Wolfratshauser Straße"/>
    <tag k="addr:city" v="München"/>
    <tag k="addr:housenumber" v="215"/>
  </node>
  <node id="1386726226" version="5" timestamp="2011-09-27T14:02:05Z" uid="290680" user="wheelmap_visitor" changeset="9408304" lat="48.15345" lon="11.5356381">
    <tag k="addr:postcode" v="80634"/>
    <tag k="shop" v="supermarket"/>
    <tag k="source" v="Gamrais THAI-ASIA Markt + Imbiss"/>
    <tag k="wheelchair" v="yes"/>
    <tag k="website" v="www.thaiasiamarkt.de"/>
    <tag k="int_name" v="Gamrais THAI-ASIA Markt + Imbiss"/>
    <tag k="alt_name" v="Gamrais THAI-ASIA Markt + Imbiss"/>
    <tag k="name" v="Gamrais THAI-ASIA Markt + Imbiss"/>
    <tag k="designation" v="Gamrais THAI-ASIA Markt + Imbiss"/>
    <tag k="addr:housename" v="Gamrais THAI-ASIA Markt + Imbiss"/>
    <tag k="addr:street" v="Leonrodstraße"/>
    <tag k="addr:housenumber" v="16"/>
  </node>
  <node id="1392022386" version="2" timestamp="2011-08-25T22:45:16Z" uid="54491" user="FloSch" changeset="9125705" lat="48.128993" lon="11.5591383">
    <tag k="shop" v="supermarket"/>
    <tag k="name" v="Frischemarkt Koch"/>
  </node>
  <node id="1398494466" version="2" timestamp="2012-01-06T23:14:59Z" uid="13354" user="ivl1705" changeset="10316936" lat="48.1254576" lon="11.5619229">
    <tag k="addr:postcode" v="80337"/>
    <tag k="shop" v="supermarket"/>
    <tag k="addr:country" v="DE"/>
    <tag k="name" v="Schlecker"/>
    <tag k="addr:street" v="Kapuzinerstraße"/>
    <tag k="addr:state" v="Bayern"/>
    <tag k="addr:city" v="München"/>
    <tag k="addr:housenumber" v="88"/>
  </node>
  <node id="1399932643" version="2" timestamp="2011-10-25T19:24:49Z" uid="290680" user="wheelmap_visitor" changeset="9650151" lat="48.227008" lon="11.4635964">
    <tag k="addr:postcode" v="85757"/>
    <tag k="shop" v="supermarket"/>
    <tag k="wheelchair" v="yes"/>
    <tag k="name" v="DM"/>
    <tag k="addr:street" v="Münchner Straße"/>
    <tag k="addr:housenumber" v="140"/>
  </node>
  <node id="1401710511" version="2" timestamp="2011-10-07T09:39:08Z" uid="290680" user="wheelmap_visitor" changeset="9490517" lat="48.1359682" lon="11.5037693">
    <tag k="shop" v="supermarket"/>
    <tag k="wheelchair" v="limited"/>
    <tag k="name" v="REWE Supermarkt"/>
  </node>
  <node id="1401710517" version="3" timestamp="2011-10-14T17:47:31Z" uid="290680" user="wheelmap_visitor" changeset="9552229" lat="48.13581" lon="11.5043122">
    <tag k="shop" v="supermarket"/>
    <tag k="wheelchair" v="yes"/>
    <tag k="name" v="REWE"/>
  </node>
  <node id="1404748646" version="3" timestamp="2011-08-22T18:02:32Z" uid="495268" user="WLG" changeset="9096466" lat="48.1626227" lon="11.5864593">
    <tag k="shop" v="supermarket"/>
    <tag k="wheelchair" v="yes"/>
    <tag k="wheelchair:description" v="Nordausgang Untergeschoss"/>
    <tag k="name" v="ALNATURA"/>
    <tag k="addr:street" v="Münchner Freiheit"/>
    <tag k="addr:city" v="München"/>
  </node>
  <node id="1408804251" version="1" timestamp="2011-08-22T18:31:39Z" uid="495268" user="WLG" changeset="9096466" lat="48.160115" lon="11.5792776">
    <tag k="shop" v="supermarket"/>
    <tag k="wheelchair" v="yes"/>
    <tag k="wheelchair:description" v="kein WC"/>
    <tag k="name" v="dm  Drogeriemarkt"/>
    <tag k="addr:street" v="Hohenzollernstraße"/>
    <tag k="addr:city" v="München"/>
  </node>
  <node id="1410303522" version="3" timestamp="2011-12-28T16:29:20Z" uid="301486" user="occam11" changeset="10227578" lat="48.1623926" lon="11.5881002">
    <tag k="shop" v="supermarket"/>
    <tag k="wheelchair" v="no"/>
    <tag k="wheelchair:description" v="Schwelle &gt; 7cm; kein WC"/>
    <tag k="name" v="SCHOKOBAR Süßigkeiten / KORNKAMMER Naturkost"/>
    <tag k="addr:street" v="Haimhauserstraße"/>
    <tag k="addr:city" v="München"/>
  </node>
  <node id="1412602973" version="2" timestamp="2011-10-10T14:56:42Z" uid="290680" user="wheelmap_visitor" changeset="9518514" lat="48.1041916" lon="11.7287663">
    <tag k="shop" v="supermarket"/>
    <tag k="wheelchair" v="limited"/>
    <tag k="name" v="Tengelmann"/>
  </node>
  <node id="1417060860" version="4" timestamp="2011-10-16T11:33:47Z" uid="336643" user="BigBen2003" changeset="9571359" lat="48.1719057" lon="11.5855767">
    <tag k="addr:postcode" v="80804"/>
    <tag k="shop" v="supermarket"/>
    <tag k="wheelchair" v="limited"/>
    <tag k="addr:country" v="DE"/>
    <tag k="name" v="Netto"/>
    <tag k="addr:street" v="Leopoldstraße"/>
    <tag k="addr:city" v="München"/>
    <tag k="addr:housenumber" v="157"/>
  </node>
  <node id="1426030722" version="1" timestamp="2011-09-07T10:41:40Z" uid="472814" user="paoso" changeset="9235535" lat="48.1468331" lon="11.4580781">
    <tag k="shop" v="supermarket"/>
    <tag k="name" v="My Asia"/>
  </node>
  <node id="1469151256" version="2" timestamp="2011-11-18T15:48:32Z" uid="13219" user="Pyrokrat" changeset="9865010" lat="48.1208294" lon="11.6656205">
    <tag k="addr:postcode" v="81925"/>
    <tag k="shop" v="supermarket"/>
    <tag k="addr:country" v="DE"/>
    <tag k="name" v="Netto"/>
    <tag k="addr:street" v="Wasserburger Landstraße"/>
    <tag k="addr:city" v="München"/>
    <tag k="addr:housenumber" v="8"/>
    <tag k="opening_hours" v="Mo-Sa 07:00-20:00"/>
  </node>
  <node id="1473215617" version="2" timestamp="2011-11-27T19:16:51Z" uid="290680" user="wheelmap_visitor" changeset="9966256" lat="48.1783888" lon="11.5721413">
    <tag k="shop" v="supermarket"/>
    <tag k="wheelchair" v="yes"/>
    <tag k="name" v="Rewe"/>
  </node>
  <node id="1489491611" version="4" timestamp="2011-11-04T13:14:33Z" uid="338611" user="marek kleciak" changeset="9738352" lat="48.2496668" lon="11.6340749">
    <tag k="addr:postcode" v="87548"/>
    <tag k="shop" v="supermarket"/>
    <tag k="phone" v="08932209844"/>
    <tag k="name" v="Edeka"/>
    <tag k="addr:street" v="Parkring"/>
    <tag k="addr:city" v="Garching bei München"/>
    <tag k="addr:housenumber" v="37"/>
  </node>
  <node id="1489526560" version="1" timestamp="2011-11-02T13:41:36Z" uid="546693" user="Daschifahrer" changeset="9722098" lat="48.1919868" lon="11.588321">
    <tag k="shop" v="supermarket"/>
  </node>
  <node id="1492411432" version="1" timestamp="2011-11-05T14:48:14Z" uid="8748" user="ToniE" changeset="9746998" lat="48.0633217" lon="11.6488913">
    <tag k="shop" v="supermarket"/>
    <tag k="name" v="Edeka"/>
  </node>
  <node id="1499298289" version="1" timestamp="2011-11-11T20:38:22Z" uid="367380" user="Mloni" changeset="9799569" lat="48.1469034" lon="11.5029412">
    <tag k="shop" v="supermarket"/>
    <tag k="name" v="Aldi Süd"/>
  </node>
  <node id="1499298501" version="1" timestamp="2011-11-11T20:38:25Z" uid="367380" user="Mloni" changeset="9799569" lat="48.1467252" lon="11.5028709">
    <tag k="shop" v="supermarket"/>
    <tag k="name" v="Rewe"/>
  </node>
  <node id="1520339511" version="1" timestamp="2011-11-27T22:10:03Z" uid="16394" user="ysae" changeset="9972663" lat="48.1263714" lon="11.5820551">
    <tag k="shop" v="supermarket"/>
    <tag k="name" v="Tengelmann"/>
  </node>
  <node id="1528180775" version="1" timestamp="2011-12-02T12:28:22Z" uid="562893" user="rmuc" changeset="10016229" lat="48.1376557" lon="11.5037985">
    <tag k="shop" v="supermarket"/>
    <tag k="name" v="Andis Landmarkt"/>
  </node>
  <node id="1528188890" version="1" timestamp="2011-12-02T12:33:54Z" uid="562893" user="rmuc" changeset="10016229" lat="48.1366712" lon="11.5026129">
    <tag k="shop" v="supermarket"/>
    <tag k="name" v="Tengelmann"/>
  </node>
  <node id="1528210940" version="2" timestamp="2011-12-02T13:22:49Z" uid="562893" user="rmuc" changeset="10016229" lat="48.1387583" lon="11.5033749">
    <tag k="shop" v="supermarket"/>
    <tag k="name" v="Netto"/>
  </node>
  <node id="1528259309" version="1" timestamp="2011-12-02T13:07:23Z" uid="562893" user="rmuc" changeset="10016229" lat="48.138071" lon="11.5025271">
    <tag k="shop" v="supermarket"/>
  </node>
  <node id="1539485479" version="2" timestamp="2011-12-10T14:05:01Z" uid="35482" user="Henning Daum" changeset="10081165" lat="48.1482909" lon="11.6176914">
    <tag k="shop" v="supermarket"/>
    <tag k="name" v="Aldi Süd"/>
  </node>
  <node id="1558579481" version="2" timestamp="2012-01-08T12:14:47Z" uid="367380" user="Mloni" changeset="10330587" lat="48.151673" lon="11.5583722">
    <tag k="shop" v="supermarket"/>
    <tag k="name" v="Lidl"/>
  </node>
  <node id="1567316469" version="1" timestamp="2011-12-29T14:29:35Z" uid="287306" user="Matthias Frank" changeset="10235784" lat="48.1504661" lon="11.5635292">
    <tag k="shop" v="supermarket"/>
    <tag k="wheelchair" v="yes"/>
    <tag k="name" v="Netto City"/>
    <tag k="opening_hours" v="Mo-Sa 07:00-20:00"/>
  </node>
  <node id="1567316522" version="1" timestamp="2011-12-29T14:29:36Z" uid="287306" user="Matthias Frank" changeset="10235784" lat="48.1496894" lon="11.5661054">
    <tag k="shop" v="supermarket"/>
    <tag k="wheelchair" v="yes"/>
    <tag k="name" v="Lidl"/>
    <tag k="opening_hours" v="Mo-Sa 07:00-20:00"/>
  </node>
  <node id="1579339560" version="1" timestamp="2012-01-06T11:39:16Z" uid="581139" user="JMaurer" changeset="10310467" lat="48.1185968" lon="11.658458">
    <tag k="shop" v="supermarket"/>
    <tag k="name" v="Edeka Braun"/>
  </node>
  <node id="1582404449" version="1" timestamp="2012-01-08T11:27:10Z" uid="64658" user="AndiV" changeset="10330148" lat="48.0957139" lon="11.4964437">
    <tag k="shop" v="supermarket"/>
    <tag k="name" v="Vitalia Reformhaus"/>
  </node>
</osm>
